"STATION","DATE","REPORT_TYPE","SOURCE","AWND","BackupDirection","BackupDistance","BackupDistanceUnit","BackupElements","BackupElevation","BackupElevationUnit","BackupEquipment","BackupLatitude","BackupLongitude","BackupName","CDSD","CLDD","DSNW","DailyAverageDewPointTemperature","DailyAverageDryBulbTemperature","DailyAverageRelativeHumidity","DailyAverageSeaLevelPressure","DailyAverageStationPressure","DailyAverageWetBulbTemperature","DailyAverageWindSpeed","DailyCoolingDegreeDays","DailyDepartureFromNormalAverageTemperature","DailyHeatingDegreeDays","DailyMaximumDryBulbTemperature","DailyMinimumDryBulbTemperature","DailyPeakWindDirection","DailyPeakWindSpeed","DailyPrecipitation","DailySnowDepth","DailySnowfall","DailySustainedWindDirection","DailySustainedWindSpeed","DailyWeather","HDSD","HTDD","HeavyFog","HourlyAltimeterSetting","HourlyDewPointTemperature","HourlyDryBulbTemperature","HourlyPrecipitation","HourlyPresentWeatherType","HourlyPressureChange","HourlyPressureTendency","HourlyRelativeHumidity","HourlySeaLevelPressure","HourlySkyConditions","HourlyStationPressure","HourlyVisibility","HourlyWetBulbTemperature","HourlyWindDirection","HourlyWindGustSpeed","HourlyWindSpeed","MonthlyAverageRH","MonthlyDaysWithGT001Precip","MonthlyDaysWithGT010Precip","MonthlyDaysWithGT32Temp","MonthlyDaysWithGT90Temp","MonthlyDaysWithLT0Temp","MonthlyDaysWithLT32Temp","MonthlyDepartureFromNormalAverageTemperature","MonthlyDepartureFromNormalCoolingDegreeDays","MonthlyDepartureFromNormalHeatingDegreeDays","MonthlyDepartureFromNormalMaximumTemperature","MonthlyDepartureFromNormalMinimumTemperature","MonthlyDepartureFromNormalPrecipitation","MonthlyDewpointTemperature","MonthlyGreatestPrecip","MonthlyGreatestPrecipDate","MonthlyGreatestSnowDepth","MonthlyGreatestSnowDepthDate","MonthlyGreatestSnowfall","MonthlyGreatestSnowfallDate","MonthlyMaxSeaLevelPressureValue","MonthlyMaxSeaLevelPressureValueDate","MonthlyMaxSeaLevelPressureValueTime","MonthlyMaximumTemperature","MonthlyMeanTemperature","MonthlyMinSeaLevelPressureValue","MonthlyMinSeaLevelPressureValueDate","MonthlyMinSeaLevelPressureValueTime","MonthlyMinimumTemperature","MonthlySeaLevelPressure","MonthlyStationPressure","MonthlyTotalLiquidPrecipitation","MonthlyTotalSnowfall","MonthlyWetBulb","NormalsCoolingDegreeDay","NormalsHeatingDegreeDay","REM","REPORT_TYPE","SOURCE","ShortDurationEndDate005","ShortDurationEndDate010","ShortDurationEndDate015","ShortDurationEndDate020","ShortDurationEndDate030","ShortDurationEndDate045","ShortDurationEndDate060","ShortDurationEndDate080","ShortDurationEndDate100","ShortDurationEndDate120","ShortDurationEndDate150","ShortDurationEndDate180","ShortDurationPrecipitationValue005","ShortDurationPrecipitationValue010","ShortDurationPrecipitationValue015","ShortDurationPrecipitationValue020","ShortDurationPrecipitationValue030","ShortDurationPrecipitationValue045","ShortDurationPrecipitationValue060","ShortDurationPrecipitationValue080","ShortDurationPrecipitationValue100","ShortDurationPrecipitationValue120","ShortDurationPrecipitationValue150","ShortDurationPrecipitationValue180","Sunrise","Sunset","TStorms","WindEquipmentChangeDate"
"72287493134","2020-02-01T00:52:00","FM-15","7",,,"3.89","mi",,,,,,,"PENDING COOP",,,,,,,,,,,,,,,,,,,,,,,,,,,"30.22","35","64","0.00",,"+0.01","8","34","30.21","CLR:00","30.02","10.00","50","000",,"0",,,,,,,,,,,,,,,,,,,,,,,,,,,,,,,,,,,,,"MET09602/01/20 00:52:02 METAR KCQT 010852Z 00000KT 10SM CLR 18/02 A3022 RMK AO2 SLP229 T01780017 58002","FM-15","7",,,,,,,,,,,,,,,,,,,,,,,,,,,,"2006-02-03"
"72287493134","2020-02-01T01:52:00","FM-15","7",,,"3.89","mi",,,,,,,"PENDING COOP",,,,,,,,,,,,,,,,,,,,,,,,,,,"30.22","35","60","0.00",,,,"39","30.21","CLR:00","30.02","10.00","48","000",,"0",,,,,,,,,,,,,,,,,,,,,,,,,,,,,,,,,,,,,"MET09002/01/20 01:52:02 METAR KCQT 010952Z 00000KT 10SM CLR 16/02 A3022 RMK AO2 SLP230 T01560017","FM-15","7",,,,,,,,,,,,,,,,,,,,,,,,,,,,"2006-02-03"
"72287493134","2020-02-01T02:52:00","FM-15","7",,,"3.89","mi",,,,,,,"PENDING COOP",,,,,,,,,,,,,,,,,,,,,,,,,,,"30.22","36","57","0.00",,,,"45","30.21","CLR:00","30.02","10.00","47","000",,"0",,,,,,,,,,,,,,,,,,,,,,,,,,,,,,,,,,,,,"MET09002/01/20 02:52:02 METAR KCQT 011052Z 00000KT 10SM CLR 14/02 A3022 RMK AO2 SLP231 T01390022","FM-15","7",,,,,,,,,,,,,,,,,,,,,,,,,,,,"2006-02-03"
"72287493134","2020-02-01T03:52:00","FM-15","7",,,"3.89","mi",,,,,,,"PENDING COOP",,,,,,,,,,,,,,,,,,,,,,,,,,,"30.22","37","55","0.00",,"-0.01","1","51","30.22","CLR:00","30.02","10.00","47","000",,"0",,,,,,,,,,,,,,,,,,,,,,,,,,,,,,,,,,,,,"MET10802/01/20 03:52:02 METAR KCQT 011152Z 00000KT 10SM CLR 13/03 A3022 RMK AO2 SLP233 T01280028 10194 20128 51002","FM-15","7",,,,,,,,,,,,,,,,,,,,,,,,,,,,"2006-02-03"
"72287493134","2020-02-01T04:52:00","FM-15","7",,,"3.89","mi",,,,,,,"PENDING COOP",,,,,,,,,,,,,,,,,,,,,,,,,,,"30.22","33","58","0.00",,,,"39","30.21","CLR:00","30.02","10.00","47","360",,"3",,,,,,,,,,,,,,,,,,,,,,,,,,,,,,,,,,,,,"MET09002/01/20 04:52:02 METAR KCQT 011252Z 36003KT 10SM CLR 14/01 A3022 RMK AO2 SLP230 T01440006","FM-15","7",,,,,,,,,,,,,,,,,,,,,,,,,,,,"2006-02-03"
"72287493134","2020-02-01T05:52:00","FM-15","7",,,"3.89","mi",,,,,,,"PENDING COOP",,,,,,,,,,,,,,,,,,,,,,,,,,,"30.22","30","62","0.00",,,,"30","30.22","CLR:00","30.02","10.00","47","020",,"3",,,,,,,,,,,,,,,,,,,,,,,,,,,,,,,,,,,,,"MET09102/01/20 05:52:02 METAR KCQT 011352Z 02003KT 10SM CLR 17/M01 A3022 RMK AO2 SLP233 T01671011","FM-15","7",,,,,,,,,,,,,,,,,,,,,,,,,,,,"2006-02-03"
"72287493134","2020-02-01T06:52:00","FM-15","7",,,"3.89","mi",,,,,,,"PENDING COOP",,,,,,,,,,,,,,,,,,,,,,,,,,,"30.23","31","61","0.00",,"-0.01","3","32","30.23","CLR:00","30.03","10.00","47","020",,"5",,,,,,,,,,,,,,,,,,,,,,,,,,,,,,,,,,,,,"MET09702/01/20 06:52:02 METAR KCQT 011452Z 02004KT 10SM CLR 16/M01 A3023 RMK AO2 SLP237 T01611006 53004","FM-15","7",,,,,,,,,,,,,,,,,,,,,,,,,,,,"2006-02-03"
"72287493134","2020-02-01T07:52:00","FM-15","7",,,"3.89","mi",,,,,,,"PENDING COOP",,,,,,,,,,,,,,,,,,,,,,,,,,,"30.24","32","63","0.00",,,,"31","30.24","CLR:00","30.04","10.00","49","010",,"3",,,,,,,,,,,,,,,,,,,,,,,,,,,,,,,,,,,,,"MET09002/01/20 07:52:02 METAR KCQT 011552Z 01003KT 10SM CLR 17/00 A3024 RMK AO2 SLP239 T01720000","FM-15","7",,,,,,,,,,,,,,,,,,,,,,,,,,,,"2006-02-03"
"72287493134","2020-02-01T08:52:00","FM-15","7",,,"3.89","mi",,,,,,,"PENDING COOP",,,,,,,,,,,,,,,,,,,,,,,,,,,"30.24","34","69","0.00",,,,"27","30.23","CLR:00","30.04","10.00","52","000",,"0",,,,,,,,,,,,,,,,,,,,,,,,,,,,,,,,,,,,,"MET09002/01/20 08:52:02 METAR KCQT 011652Z 00000KT 10SM CLR 21/01 A3024 RMK AO2 SLP238 T02060011","FM-15","7",,,,,,,,,,,,,,,,,,,,,,,,,,,,"2006-02-03"
"72287493134","2020-02-01T09:52:00","FM-15","7",,,"3.89","mi",,,,,,,"PENDING COOP",,,,,,,,,,,,,,,,,,,,,,,,,,,"30.23","34","76","0.00",,"+0.01","8","22","30.22","CLR:00","30.03","10.00","55","020",,"3",,,,,,,,,,,,,,,,,,,,,,,,,,,,,,,,,,,,,"MET10802/01/20 09:52:02 METAR KCQT 011752Z 02003KT 10SM CLR 24/01 A3023 RMK AO2 SLP234 T02440011 10244 20128 58002","FM-15","7",,,,,,,,,,,,,,,,,,,,,,,,,,,,"2006-02-03"
"72287493134","2020-02-01T10:52:00","FM-15","7",,,"3.89","mi",,,,,,,"PENDING COOP",,,,,,,,,,,,,,,,,,,,,,,,,,,"30.22","32","80","0.00",,,,"17","30.21","CLR:00","30.02","10.00","56","000",,"0",,,,,,,,,,,,,,,,,,,,,,,,,,,,,,,,,,,,,"MET09002/01/20 10:52:02 METAR KCQT 011852Z 00000KT 10SM CLR 27/00 A3022 RMK AO2 SLP229 T02670000","FM-15","7",,,,,,,,,,,,,,,,,,,,,,,,,,,,"2006-02-03"
"72287493134","2020-02-01T11:52:00","FM-15","7",,,"3.89","mi",,,,,,,"PENDING COOP",,,,,,,,,,,,,,,,,,,,,,,,,,,"30.18","31","83","0.00",,,,"15","30.17","CLR:00","29.98","10.00","57","000",,"0",,,,,,,,,,,,,,,,,,,,,,,,,,,,,,,,,,,,,"MET09502/01/20 11:52:02 METAR KCQT 011952Z 00000KT 10SM CLR 28/M01 A3018 RMK AO2 SLP217 T02831006 RTX","FM-15","7",,,,,,,,,,,,,,,,,,,,,,,,,,,,"2006-02-03"
"72287493134","2020-02-01T12:52:00","FM-15","7",,,"3.89","mi",,,,,,,"PENDING COOP",,,,,,,,,,,,,,,,,,,,,,,,,,,"30.15","32","83","0.00",,"+0.08","8","16","30.14","CLR:00","29.95","10.00","57","000",,"0",,,,,,,,,,,,,,,,,,,,,,,,,,,,,,,,,,,,,"MET09602/01/20 12:52:02 METAR KCQT 012052Z 00000KT 10SM CLR 28/00 A3015 RMK AO2 SLP207 T02830000 58027","FM-15","7",,,,,,,,,,,,,,,,,,,,,,,,,,,,"2006-02-03"
"72287493134","2020-02-01T13:52:00","FM-15","7",,,"3.89","mi",,,,,,,"PENDING COOP",,,,,,,,,,,,,,,,,,,,,,,,,,,"30.12","29","85","0.00",,,,"13","30.11","CLR:00","29.92","10.00","57","000",,"0",,,,,,,,,,,,,,,,,,,,,,,,,,,,,,,,,,,,,"MET09102/01/20 13:52:02 METAR KCQT 012152Z 00000KT 10SM CLR 29/M02 A3012 RMK AO2 SLP196 T02941017","FM-15","7",,,,,,,,,,,,,,,,,,,,,,,,,,,,"2006-02-03"
"72287493134","2020-02-01T14:52:00","FM-15","7",,,"3.89","mi",,,,,,,"PENDING COOP",,,,,,,,,,,,,,,,,,,,,,,,,,,"30.10","41","83","0.00",,,,"23","30.09","CLR:00","29.90","10.00","60","280",,"6",,,,,,,,,,,,,,,,,,,,,,,,,,,,,,,,,,,,,"MET09002/01/20 14:52:02 METAR KCQT 012252Z 28005KT 10SM CLR 28/05 A3010 RMK AO2 SLP191 T02830050","FM-15","7",,,,,,,,,,,,,,,,,,,,,,,,,,,,"2006-02-03"
"72287493134","2020-02-01T15:52:00","FM-15","7",,,"3.89","mi",,,,,,,"PENDING COOP",,,,,,,,,,,,,,,,,,,,,,,,,,,"30.09","35","79","0.00",,"+0.06","6","20","30.09","CLR:00","29.89","10.00","56","260",,"8",,,,,,,,,,,,,,,,,,,,,,,,,,,,,,,,,,,,,"MET10802/01/20 15:52:02 METAR KCQT 012352Z 26007KT 10SM CLR 26/02 A3009 RMK AO2 SLP189 T02610017 10300 20244 56019","FM-15","7",,,,,,,,,,,,,,,,,,,,,,,,,,,,"2006-02-03"
"72287493134","2020-02-01T16:52:00","FM-15","7",,,"3.89","mi",,,,,,,"PENDING COOP",,,,,,,,,,,,,,,,,,,,,,,,,,,"30.08","33","77","0.00",,,,"20","30.08","CLR:00","29.88","10.00","55","280",,"3",,,,,,,,,,,,,,,,,,,,,,,,,,,,,,,,,,,,,"MET09002/01/20 16:52:01 METAR KCQT 020052Z 28003KT 10SM CLR 25/01 A3008 RMK AO2 SLP186 T02500006","FM-15","7",,,,,,,,,,,,,,,,,,,,,,,,,,,,"2006-02-03"
"72287493134","2020-02-01T17:52:00","FM-15","6",,,"3.89","mi",,,,,,,"PENDING COOP",,,,,,,,,,,,,,,,,,,,,,,,,,,"30.08","39","71","0.00",,,,"31","30.07","CLR:00","29.88","10.00","55","000",,"0",,,,,,,,,,,,,,,,,,,,,,,,,,,,,,,,,,,,,"MET09002/01/20 17:52:03 METAR KCQT 020152Z 00000KT 10SM CLR 22/04 A3008 RMK AO2 SLP184 T02170039","FM-15","6",,,,,,,,,,,,,,,,,,,,,,,,,,,,"2006-02-03"
"72287493134","2020-02-01T18:52:00","FM-15","7",,,"3.89","mi",,,,,,,"PENDING COOP",,,,,,,,,,,,,,,,,,,,,,,,,,,"30.08","40","68","0.00",,"+0.01","6","36","30.07","CLR:00","29.88","10.00","54","000",,"0",,,,,,,,,,,,,,,,,,,,,,,,,,,,,,,,,,,,,"MET09602/01/20 18:52:01 METAR KCQT 020252Z 00000KT 10SM CLR 20/04 A3008 RMK AO2 SLP184 T02000044 56005","FM-15","7",,,,,,,,,,,,,,,,,,,,,,,,,,,,"2006-02-03"
"72287493134","2020-02-01T19:52:00","FM-15","7",,,"3.89","mi",,,,,,,"PENDING COOP",,,,,,,,,,,,,,,,,,,,,,,,,,,"30.08","42","66","0.00",,,,"42","30.08","CLR:00","29.88","10.00","54","000",,"0",,,,,,,,,,,,,,,,,,,,,,,,,,,,,,,,,,,,,"MET09002/01/20 19:52:01 METAR KCQT 020352Z 00000KT 10SM CLR 19/06 A3008 RMK AO2 SLP185 T01890056","FM-15","7",,,,,,,,,,,,,,,,,,,,,,,,,,,,"2006-02-03"
"72287493134","2020-02-01T20:52:00","FM-15","7",,,"3.89","mi",,,,,,,"PENDING COOP",,,,,,,,,,,,,,,,,,,,,,,,,,,"30.07","46","64","0.00",,,,"52","30.06","CLR:00","29.87","10.00","54","000",,"0",,,,,,,,,,,,,,,,,,,,,,,,,,,,,,,,,,,,,"MET09002/01/20 20:52:02 METAR KCQT 020452Z 00000KT 10SM CLR 18/08 A3007 RMK AO2 SLP180 T01780078","FM-15","7",,,,,,,,,,,,,,,,,,,,,,,,,,,,"2006-02-03"
"72287493134","2020-02-01T21:52:00","FM-15","7",,,"3.89","mi",,,,,,,"PENDING COOP",,,,,,,,,,,,,,,,,,,,,,,,,,,"30.06","49","63","0.00",,"+0.01","8","60","30.06","CLR:00","29.86","10.00","55","000",,"0",,,,,,,,,,,,,,,,,,,,,,,,,,,,,,,,,,,,,"MET10802/01/20 21:52:02 METAR KCQT 020552Z 00000KT 10SM CLR 17/09 A3006 RMK AO2 SLP178 T01720094 10261 20167 58005","FM-15","7",,,,,,,,,,,,,,,,,,,,,,,,,,,,"2006-02-03"
"72287493134","2020-02-01T22:52:00","FM-15","7",,,"3.89","mi",,,,,,,"PENDING COOP",,,,,,,,,,,,,,,,,,,,,,,,,,,"30.06","45","63","0.00",,,,"52","30.05","CLR:00","29.86","10.00","54","000",,"0",,,,,,,,,,,,,,,,,,,,,,,,,,,,,,,,,,,,,"MET09002/01/20 22:52:02 METAR KCQT 020652Z 00000KT 10SM CLR 17/07 A3006 RMK AO2 SLP175 T01720072","FM-15","7",,,,,,,,,,,,,,,,,,,,,,,,,,,,"2006-02-03"
"72287493134","2020-02-01T23:52:00","FM-15","7",,,"3.89","mi",,,,,,,"PENDING COOP",,,,,,,,,,,,,,,,,,,,,,,,,,,"30.04","39","64","0.00",,,,"40","30.03","CLR:00","29.84","10.00","52","010",,"3",,,,,,,,,,,,,,,,,,,,,,,,,,,,,,,,,,,,,"MET10002/01/20 23:52:02 METAR KCQT 020752Z 01003KT 10SM CLR 18/04 A3004 RMK AO2 SLP170 T01780039 403000128","FM-15","7",,,,,,,,,,,,,,,,,,,,,,,,,,,,"2006-02-03"
"72287493134","2020-02-01T23:59:00","SOD  ","6",,,"3.89","mi",,,,,,,"PENDING COOP",,,,"36","71","33","30.15","29.95","53","1.6","6","12.7","0","86","55","260","13","0.00",,,"260","8",,,,,,,,,,,,,,,,,,,,,,,,,,,,,,,,,,,,,,,,,,,,,,,,,,,,,,,,,"SOD73924 HR PRECIPITATION (IN): 0.00 SNOW DEPTH (IN):0     24 HR SNOWFALL (IN):0.0  24 HR MAX TEMP (F): 8624 HR MIN TEMP (F): 55AVERAGE STATION PRESSURE:29.945 MINIMUM SEA LEVEL PRESSURE:30.03 TIME OF OCCURRENCE:2359 PEAK WIND SPEED (MPH): 13 PEAK WIND DIR (DEG):260 PEAK WIND TIME (LST):      FASTEST 2MIN SPEED (MPH):  8FASTEST 2MIN DIR (DEG):260 FASTEST 2MIN TIME (LST):     AVERAGE WIND SPEED (MPH): 1.6 24 HR AVG TEMP (F): 71DEPART FROM NORMAL: 13  HEATING DEGREE DAYS:  0 COOLING DEGREE DAYS:  6 LATEST DAY MAX TEMP (0700-1900 LST):86  LATEST NIGHT MIN TEMP(1900-0800 LST):55 HOURLY INCREMENTAL PRECIPITATION VALUES (IN):.00 0.00 0.00 0.00 0.00 0.00 0.00 0.00 0.00 0.00 0.00 0.00 0.00 0.00 0.00 0.00 0.00 0.00 0.00 0.00 0.00 0.00 0.00 0.00","SOD  ","6",,,,,,,,,,,,,,,,,,,,,,,,,"0650","1724",,"2006-02-03"
"72287493134","2020-02-02T00:52:00","FM-15","7",,,"3.89","mi",,,,,,,"PENDING COOP",,,,,,,,,,,,,,,,,,,,,,,,,,,"30.02","36","63","0.00",,"+0.04","8","37","30.01","CLR:00","29.82","10.00","50","360",,"3",,,,,,,,,,,,,,,,,,,,,,,,,,,,,,,,,,,,,"MET09602/02/20 00:52:02 METAR KCQT 020852Z 36003KT 10SM CLR 17/02 A3002 RMK AO2 SLP164 T01720022 58014","FM-15","7",,,,,,,,,,,,,,,,,,,,,,,,,,,,"2006-02-03"
"72287493134","2020-02-02T01:52:00","FM-15","7",,,"3.89","mi",,,,,,,"PENDING COOP",,,,,,,,,,,,,,,,,,,,,,,,,,,"30.00","35","64","0.00",,,,"34","29.99","CLR:00","29.80","10.00","50","030",,"3",,,,,,,,,,,,,,,,,,,,,,,,,,,,,,,,,,,,,"MET09002/02/20 01:52:02 METAR KCQT 020952Z 03003KT 10SM CLR 18/02 A3000 RMK AO2 SLP155 T01780017","FM-15","7",,,,,,,,,,,,,,,,,,,,,,,,,,,,"2006-02-03"
"72287493134","2020-02-02T02:52:00","FM-15","7",,,"3.89","mi",,,,,,,"PENDING COOP",,,,,,,,,,,,,,,,,,,,,,,,,,,"29.98","36","62","0.00",,,,"38","29.97","CLR:00","29.78","10.00","49","000",,"0",,,,,,,,,,,,,,,,,,,,,,,,,,,,,,,,,,,,,"MET09002/02/20 02:52:02 METAR KCQT 021052Z 00000KT 10SM CLR 17/02 A2998 RMK AO2 SLP149 T01670022","FM-15","7",,,,,,,,,,,,,,,,,,,,,,,,,,,,"2006-02-03"
"72287493134","2020-02-02T03:52:00","FM-15","7",,,"3.89","mi",,,,,,,"PENDING COOP",,,,,,,,,,,,,,,,,,,,,,,,,,,"29.96","37","59","0.00",,"+0.06","6","44","29.95","CLR:00","29.76","10.00","48","360",,"3",,,,,,,,,,,,,,,,,,,,,,,,,,,,,,,,,,,,,"MET10802/02/20 03:52:02 METAR KCQT 021152Z 36003KT 10SM CLR 15/03 A2996 RMK AO2 SLP143 T01500028 10189 20144 56021","FM-15","7",,,,,,,,,,,,,,,,,,,,,,,,,,,,"2006-02-03"
"72287493134","2020-02-02T04:52:00","FM-15","7",,,"3.89","mi",,,,,,,"PENDING COOP",,,,,,,,,,,,,,,,,,,,,,,,,,,"29.95","35","61","0.00",,,,"38","29.94","CLR:00","29.75","10.00","49","020",,"3",,,,,,,,,,,,,,,,,,,,,,,,,,,,,,,,,,,,,"MET09002/02/20 04:52:02 METAR KCQT 021252Z 02003KT 10SM CLR 16/02 A2995 RMK AO2 SLP140 T01610017","FM-15","7",,,,,,,,,,,,,,,,,,,,,,,,,,,,"2006-02-03"
"72287493134","2020-02-02T05:52:00","FM-15","7",,,"3.89","mi",,,,,,,"PENDING COOP",,,,,,,,,,,,,,,,,,,,,,,,,,,"29.97","37","57","0.00",,,,"47","29.96","CLR:00","29.77","10.00","48","000",,"0",,,,,,,,,,,,,,,,,,,,,,,,,,,,,,,,,,,,,"MET09002/02/20 05:52:02 METAR KCQT 021352Z 00000KT 10SM CLR 14/03 A2997 RMK AO2 SLP146 T01390028","FM-15","7",,,,,,,,,,,,,,,,,,,,,,,,,,,,"2006-02-03"
"72287493134","2020-02-02T06:52:00","FM-15","7",,,"3.89","mi",,,,,,,"PENDING COOP",,,,,,,,,,,,,,,,,,,,,,,,,,,"29.97","38","55","0.00",,"-0.01","3","53","29.96","CLR:00","29.77","10.00","47","000",,"0",,,,,,,,,,,,,,,,,,,,,,,,,,,,,,,,,,,,,"MET09602/02/20 06:52:02 METAR KCQT 021452Z 00000KT 10SM CLR 13/03 A2997 RMK AO2 SLP147 T01280033 53003","FM-15","7",,,,,,,,,,,,,,,,,,,,,,,,,,,,"2006-02-03"
"72287493134","2020-02-02T07:52:00","FM-15","7",,,"3.89","mi",,,,,,,"PENDING COOP",,,,,,,,,,,,,,,,,,,,,,,,,,,"29.98","38","59","0.00",,,,"46","29.97","CLR:00","29.78","10.00","49","000",,"0",,,,,,,,,,,,,,,,,,,,,,,,,,,,,,,,,,,,,"MET09002/02/20 07:52:02 METAR KCQT 021552Z 00000KT 10SM CLR 15/03 A2998 RMK AO2 SLP149 T01500033","FM-15","7",,,,,,,,,,,,,,,,,,,,,,,,,,,,"2006-02-03"
"72287493134","2020-02-02T08:52:00","FM-15","7",,,"3.89","mi",,,,,,,"PENDING COOP",,,,,,,,,,,,,,,,,,,,,,,,,,,"29.99","37","63","0.00",,,,"38","29.98","CLR:00","29.79","10.00","50","000",,"0",,,,,,,,,,,,,,,,,,,,,,,,,,,,,,,,,,,,,"MET09002/02/20 08:52:02 METAR KCQT 021652Z 00000KT 10SM CLR 17/03 A2999 RMK AO2 SLP152 T01720028","FM-15","7",,,,,,,,,,,,,,,,,,,,,,,,,,,,"2006-02-03"
"72287493134","2020-02-02T09:52:00","FM-15","7",,,"3.89","mi",,,,,,,"PENDING COOP",,,,,,,,,,,,,,,,,,,,,,,,,,,"29.99","49","66","0.00",,"-0.02","1","54","29.98","CLR:00","29.79","10.00","57","VRB",,"5",,,,,,,,,,,,,,,,,,,,,,,,,,,,,,,,,,,,,"MET10802/02/20 09:52:02 METAR KCQT 021752Z VRB04KT 10SM CLR 19/09 A2999 RMK AO2 SLP153 T01890094 10189 20128 51006","FM-15","7",,,,,,,,,,,,,,,,,,,,,,,,,,,,"2006-02-03"
"72287493134","2020-02-02T10:52:00","FM-15","7",,,"3.89","mi",,,,,,,"PENDING COOP",,,,,,,,,,,,,,,,,,,,,,,,,,,"29.97","46","69","0.00",,,,"44","29.97","CLR:00","29.77","10.00","57","VRB",,"3",,,,,,,,,,,,,,,,,,,,,,,,,,,,,,,,,,,,,"MET09002/02/20 10:52:02 METAR KCQT 021852Z VRB03KT 10SM CLR 21/08 A2997 RMK AO2 SLP148 T02060078","FM-15","7",,,,,,,,,,,,,,,,,,,,,,,,,,,,"2006-02-03"
"72287493134","2020-02-02T11:52:00","FM-15","7",,,"3.89","mi",,,,,,,"PENDING COOP",,,,,,,,,,,,,,,,,,,,,,,,,,,"29.95","47","71","0.00",,,,"42","29.94","CLR:00","29.75","9.00","58","090",,"5",,,,,,,,,,,,,,,,,,,,,,,,,,,,,,,,,,,,,"MET08902/02/20 11:52:02 METAR KCQT 021952Z 09004KT 9SM CLR 22/08 A2995 RMK AO2 SLP139 T02170083","FM-15","7",,,,,,,,,,,,,,,,,,,,,,,,,,,,"2006-02-03"
"72287493134","2020-02-02T12:52:00","FM-15","7",,,"3.89","mi",,,,,,,"PENDING COOP",,,,,,,,,,,,,,,,,,,,,,,,,,,"29.92","52","69","0.00",,"+0.07","8","55","29.91","CLR:00","29.72","10.00","59","VRB",,"5",,,,,,,,,,,,,,,,,,,,,,,,,,,,,,,,,,,,,"MET09602/02/20 12:52:02 METAR KCQT 022052Z VRB04KT 10SM CLR 21/11 A2992 RMK AO2 SLP129 T02060111 58023","FM-15","7",,,,,,,,,,,,,,,,,,,,,,,,,,,,"2006-02-03"
"72287493134","2020-02-02T13:52:00","FM-15","7",,,"3.89","mi",,,,,,,"PENDING COOP",,,,,,,,,,,,,,,,,,,,,,,,,,,"29.89","53","69","0.00",,,,"57","29.88","CLR:00","29.69","10.00","60","000",,"0",,,,,,,,,,,,,,,,,,,,,,,,,,,,,,,,,,,,,"MET09002/02/20 13:52:02 METAR KCQT 022152Z 00000KT 10SM CLR 21/12 A2989 RMK AO2 SLP119 T02060117","FM-15","7",,,,,,,,,,,,,,,,,,,,,,,,,,,,"2006-02-03"
"72287493134","2020-02-02T14:52:00","FM-15","7",,,"3.89","mi",,,,,,,"PENDING COOP",,,,,,,,,,,,,,,,,,,,,,,,,,,"29.88","52","66","0.00",,,,"61","29.87","CLR:00","29.68","10.00","58","260",,"6",,,,,,,,,,,,,,,,,,,,,,,,,,,,,,,,,,,,,"MET09002/02/20 14:52:02 METAR KCQT 022252Z 26005KT 10SM CLR 19/11 A2988 RMK AO2 SLP116 T01890111","FM-15","7",,,,,,,,,,,,,,,,,,,,,,,,,,,,"2006-02-03"
"72287493134","2020-02-02T15:52:00","FM-15","7",,,"3.89","mi",,,,,,,"PENDING COOP",,,,,,,,,,,,,,,,,,,,,,,,,,,"29.85","52","65","0.00",,"+0.07","7","63","29.84","CLR:00","29.65","10.00","58","000",,"0",,,,,,,,,,,,,,,,,,,,,,,,,,,,,,,,,,,,,"MET10802/02/20 15:52:02 METAR KCQT 022352Z 00000KT 10SM CLR 18/11 A2985 RMK AO2 SLP106 T01830111 10222 20178 57023","FM-15","7",,,,,,,,,,,,,,,,,,,,,,,,,,,,"2006-02-03"
"72287493134","2020-02-02T16:38:00","FM-16","7",,,"3.89","mi",,,,,,,"PENDING COOP",,,,,,,,,,,,,,,,,,,,,,,,,,,"29.85","52","63",,,,,"68",,"BKN:07 18","29.65","10.00","57","250",,"3",,,,,,,,,,,,,,,,,,,,,,,,,,,,,,,,,,,,,"MET08602/02/20 16:38:01 SPECI KCQT 030038Z 25003KT 10SM BKN018 17/11 A2985 RMK AO2 T01720111","FM-16","7",,,,,,,,,,,,,,,,,,,,,,,,,,,,"2006-02-03"
"72287493134","2020-02-02T16:52:00","FM-15","7",,,"3.89","mi",,,,,,,"PENDING COOP",,,,,,,,,,,,,,,,,,,,,,,,,,,"29.84","52","62","0.00",,,,"70","29.83","OVC:08 19","29.64","10.00","56","260",,"6",,,,,,,,,,,,,,,,,,,,,,,,,,,,,,,,,,,,,"MET09302/02/20 16:52:01 METAR KCQT 030052Z 26005KT 10SM OVC019 17/11 A2984 RMK AO2 SLP103 T01670111","FM-15","7",,,,,,,,,,,,,,,,,,,,,,,,,,,,"2006-02-03"
"72287493134","2020-02-02T17:47:00","FM-16","7",,,"3.89","mi",,,,,,,"PENDING COOP",,,,,,,,,,,,,,,,,,,,,,,,,,,"29.84","52","62",,,,,"70",,"OVC:08 14","29.64","10.00","56","000",,"0",,,,,,,,,,,,,,,,,,,,,,,,,,,,,,,,,,,,,"MET08602/02/20 17:47:01 SPECI KCQT 030147Z 00000KT 10SM OVC014 17/11 A2984 RMK AO2 T01670111","FM-16","7",,,,,,,,,,,,,,,,,,,,,,,,,,,,"2006-02-03"
"72287493134","2020-02-02T17:52:00","FM-15","7",,,"3.89","mi",,,,,,,"PENDING COOP",,,,,,,,,,,,,,,,,,,,,,,,,,,"29.84","52","62","0.00",,,,"70","29.84","OVC:08 14","29.64","10.00","56","260",,"3",,,,,,,,,,,,,,,,,,,,,,,,,,,,,,,,,,,,,"MET09302/02/20 17:52:01 METAR KCQT 030152Z 26003KT 10SM OVC014 17/11 A2984 RMK AO2 SLP105 T01670111","FM-15","7",,,,,,,,,,,,,,,,,,,,,,,,,,,,"2006-02-03"
"72287493134","2020-02-02T18:16:00","FM-16","7",,,"3.89","mi",,,,,,,"PENDING COOP",,,,,,,,,,,,,,,,,,,,,,,,,,,"29.85","52","62",,,,,"70",,"OVC:08 15","29.65","10.00","56","000",,"0",,,,,,,,,,,,,,,,,,,,,,,,,,,,,,,,,,,,,"MET08602/02/20 18:16:01 SPECI KCQT 030216Z 00000KT 10SM OVC015 17/11 A2985 RMK AO2 T01670111","FM-16","7",,,,,,,,,,,,,,,,,,,,,,,,,,,,"2006-02-03"
"72287493134","2020-02-02T18:52:00","FM-15","7",,,"3.89","mi",,,,,,,"PENDING COOP",,,,,,,,,,,,,,,,,,,,,,,,,,,"29.90","39",,"0.00",,"-0.00","2",,"29.82",,"29.70","10.00",,"000",,"0",,,,,,,,,,,,,,,,,,,,,,,,,,,,,,,,,,,,,"MET10202/02/20 18:52:01 METAR KCQT 030252Z      KT NO A2990 RMK AO2 PK WND 32030/0227 SLP097 T00560039 52000","FM-15","7",,,,,,,,,,,,,,,,,,,,,,,,,,,,"2006-02-03"
"72287493134","2020-02-02T19:52:00","FM-15","7",,,"3.89","mi",,,,,,,"PENDING COOP",,,,,,,,,,,,,,,,,,,,,,,,,,,"29.85","50","62","0.00",,,,"65","29.84","OVC:08 24","29.65","10.00","55","000",,"0",,,,,,,,,,,,,,,,,,,,,,,,,,,,,,,,,,,,,"MET09302/02/20 19:52:01 METAR KCQT 030352Z 00000KT 10SM OVC024 17/10 A2985 RMK AO2 SLP106 T01670100","FM-15","7",,,,,,,,,,,,,,,,,,,,,,,,,,,,"2006-02-03"
"72287493134","2020-02-02T20:25:00","FM-16","7",,,"3.89","mi",,,,,,,"PENDING COOP",,,,,,,,,,,,,,,,,,,,,,,,,,,"29.84","50","62",,,,,"65",,"BKN:07 30 OVC:08 39","29.64","10.00","55","000",,"0",,,,,,,,,,,,,,,,,,,,,,,,,,,,,,,,,,,,,"MET09302/02/20 20:25:01 SPECI KCQT 030425Z 00000KT 10SM BKN030 OVC039 17/10 A2984 RMK AO2 T01670100","FM-16","7",,,,,,,,,,,,,,,,,,,,,,,,,,,,"2006-02-03"
"72287493134","2020-02-02T20:52:00","FM-15","7",,,"3.89","mi",,,,,,,"PENDING COOP",,,,,,,,,,,,,,,,,,,,,,,,,,,"29.83","50","61","0.00",,,,"67","29.83","FEW:02 34","29.63","10.00","55","000",,"0",,,,,,,,,,,,,,,,,,,,,,,,,,,,,,,,,,,,,"MET09302/02/20 20:52:02 METAR KCQT 030452Z 00000KT 10SM FEW034 16/10 A2983 RMK AO2 SLP100 T01610100","FM-15","7",,,,,,,,,,,,,,,,,,,,,,,,,,,,"2006-02-03"
"72287493134","2020-02-02T21:52:00","FM-15","7",,,"3.89","mi",,,,,,,"PENDING COOP",,,,,,,,,,,,,,,,,,,,,,,,,,,"29.84","50","62","0.00",,"+0.01","5","65","29.83","FEW:02 30 OVC:08 47","29.64","10.00","55","000",,"0",,,,,,,,,,,,,,,,,,,,,,,,,,,,,,,,,,,,,"MET11802/02/20 21:52:02 METAR KCQT 030552Z 00000KT 10SM FEW030 OVC047 17/10 A2984 RMK AO2 SLP102 T01670100 10183 20161 55003","FM-15","7",,,,,,,,,,,,,,,,,,,,,,,,,,,,"2006-02-03"
"72287493134","2020-02-02T22:52:00","FM-15","7",,,"3.89","mi",,,,,,,"PENDING COOP",,,,,,,,,,,,,,,,,,,,,,,,,,,"29.85","21","60","0.00",,,,"22","29.84","CLR:00","29.65","10.00","44","340",,"6",,,,,,,,,,,,,,,,,,,,,,,,,,,,,,,,,,,,,"MET09102/02/20 22:52:02 METAR KCQT 030652Z 34005KT 10SM CLR 16/M06 A2985 RMK AO2 SLP106 T01561061","FM-15","7",,,,,,,,,,,,,,,,,,,,,,,,,,,,"2006-02-03"
"72287493134","2020-02-02T23:52:00","FM-15","7",,,"3.89","mi",,,,,,,"PENDING COOP",,,,,,,,,,,,,,,,,,,,,,,,,,,"29.85","18","59","0.00",,,,"20","29.84","BKN:07 70","29.65","10.00","43","VRB",,"6",,,,,,,,,,,,,,,,,,,,,,,,,,,,,,,,,,,,,"MET10402/02/20 23:52:02 METAR KCQT 030752Z VRB05KT 10SM BKN070 15/M08 A2985 RMK AO2 SLP105 T01501078 402220128","FM-15","7",,,,,,,,,,,,,,,,,,,,,,,,,,,,"2006-02-03"
"72287493134","2020-02-02T23:59:00","SOD  ","6",,,"3.89","mi",,,,,,,"PENDING COOP",,,,"42","64","51","29.91","29.70","52","2.4","0","5.6","1","72","55","360","17","0.00",,,"350","9",,,,,,,,,,,,,,,,,,,,,,,,,,,,,,,,,,,,,,,,,,,,,,,,,,,,,,,,,"SOD73924 HR PRECIPITATION (IN): 0.00 SNOW DEPTH (IN):0     24 HR SNOWFALL (IN):0.0  24 HR MAX TEMP (F): 7224 HR MIN TEMP (F): 55AVERAGE STATION PRESSURE:29.705 MINIMUM SEA LEVEL PRESSURE:29.82 TIME OF OCCURRENCE:2100 PEAK WIND SPEED (MPH): 17 PEAK WIND DIR (DEG):360 PEAK WIND TIME (LST):      FASTEST 2MIN SPEED (MPH):  9FASTEST 2MIN DIR (DEG):350 FASTEST 2MIN TIME (LST):     AVERAGE WIND SPEED (MPH): 2.4 24 HR AVG TEMP (F): 64DEPART FROM NORMAL:  6  HEATING DEGREE DAYS:  1 COOLING DEGREE DAYS:  0 LATEST DAY MAX TEMP (0700-1900 LST):72  LATEST NIGHT MIN TEMP(1900-0800 LST):55 HOURLY INCREMENTAL PRECIPITATION VALUES (IN):.00 0.00 0.00 0.00 0.00 0.00 0.00 0.00 0.00 0.00 0.00 0.00 0.00 0.00 0.00 0.00 0.00 0.00 0.00 0.00 0.00 0.00 0.00 0.00","SOD  ","6",,,,,,,,,,,,,,,,,,,,,,,,,"0650","1725",,"2006-02-03"
"72287493134","2020-02-03T00:52:00","FM-15","7",,,"3.89","mi",,,,,,,"PENDING COOP",,,,,,,,,,,,,,,,,,,,,,,,,,,"29.84","19","57","0.00",,"-0.00","0","23","29.83","BKN:07 65","29.64","10.00","42","VRB",,"7",,,,,,,,,,,,,,,,,,,,,,,,,,,,,,,,,,,,,"MET10002/03/20 00:52:02 METAR KCQT 030852Z VRB06KT 10SM BKN065 14/M07 A2984 RMK AO2 SLP103 T01391072 50001","FM-15","7",,,,,,,,,,,,,,,,,,,,,,,,,,,,"2006-02-03"
"72287493134","2020-02-03T01:52:00","FM-15","7",,,"3.89","mi",,,,,,,"PENDING COOP",,,,,,,,,,,,,,,,,,,,,,,,,,,"29.83","20","56","0.00",,,,"24","29.83","FEW:02 60","29.63","10.00","42","VRB","21","8",,,,,,,,,,,,,,,,,,,,,,,,,,,,,,,,,,,,,"MET09702/03/20 01:52:02 METAR KCQT 030952Z 32007G18KT 10SM FEW060 13/M07 A2983 RMK AO2 SLP100 T01331067","FM-15","7",,,,,,,,,,,,,,,,,,,,,,,,,,,,"2006-02-03"
"72287493134","2020-02-03T02:52:00","FM-15","7",,,"3.89","mi",,,,,,,"PENDING COOP",,,,,,,,,,,,,,,,,,,,,,,,,,,"29.83","20","55","0.00",,,,"25","29.82","CLR:00","29.63","10.00","41","VRB",,"8",,,,,,,,,,,,,,,,,,,,,,,,,,,,,,,,,,,,,"MET09102/03/20 02:52:02 METAR KCQT 031052Z 34007KT 10SM CLR 13/M07 A2983 RMK AO2 SLP098 T01281067","FM-15","7",,,,,,,,,,,,,,,,,,,,,,,,,,,,"2006-02-03"
"72287493134","2020-02-03T03:52:00","FM-15","7",,,"3.89","mi",,,,,,,"PENDING COOP",,,,,,,,,,,,,,,,,,,,,,,,,,,"29.82","19","54","0.00",,"+0.02","6","25","29.82","CLR:00","29.62","10.00","40","320",,"8",,,,,,,,,,,,,,,,,,,,,,,,,,,,,,,,,,,,,"MET10902/03/20 03:52:02 METAR KCQT 031152Z 32007KT 10SM CLR 12/M07 A2982 RMK AO2 SLP098 T01221072 10167 20122 56006","FM-15","7",,,,,,,,,,,,,,,,,,,,,,,,,,,,"2006-02-03"
"72287493134","2020-02-03T04:52:00","FM-15","7",,,"3.89","mi",,,,,,,"PENDING COOP",,,,,,,,,,,,,,,,,,,,,,,,,,,"29.84","17","54","0.00",,,,"23","29.83","CLR:00","29.64","10.00","40","VRB",,"7",,,,,,,,,,,,,,,,,,,,,,,,,,,,,,,,,,,,,"MET09102/03/20 04:52:02 METAR KCQT 031252Z VRB06KT 10SM CLR 12/M08 A2984 RMK AO2 SLP103 T01221083","FM-15","7",,,,,,,,,,,,,,,,,,,,,,,,,,,,"2006-02-03"
"72287493134","2020-02-03T05:52:00","FM-15","7",,,"3.89","mi",,,,,,,"PENDING COOP",,,,,,,,,,,,,,,,,,,,,,,,,,,"29.87","20","52","0.00",,,,"28","29.87","CLR:00","29.67","10.00","39","VRB",,"6",,,,,,,,,,,,,,,,,,,,,,,,,,,,,,,,,,,,,"MET09502/03/20 05:52:02 METAR KCQT 031352Z VRB05KT 10SM CLR 11/M07 A2987 RMK AO2 SLP114 T01111067 RTX","FM-15","7",,,,,,,,,,,,,,,,,,,,,,,,,,,,"2006-02-03"
"72287493134","2020-02-03T06:52:00","FM-15","7",,,"3.89","mi",,,,,,,"PENDING COOP",,,,,,,,,,,,,,,,,,,,,,,,,,,"29.88","21","51","0.00",,"-0.05","1","31","29.88","CLR:00","29.68","10.00","39","VRB",,"6",,,,,,,,,,,,,,,,,,,,,,,,,,,,,,,,,,,,,"MET09702/03/20 06:52:02 METAR KCQT 031452Z VRB05KT 10SM CLR 11/M06 A2988 RMK AO2 SLP117 T01061061 51018","FM-15","7",,,,,,,,,,,,,,,,,,,,,,,,,,,,"2006-02-03"
"72287493134","2020-02-03T07:52:00","FM-15","7",,,"3.89","mi",,,,,,,"PENDING COOP",,,,,,,,,,,,,,,,,,,,,,,,,,,"29.91","23","51","0.00",,,,"33","29.90","CLR:00","29.71","10.00","40","310","22","10",,,,,,,,,,,,,,,,,,,,,,,,,,,,,,,,,,,,,"MET12702/03/20 07:52:02 METAR KCQT 031552Z 31009G19KT 10SM CLR 11/M05 A2991 RMK AO2 PK WND 33030/1503 RAB05E34 SLP126 P0000 T01061050","FM-15","7",,,,,,,,,,,,,,,,,,,,,,,,,,,,"2006-02-03"
"72287493134","2020-02-03T08:52:00","FM-15","6",,,"3.89","mi",,,,,,,"PENDING COOP",,,,,,,,,,,,,,,,,,,,,,,,,,,"29.90","22","53","0.00",,,,"30","29.89","CLR:00","29.70","10.00","41",,,,,,,,,,,,,,,,,,,,,,,,,,,,,,,,,,,,,,,,"MET09102/03/20 08:52:02 METAR KCQT 031652Z      KT 10SM CLR 12/M06 A2990 RMK AO2 SLP123 T01171056","FM-15","6",,,,,,,,,,,,,,,,,,,,,,,,,,,,"2006-02-03"
"72287493134","2020-02-03T09:52:00","FM-15","7",,,"3.89","mi",,,,,,,"PENDING COOP",,,,,,,,,,,,,,,,,,,,,,,,,,,"29.92","18","56","0.00",,"-0.04","1","22","29.92","CLR:00","29.72","10.00","41","VRB",,"7",,,,,,,,,,,,,,,,,,,,,,,,,,,,,,,,,,,,,"MET11502/03/20 09:52:02 METAR KCQT 031752Z VRB06KT 10SM CLR 13/M08 A2992 RMK AO2 SLP131 60000 T01331078 10133 20106 51014","FM-15","7",,,,,,,,,,,,,,,,,,,,,,,,,,,,"2006-02-03"
"72287493134","2020-02-03T10:52:00","FM-15","7",,,"3.89","mi",,,,,,,"PENDING COOP",,,,,,,,,,,,,,,,,,,,,,,,,,,"29.92","8","61","0.00",,,,"12","29.91","CLR:00","29.72","10.00","42","VRB","21","6",,,,,,,,,,,,,,,,,,,,,,,,,,,,,,,,,,,,,"MET09402/03/20 10:52:02 METAR KCQT 031852Z VRB05G18KT 10SM CLR 16/M13 A2992 RMK AO2 SLP128 T01611133","FM-15","7",,,,,,,,,,,,,,,,,,,,,,,,,,,,"2006-02-03"
"72287493134","2020-02-03T11:52:00","FM-15","7",,,"3.89","mi",,,,,,,"PENDING COOP",,,,,,,,,,,,,,,,,,,,,,,,,,,"29.89","9","61","0.00",,,,"13","29.89","CLR:00","29.69","10.00","42","320",,"8",,,,,,,,,,,,,,,,,,,,,,,,,,,,,,,,,,,,,"MET09102/03/20 11:52:02 METAR KCQT 031952Z 32007KT 10SM CLR 16/M13 A2989 RMK AO2 SLP122 T01611128","FM-15","7",,,,,,,,,,,,,,,,,,,,,,,,,,,,"2006-02-03"
"72287493134","2020-02-03T12:52:00","FM-15","7",,,"3.89","mi",,,,,,,"PENDING COOP",,,,,,,,,,,,,,,,,,,,,,,,,,,"29.87","7","60","0.00",,"+0.05","8","12","29.87","CLR:00","29.67","10.00","41","320","20","9",,,,,,,,,,,,,,,,,,,,,,,,,,,,,,,,,,,,,"MET10002/03/20 12:52:02 METAR KCQT 032052Z 32008G17KT 10SM CLR 16/M14 A2987 RMK AO2 SLP114 T01561139 58017","FM-15","7",,,,,,,,,,,,,,,,,,,,,,,,,,,,"2006-02-03"
"72287493134","2020-02-03T13:52:00","FM-15","7",,,"3.89","mi",,,,,,,"PENDING COOP",,,,,,,,,,,,,,,,,,,,,,,,,,,"29.86","6","62","0.00",,,,"11","29.85","CLR:00","29.66","10.00","42","350",,"8",,,,,,,,,,,,,,,,,,,,,,,,,,,,,,,,,,,,,"MET09502/03/20 13:52:02 METAR KCQT 032152Z 35007KT 10SM CLR 17/M14 A2986 RMK AO2 SLP110 T01671144 RTX","FM-15","7",,,,,,,,,,,,,,,,,,,,,,,,,,,,"2006-02-03"
"72287493134","2020-02-03T14:52:00","FM-15","6",,,"3.89","mi",,,,,,,"PENDING COOP",,,,,,,,,,,,,,,,,,,,,,,,,,,"29.85","6","62","0.00",,,,"11","29.85","CLR:00","29.65","10.00","42",,,,,,,,,,,,,,,,,,,,,,,,,,,,,,,,,,,,,,,,"MET09102/03/20 14:52:02 METAR KCQT 032252Z      KT 10SM CLR 17/M14 A2985 RMK AO2 SLP107 T01671144","FM-15","6",,,,,,,,,,,,,,,,,,,,,,,,,,,,"2006-02-03"
"72287493134","2020-02-03T15:52:00","FM-15","7",,,"3.89","mi",,,,,,,"PENDING COOP",,,,,,,,,,,,,,,,,,,,,,,,,,,"29.86","8","62","0.00",,"+0.01","5","12","29.85","CLR:00","29.66","10.00","42","320","18","11",,,,,,,,,,,,,,,,,,,,,,,,,,,,,,,,,,,,,"MET11202/03/20 15:52:02 METAR KCQT 032352Z 32010G16KT 10SM CLR 17/M13 A2986 RMK AO2 SLP110 T01671133 10172 20133 55004","FM-15","7",,,,,,,,,,,,,,,,,,,,,,,,,,,,"2006-02-03"
"72287493134","2020-02-03T16:52:00","FM-15","7",,,"3.89","mi",,,,,,,"PENDING COOP",,,,,,,,,,,,,,,,,,,,,,,,,,,"29.87","6","61","0.00",,,,"11","29.86","CLR:00","29.67","10.00","41","VRB","18","8",,,,,,,,,,,,,,,,,,,,,,,,,,,,,,,,,,,,,"MET09402/03/20 16:52:01 METAR KCQT 040052Z 33007G16KT 10SM CLR 16/M14 A2987 RMK AO2 SLP113 T01611144","FM-15","7",,,,,,,,,,,,,,,,,,,,,,,,,,,,"2006-02-03"
"72287493134","2020-02-03T17:52:00","FM-15","7",,,"3.89","mi",,,,,,,"PENDING COOP",,,,,,,,,,,,,,,,,,,,,,,,,,,"29.89","6","59","0.00",,,,"12","29.89","CLR:00","29.69","10.00","40","VRB","17","8",,,,,,,,,,,,,,,,,,,,,,,,,,,,,,,,,,,,,"MET09402/03/20 17:52:01 METAR KCQT 040152Z 34007G15KT 10SM CLR 15/M14 A2989 RMK AO2 SLP121 T01501144","FM-15","7",,,,,,,,,,,,,,,,,,,,,,,,,,,,"2006-02-03"
"72287493134","2020-02-03T18:52:00","FM-15","7",,,"3.89","mi",,,,,,,"PENDING COOP",,,,,,,,,,,,,,,,,,,,,,,,,,,"29.93","11","57","0.00",,"-0.07","3","16","29.92","CLR:00","29.73","10.00","40","VRB",,"5",,,,,,,,,,,,,,,,,,,,,,,,,,,,,,,,,,,,,"MET09702/03/20 18:52:01 METAR KCQT 040252Z VRB04KT 10SM CLR 14/M12 A2993 RMK AO2 SLP133 T01391117 53023","FM-15","7",,,,,,,,,,,,,,,,,,,,,,,,,,,,"2006-02-03"
"72287493134","2020-02-03T19:52:00","FM-15","7",,,"3.89","mi",,,,,,,"PENDING COOP",,,,,,,,,,,,,,,,,,,,,,,,,,,"29.94","15","55","0.00",,,,"20","29.94","CLR:00","29.74","10.00","40","000",,"0",,,,,,,,,,,,,,,,,,,,,,,,,,,,,,,,,,,,,"MET09102/03/20 19:52:01 METAR KCQT 040352Z 00000KT 10SM CLR 13/M09 A2994 RMK AO2 SLP138 T01281094","FM-15","7",,,,,,,,,,,,,,,,,,,,,,,,,,,,"2006-02-03"
"72287493134","2020-02-03T20:52:00","FM-15","7",,,"3.89","mi",,,,,,,"PENDING COOP",,,,,,,,,,,,,,,,,,,,,,,,,,,"29.96","13","53","0.00",,,,"20","29.96","CLR:00","29.76","10.00","38","000",,"0",,,,,,,,,,,,,,,,,,,,,,,,,,,,,,,,,,,,,"MET09102/03/20 20:52:02 METAR KCQT 040452Z 00000KT 10SM CLR 12/M11 A2996 RMK AO2 SLP144 T01171106","FM-15","7",,,,,,,,,,,,,,,,,,,,,,,,,,,,"2006-02-03"
"72287493134","2020-02-03T21:52:00","FM-15","7",,,"3.89","mi",,,,,,,"PENDING COOP",,,,,,,,,,,,,,,,,,,,,,,,,,,"29.98","10","53","0.00",,"-0.05","3","18","29.97","CLR:00","29.78","10.00","38","000",,"0",,,,,,,,,,,,,,,,,,,,,,,,,,,,,,,,,,,,,"MET10902/03/20 21:52:02 METAR KCQT 040552Z 00000KT 10SM CLR 12/M12 A2998 RMK AO2 SLP150 T01171122 10167 20117 53017","FM-15","7",,,,,,,,,,,,,,,,,,,,,,,,,,,,"2006-02-03"
"72287493134","2020-02-03T22:52:00","FM-15","7",,,"3.89","mi",,,,,,,"PENDING COOP",,,,,,,,,,,,,,,,,,,,,,,,,,,"30.00","13","52","0.00",,,,"21","30.00","CLR:00","29.80","10.00","38","000",,"0",,,,,,,,,,,,,,,,,,,,,,,,,,,,,,,,,,,,,"MET09102/03/20 22:52:02 METAR KCQT 040652Z 00000KT 10SM CLR 11/M11 A3000 RMK AO2 SLP158 T01111106","FM-15","7",,,,,,,,,,,,,,,,,,,,,,,,,,,,"2006-02-03"
"72287493134","2020-02-03T23:52:00","FM-15","7",,,"3.89","mi",,,,,,,"PENDING COOP",,,,,,,,,,,,,,,,,,,,,,,,,,,"30.01","18","48","0.00",,,,"30","30.01","CLR:00","29.81","10.00","37","000",,"0",,,,,,,,,,,,,,,,,,,,,,,,,,,,,,,,,,,,,"MET10102/03/20 23:52:02 METAR KCQT 040752Z 00000KT 10SM CLR 09/M08 A3001 RMK AO2 SLP163 T00891078 401720089","FM-15","7",,,,,,,,,,,,,,,,,,,,,,,,,,,,"2006-02-03"
"72287493134","2020-02-03T23:59:00","SOD  ","6",,,"3.89","mi",,,,,,,"PENDING COOP",,,,"14","56","20","29.89","29.69","40","5.9","0","-2.4","9","63","48","330","34","0.00",,,"340","20",,,,,,,,,,,,,,,,,,,,,,,,,,,,,,,,,,,,,,,,,,,,,,,,,,,,,,,,,"SOD71324 HR PRECIPITATION (IN): 0.00 SNOW DEPTH (IN):0    24 HR MAX TEMP (F): 6324 HR MIN TEMP (F): 48AVERAGE STATION PRESSURE:29.690 MINIMUM SEA LEVEL PRESSURE:29.81 TIME OF OCCURRENCE:0416 PEAK WIND SPEED (MPH): 34 PEAK WIND DIR (DEG):330 PEAK WIND TIME (LST):      FASTEST 2MIN SPEED (MPH): 20FASTEST 2MIN DIR (DEG):340 FASTEST 2MIN TIME (LST):     AVERAGE WIND SPEED (MPH): 5.9 24 HR AVG TEMP (F): 56DEPART FROM NORMAL: -2  HEATING DEGREE DAYS:  9 COOLING DEGREE DAYS:  0 LATEST DAY MAX TEMP (0700-1900 LST):63  LATEST NIGHT MIN TEMP(1900-0800 LST):51 HOURLY INCREMENTAL PRECIPITATION VALUES (IN):.00 0.00 0.00 0.00 0.00 0.00 0.00 T    0.00 0.00 0.00 0.00 0.00 0.00 0.00 0.00 0.00 0.00 0.00 0.00 0.00 0.00 0.00 0.00","SOD  ","6",,,,,,,,,,,,,,,,,,,,,,,,,"0649","1726",,"2006-02-03"
"72287493134","2020-02-04T00:52:00","FM-15","7",,,"3.89","mi",,,,,,,"PENDING COOP",,,,,,,,,,,,,,,,,,,,,,,,,,,"30.03","18","47","0.00",,"-0.05","1","31","30.03","CLR:00","29.83","10.00","36","000",,"0",,,,,,,,,,,,,,,,,,,,,,,,,,,,,,,,,,,,,"MET10102/04/20 00:52:02 METAR KCQT 040852Z 00000KT 10SM CLR 08/M08 A3003 RMK AO2 SLP168 T00831078 51018 RTX","FM-15","7",,,,,,,,,,,,,,,,,,,,,,,,,,,,"2006-02-03"
"72287493134","2020-02-04T01:52:00","FM-15","7",,,"3.89","mi",,,,,,,"PENDING COOP",,,,,,,,,,,,,,,,,,,,,,,,,,,"30.04","20","45","0.00",,,,"37","30.03","CLR:00","29.84","10.00","36","000",,"0",,,,,,,,,,,,,,,,,,,,,,,,,,,,,,,,,,,,,"MET08802/04/20 01:52:02 METAR KCQT 040952Z 00000KT CLR 07/M07 A3004 RMK AO2 SLP171 T00721067 $","FM-15","7",,,,,,,,,,,,,,,,,,,,,,,,,,,,"2006-02-03"
"72287493134","2020-02-04T02:52:00","FM-15","7",,,"3.89","mi",,,,,,,"PENDING COOP",,,,,,,,,,,,,,,,,,,,,,,,,,,"30.05","18","45","0.00",,,,"34","30.04","CLR:00","29.85","10.00","35","000",,"0",,,,,,,,,,,,,,,,,,,,,,,,,,,,,,,,,,,,,"MET08802/04/20 02:52:02 METAR KCQT 041052Z 00000KT CLR 07/M08 A3005 RMK AO2 SLP174 T00721078 $","FM-15","7",,,,,,,,,,,,,,,,,,,,,,,,,,,,"2006-02-03"
"72287493134","2020-02-04T03:52:00","FM-15","7",,,"3.89","mi",,,,,,,"PENDING COOP",,,,,,,,,,,,,,,,,,,,,,,,,,,"30.05","18","42","0.00",,"-0.02","1","38","30.05","CLR:00","29.85","10.00","33","000",,"0",,,,,,,,,,,,,,,,,,,,,,,,,,,,,,,,,,,,,"MET11102/04/20 03:52:02 METAR KCQT 041152Z 00000KT 10SM CLR 06/M08 A3005 RMK AO2 SLP176 T00561078 10117 20056 51007 $","FM-15","7",,,,,,,,,,,,,,,,,,,,,,,,,,,,"2006-02-03"
"72287493134","2020-02-04T04:52:00","FM-15","7",,,"3.89","mi",,,,,,,"PENDING COOP",,,,,,,,,,,,,,,,,,,,,,,,,,,"30.07","15","42","0.00",,,,"33","30.07","CLR:00","29.87","10.00","33","000",,"0",,,,,,,,,,,,,,,,,,,,,,,,,,,,,,,,,,,,,"MET09302/04/20 04:52:02 METAR KCQT 041252Z 00000KT 10SM CLR 06/M09 A3007 RMK AO2 SLP184 T00561094 $","FM-15","7",,,,,,,,,,,,,,,,,,,,,,,,,,,,"2006-02-03"
"72287493134","2020-02-04T05:52:00","FM-15","7",,,"3.89","mi",,,,,,,"PENDING COOP",,,,,,,,,,,,,,,,,,,,,,,,,,,"30.09","11","46","0.00",,,,"24","30.09","CLR:00","29.89","10.00","34","000",,"0",,,,,,,,,,,,,,,,,,,,,,,,,,,,,,,,,,,,,"MET09302/04/20 05:52:02 METAR KCQT 041352Z 00000KT 10SM CLR 08/M12 A3009 RMK AO2 SLP190 T00781117 $","FM-15","7",,,,,,,,,,,,,,,,,,,,,,,,,,,,"2006-02-03"
"72287493134","2020-02-04T06:52:00","FM-15","7",,,"3.89","mi",,,,,,,"PENDING COOP",,,,,,,,,,,,,,,,,,,,,,,,,,,"30.11","9","47","0.00",,"-0.06","1","21","30.11","CLR:00","29.91","10.00","34","000",,"0",,,,,,,,,,,,,,,,,,,,,,,,,,,,,,,,,,,,,"MET09402/04/20 06:52:02 METAR KCQT 041452Z 00000KT CLR 08/M13 A3011 RMK AO2 SLP196 T00831128 51020 $","FM-15","7",,,,,,,,,,,,,,,,,,,,,,,,,,,,"2006-02-03"
"72287493134","2020-02-04T07:52:00","FM-15","7",,,"3.89","mi",,,,,,,"PENDING COOP",,,,,,,,,,,,,,,,,,,,,,,,,,,"30.13","14","46","0.00",,,,"27","30.13","CLR:00","29.93","10.00","35","000",,"0",,,,,,,,,,,,,,,,,,,,,,,,,,,,,,,,,,,,,"MET09202/04/20 07:52:02 METAR KCQT 041552Z 00000KT CLR 08/M10 A3013 RMK AO2 SLP204 T00781100 $ RTX","FM-15","7",,,,,,,,,,,,,,,,,,,,,,,,,,,,"2006-02-03"
"72287493134","2020-02-04T08:52:00","FM-15","7",,,"3.89","mi",,,,,,,"PENDING COOP",,,,,,,,,,,,,,,,,,,,,,,,,,,"30.15","11","51","0.00",,,,"20","30.15","CLR:00","29.95","10.00","37","000",,"0",,,,,,,,,,,,,,,,,,,,,,,,,,,,,,,,,,,,,"MET09302/04/20 08:52:02 METAR KCQT 041652Z 00000KT 10SM CLR 11/M12 A3015 RMK AO2 SLP211 T01061117 $","FM-15","7",,,,,,,,,,,,,,,,,,,,,,,,,,,,"2006-02-03"
"72287493134","2020-02-04T09:52:00","FM-15","7",,,"3.89","mi",,,,,,,"PENDING COOP",,,,,,,,,,,,,,,,,,,,,,,,,,,"30.16","9","56","0.00",,"-0.05","1","15","30.15","CLR:00","29.96","10.00","39","000",,"0",,,,,,,,,,,,,,,,,,,,,,,,,,,,,,,,,,,,,"MET11102/04/20 09:52:02 METAR KCQT 041752Z 00000KT 10SM CLR 13/M13 A3016 RMK AO2 SLP211 T01331128 10133 20056 51016 $","FM-15","7",,,,,,,,,,,,,,,,,,,,,,,,,,,,"2006-02-03"
"72287493134","2020-02-04T10:52:00","FM-15","7",,,"3.89","mi",,,,,,,"PENDING COOP",,,,,,,,,,,,,,,,,,,,,,,,,,,"30.15","5","58","0.00",,,,"12","30.15","CLR:00","29.95","10.00","40","000",,"0",,,,,,,,,,,,,,,,,,,,,,,,,,,,,,,,,,,,,"MET09302/04/20 10:52:02 METAR KCQT 041852Z 00000KT 10SM CLR 14/M15 A3015 RMK AO2 SLP209 T01441150 $","FM-15","7",,,,,,,,,,,,,,,,,,,,,,,,,,,,"2006-02-03"
"72287493134","2020-02-04T11:52:00","FM-15","7",,,"3.89","mi",,,,,,,"PENDING COOP",,,,,,,,,,,,,,,,,,,,,,,,,,,"30.12","6","60","0.00",,,,"11","30.12","CLR:00","29.92","10.00","41","000",,"0",,,,,,,,,,,,,,,,,,,,,,,,,,,,,,,,,,,,,"MET09302/04/20 11:52:02 METAR KCQT 041952Z 00000KT 10SM CLR 16/M14 A3012 RMK AO2 SLP201 T01561144 $","FM-15","7",,,,,,,,,,,,,,,,,,,,,,,,,,,,"2006-02-03"
"72287493134","2020-02-04T12:52:00","FM-15","6",,,"3.89","mi",,,,,,,"PENDING COOP",,,,,,,,,,,,,,,,,,,,,,,,,,,"30.11","9","61","0.00",,"+0.05","8","13","30.10","CLR:00","29.91","10.00","42","240",,"3",,,,,,,,,,,,,,,,,,,,,,,,,,,,,,,,,,,,,"MET09902/04/20 12:52:02 METAR KCQT 042052Z 24003KT 10SM CLR 16/M13 A3011 RMK AO2 SLP194 T01611128 58017 $","FM-15","6",,,,,,,,,,,,,,,,,,,,,,,,,,,,"2006-02-03"
"72287493134","2020-02-04T13:52:00","FM-15","7",,,"3.89","mi",,,,,,,"PENDING COOP",,,,,,,,,,,,,,,,,,,,,,,,,,,"30.10","11","61","0.00",,,,"14","30.10","CLR:00","29.90","10.00","42","000",,"0",,,,,,,,,,,,,,,,,,,,,,,,,,,,,,,,,,,,,"MET09302/04/20 13:52:02 METAR KCQT 042152Z 00000KT 10SM CLR 16/M12 A3010 RMK AO2 SLP192 T01611117 $","FM-15","7",,,,,,,,,,,,,,,,,,,,,,,,,,,,"2006-02-03"
"72287493134","2020-02-04T14:52:00","FM-15","7",,,"3.89","mi",,,,,,,"PENDING COOP",,,,,,,,,,,,,,,,,,,,,,,,,,,"30.09","13","60","0.00",,,,"16","30.09","CLR:00","29.89","10.00","42","000",,"0",,,,,,,,,,,,,,,,,,,,,,,,,,,,,,,,,,,,,"MET09302/04/20 14:52:02 METAR KCQT 042252Z 00000KT 10SM CLR 16/M11 A3009 RMK AO2 SLP189 T01561106 $","FM-15","7",,,,,,,,,,,,,,,,,,,,,,,,,,,,"2006-02-03"
"72287493134","2020-02-04T15:52:00","FM-15","7",,,"3.89","mi",,,,,,,"PENDING COOP",,,,,,,,,,,,,,,,,,,,,,,,,,,"30.09","14","60","0.00",,"+0.01","5","16","30.09","CLR:00","29.89","10.00","42","VRB",,"3",,,,,,,,,,,,,,,,,,,,,,,,,,,,,,,,,,,,,"MET11102/04/20 15:52:02 METAR KCQT 042352Z VRB03KT 10SM CLR 16/M10 A3009 RMK AO2 SLP190 T01561100 10167 20128 55005 $","FM-15","7",,,,,,,,,,,,,,,,,,,,,,,,,,,,"2006-02-03"
"72287493134","2020-02-04T16:52:00","FM-15","7",,,"3.89","mi",,,,,,,"PENDING COOP",,,,,,,,,,,,,,,,,,,,,,,,,,,"30.09","16","58","0.00",,,,"19","30.09","CLR:00","29.89","10.00","42","000",,"0",,,,,,,,,,,,,,,,,,,,,,,,,,,,,,,,,,,,,"MET09302/04/20 16:52:01 METAR KCQT 050052Z 00000KT 10SM CLR 14/M09 A3009 RMK AO2 SLP189 T01441089 $","FM-15","7",,,,,,,,,,,,,,,,,,,,,,,,,,,,"2006-02-03"
"72287493134","2020-02-04T17:52:00","FM-15","7",,,"3.89","mi",,,,,,,"PENDING COOP",,,,,,,,,,,,,,,,,,,,,,,,,,,"30.09","20","56","0.00",,,,"24","30.09","CLR:00","29.89","10.00","42","000",,"0",,,,,,,,,,,,,,,,,,,,,,,,,,,,,,,,,,,,,"MET09302/04/20 17:52:01 METAR KCQT 050152Z 00000KT 10SM CLR 13/M07 A3009 RMK AO2 SLP191 T01331067 $","FM-15","7",,,,,,,,,,,,,,,,,,,,,,,,,,,,"2006-02-03"
"72287493134","2020-02-04T18:52:00","FM-15","7",,,"3.89","mi",,,,,,,"PENDING COOP",,,,,,,,,,,,,,,,,,,,,,,,,,,"30.11","23","55","0.00",,"-0.02","3","29","30.11","CLR:00","29.91","10.00","42","000",,"0",,,,,,,,,,,,,,,,,,,,,,,,,,,,,,,,,,,,,"MET09902/04/20 18:52:01 METAR KCQT 050252Z 00000KT 10SM CLR 13/M05 A3011 RMK AO2 SLP197 T01281050 53007 $","FM-15","7",,,,,,,,,,,,,,,,,,,,,,,,,,,,"2006-02-03"
"72287493134","2020-02-04T19:52:00","FM-15","7",,,"3.89","mi",,,,,,,"PENDING COOP",,,,,,,,,,,,,,,,,,,,,,,,,,,"30.13","21","54","0.00",,,,"28","30.13","CLR:00","29.93","10.00","41","010",,"3",,,,,,,,,,,,,,,,,,,,,,,,,,,,,,,,,,,,,"MET09302/04/20 19:52:01 METAR KCQT 050352Z 01003KT 10SM CLR 12/M06 A3013 RMK AO2 SLP204 T01221061 $","FM-15","7",,,,,,,,,,,,,,,,,,,,,,,,,,,,"2006-02-03"
"72287493134","2020-02-04T20:52:00","FM-15","7",,,"3.89","mi",,,,,,,"PENDING COOP",,,,,,,,,,,,,,,,,,,,,,,,,,,"30.16","20","52","0.00",,,,"28","30.16","CLR:00","29.96","10.00","40","010",,"3",,,,,,,,,,,,,,,,,,,,,,,,,,,,,,,,,,,,,"MET09302/04/20 20:52:02 METAR KCQT 050452Z 01003KT 10SM CLR 11/M07 A3016 RMK AO2 SLP213 T01111067 $","FM-15","7",,,,,,,,,,,,,,,,,,,,,,,,,,,,"2006-02-03"
"72287493134","2020-02-04T21:52:00","FM-15","7",,,"3.89","mi",,,,,,,"PENDING COOP",,,,,,,,,,,,,,,,,,,,,,,,,,,"30.17","16","53","0.00",,"-0.06","1","23","30.16","CLR:00","29.97","10.00","39","000",,"0",,,,,,,,,,,,,,,,,,,,,,,,,,,,,,,,,,,,,"MET11102/04/20 21:52:02 METAR KCQT 050552Z 00000KT 10SM CLR 12/M09 A3017 RMK AO2 SLP215 T01171089 10161 20106 51019 $","FM-15","7",,,,,,,,,,,,,,,,,,,,,,,,,,,,"2006-02-03"
"72287493134","2020-02-04T22:52:00","FM-15","7",,,"3.89","mi",,,,,,,"PENDING COOP",,,,,,,,,,,,,,,,,,,,,,,,,,,"30.18","13","53","0.00",,,,"20","30.18","CLR:00","29.98","10.00","38","080",,"5",,,,,,,,,,,,,,,,,,,,,,,,,,,,,,,,,,,,,"MET09302/04/20 22:52:02 METAR KCQT 050652Z 08004KT 10SM CLR 12/M11 A3018 RMK AO2 SLP220 T01171106 $","FM-15","7",,,,,,,,,,,,,,,,,,,,,,,,,,,,"2006-02-03"
"72287493134","2020-02-04T23:52:00","FM-15","7",,,"3.89","mi",,,,,,,"PENDING COOP",,,,,,,,,,,,,,,,,,,,,,,,,,,"30.19","14","50","0.00",,,,"24","30.19","CLR:00","29.99","10.00","37","020",,"5",,,,,,,,,,,,,,,,,,,,,,,,,,,,,,,,,,,,,"MET10302/04/20 23:52:02 METAR KCQT 050752Z 02004KT 10SM CLR 10/M10 A3019 RMK AO2 SLP222 T01001100 401670056 $","FM-15","7",,,,,,,,,,,,,,,,,,,,,,,,,,,,"2006-02-03"
"72287493134","2020-02-04T23:59:00","SOD  ","6",,,"3.89","mi",,,,,,,"PENDING COOP",,,,"14","52","23","30.11","29.91","38","1.0","0","-6.4","13","62","42","270","15","0.00",,,"260","9",,,,,,,,,,,,,,,,,,,,,,,,,,,,,,,,,,,,,,,,,,,,,,,,,,,,,,,,,"SOD73924 HR PRECIPITATION (IN): 0.00 SNOW DEPTH (IN):0     24 HR SNOWFALL (IN):0.0  24 HR MAX TEMP (F): 6224 HR MIN TEMP (F): 42AVERAGE STATION PRESSURE:29.910 MINIMUM SEA LEVEL PRESSURE:30.01 TIME OF OCCURRENCE:0021 PEAK WIND SPEED (MPH): 15 PEAK WIND DIR (DEG):270 PEAK WIND TIME (LST):      FASTEST 2MIN SPEED (MPH):  9FASTEST 2MIN DIR (DEG):260 FASTEST 2MIN TIME (LST):     AVERAGE WIND SPEED (MPH): 1.0 24 HR AVG TEMP (F): 52DEPART FROM NORMAL: -6  HEATING DEGREE DAYS: 13 COOLING DEGREE DAYS:  0 LATEST DAY MAX TEMP (0700-1900 LST):62  LATEST NIGHT MIN TEMP(1900-0800 LST):42 HOURLY INCREMENTAL PRECIPITATION VALUES (IN):.00 0.00 0.00 0.00 0.00 0.00 0.00 0.00 0.00 0.00 0.00 0.00 0.00 0.00 0.00 0.00 0.00 0.00 0.00 0.00 0.00 0.00 0.00 0.00","SOD  ","6",,,,,,,,,,,,,,,,,,,,,,,,,"0648","1727",,"2006-02-03"
"72287493134","2020-02-05T00:52:00","FM-15","7",,,"3.89","mi",,,,,,,"PENDING COOP",,,,,,,,,,,,,,,,,,,,,,,,,,,"30.17","18","47","0.00",,"+0.00","8","31","30.16","CLR:00","29.97","10.00","36","000",,"0",,,,,,,,,,,,,,,,,,,,,,,,,,,,,,,,,,,,,"MET09902/05/20 00:52:02 METAR KCQT 050852Z 00000KT 10SM CLR 08/M08 A3017 RMK AO2 SLP215 T00831078 58000 $","FM-15","7",,,,,,,,,,,,,,,,,,,,,,,,,,,,"2006-02-03"
"72287493134","2020-02-05T01:52:00","FM-15","7",,,"3.89","mi",,,,,,,"PENDING COOP",,,,,,,,,,,,,,,,,,,,,,,,,,,"30.18","17","47","0.00",,,,"30","30.17","CLR:00","29.98","10.00","36","000",,"0",,,,,,,,,,,,,,,,,,,,,,,,,,,,,,,,,,,,,"MET09302/05/20 01:52:02 METAR KCQT 050952Z 00000KT 10SM CLR 08/M08 A3018 RMK AO2 SLP218 T00831083 $","FM-15","7",,,,,,,,,,,,,,,,,,,,,,,,,,,,"2006-02-03"
"72287493134","2020-02-05T02:52:00","FM-15","7",,,"3.89","mi",,,,,,,"PENDING COOP",,,,,,,,,,,,,,,,,,,,,,,,,,,"30.17","11","48","0.00",,,,"22","30.17","CLR:00","29.97","10.00","35","000",,"0",,,,,,,,,,,,,,,,,,,,,,,,,,,,,,,,,,,,,"MET09302/05/20 02:52:02 METAR KCQT 051052Z 00000KT 10SM CLR 09/M12 A3017 RMK AO2 SLP216 T00891117 $","FM-15","7",,,,,,,,,,,,,,,,,,,,,,,,,,,,"2006-02-03"
"72287493134","2020-02-05T03:52:00","FM-15","7",,,"3.89","mi",,,,,,,"PENDING COOP",,,,,,,,,,,,,,,,,,,,,,,,,,,"30.16","10","47","0.00",,"+0.00","8","22","30.16","CLR:00","29.96","10.00","35","000",,"0",,,,,,,,,,,,,,,,,,,,,,,,,,,,,,,,,,,,,"MET11102/05/20 03:52:02 METAR KCQT 051152Z 00000KT 10SM CLR 08/M12 A3016 RMK AO2 SLP213 T00831122 10117 20078 58001 $","FM-15","7",,,,,,,,,,,,,,,,,,,,,,,,,,,,"2006-02-03"
"72287493134","2020-02-05T04:52:00","FM-15","7",,,"3.89","mi",,,,,,,"PENDING COOP",,,,,,,,,,,,,,,,,,,,,,,,,,,"30.16","11","47","0.00",,,,"23","30.16","CLR:00","29.96","10.00","35","000",,"0",,,,,,,,,,,,,,,,,,,,,,,,,,,,,,,,,,,,,"MET08802/05/20 04:52:02 METAR KCQT 051252Z 00000KT CLR 08/M12 A3016 RMK AO2 SLP213 T00831117 $","FM-15","7",,,,,,,,,,,,,,,,,,,,,,,,,,,,"2006-02-03"
"72287493134","2020-02-05T05:52:00","FM-15","7",,,"3.89","mi",,,,,,,"PENDING COOP",,,,,,,,,,,,,,,,,,,,,,,,,,,"30.18","11","47","0.00",,,,"23","30.18","CLR:00","29.98","10.00","35","000",,"0",,,,,,,,,,,,,,,,,,,,,,,,,,,,,,,,,,,,,"MET09702/05/20 05:52:02 METAR KCQT 051352Z 00000KT 10SM CLR 08/M12 A3018 RMK AO2 SLP219 T00831117 $ RTX","FM-15","7",,,,,,,,,,,,,,,,,,,,,,,,,,,,"2006-02-03"
"72287493134","2020-02-05T06:52:00","FM-15","7",,,"3.89","mi",,,,,,,"PENDING COOP",,,,,,,,,,,,,,,,,,,,,,,,,,,"30.18","13","45","0.00",,"-0.01","3","27","30.18","CLR:00","29.98","10.00","34","000",,"0",,,,,,,,,,,,,,,,,,,,,,,,,,,,,,,,,,,,,"MET10302/05/20 06:52:02 METAR KCQT 051452Z 00000KT 10SM CLR 07/M11 A3018 RMK AO2 SLP220 T00721106 53005 $ RTX","FM-15","7",,,,,,,,,,,,,,,,,,,,,,,,,,,,"2006-02-03"
"72287493134","2020-02-05T07:52:00","FM-15","7",,,"3.89","mi",,,,,,,"PENDING COOP",,,,,,,,,,,,,,,,,,,,,,,,,,,"30.20","17","47","0.00",,,,"30","30.20","CLR:00","30.00","10.00","36","000",,"0",,,,,,,,,,,,,,,,,,,,,,,,,,,,,,,,,,,,,"MET09302/05/20 07:52:02 METAR KCQT 051552Z 00000KT 10SM CLR 08/M08 A3020 RMK AO2 SLP227 T00831083 $","FM-15","7",,,,,,,,,,,,,,,,,,,,,,,,,,,,"2006-02-03"
"72287493134","2020-02-05T08:52:00","FM-15","7",,,"3.89","mi",,,,,,,"PENDING COOP",,,,,,,,,,,,,,,,,,,,,,,,,,,"30.21","12","54","0.00",,,,"19","30.21","CLR:00","30.01","10.00","39","000",,"0",,,,,,,,,,,,,,,,,,,,,,,,,,,,,,,,,,,,,"MET09302/05/20 08:52:02 METAR KCQT 051652Z 00000KT 10SM CLR 12/M11 A3021 RMK AO2 SLP229 T01221111 $","FM-15","7",,,,,,,,,,,,,,,,,,,,,,,,,,,,"2006-02-03"
"72287493134","2020-02-05T09:52:00","FM-15","7",,,"3.89","mi",,,,,,,"PENDING COOP",,,,,,,,,,,,,,,,,,,,,,,,,,,"30.21","13","58","0.00",,"-0.03","1","17","30.21","CLR:00","30.01","10.00","41","000",,"0",,,,,,,,,,,,,,,,,,,,,,,,,,,,,,,,,,,,,"MET11102/05/20 09:52:02 METAR KCQT 051752Z 00000KT 10SM CLR 14/M11 A3021 RMK AO2 SLP229 T01441106 10144 20067 51009 $","FM-15","7",,,,,,,,,,,,,,,,,,,,,,,,,,,,"2006-02-03"
"72287493134","2020-02-05T10:52:00","FM-15","7",,,"3.89","mi",,,,,,,"PENDING COOP",,,,,,,,,,,,,,,,,,,,,,,,,,,"30.20","15","61","0.00",,,,"17","30.20","CLR:00","30.00","10.00","43","140",,"3",,,,,,,,,,,,,,,,,,,,,,,,,,,,,,,,,,,,,"MET09302/05/20 10:52:02 METAR KCQT 051852Z 14003KT 10SM CLR 16/M09 A3020 RMK AO2 SLP226 T01611094 $","FM-15","7",,,,,,,,,,,,,,,,,,,,,,,,,,,,"2006-02-03"
"72287493134","2020-02-05T11:52:00","FM-15","7",,,"3.89","mi",,,,,,,"PENDING COOP",,,,,,,,,,,,,,,,,,,,,,,,,,,"30.18","13","63","0.00",,,,"14","30.18","CLR:00","29.98","10.00","44","000",,"0",,,,,,,,,,,,,,,,,,,,,,,,,,,,,,,,,,,,,"MET09302/05/20 11:52:02 METAR KCQT 051952Z 00000KT 10SM CLR 17/M11 A3018 RMK AO2 SLP219 T01721106 $","FM-15","7",,,,,,,,,,,,,,,,,,,,,,,,,,,,"2006-02-03"
"72287493134","2020-02-05T12:52:00","FM-15","7",,,"3.89","mi",,,,,,,"PENDING COOP",,,,,,,,,,,,,,,,,,,,,,,,,,,"30.14","27","63","0.00",,"+0.06","8","26","30.14","CLR:00","29.94","10.00","47","000",,"0",,,,,,,,,,,,,,,,,,,,,,,,,,,,,,,,,,,,,"MET09902/05/20 12:52:02 METAR KCQT 052052Z 00000KT 10SM CLR 17/M03 A3014 RMK AO2 SLP207 T01721028 58022 $","FM-15","7",,,,,,,,,,,,,,,,,,,,,,,,,,,,"2006-02-03"
"72287493134","2020-02-05T13:52:00","FM-15","6",,,"3.89","mi",,,,,,,"PENDING COOP",,,,,,,,,,,,,,,,,,,,,,,,,,,"30.12","23","63","0.00",,,,"22","30.11","CLR:00","29.92","10.00","46",,,,,,,,,,,,,,,,,,,,,,,,,,,,,,,,,,,,,,,,"MET09302/05/20 13:52:02 METAR KCQT 052152Z      KT 10SM CLR 17/M05 A3012 RMK AO2 SLP198 T01721050 $","FM-15","6",,,,,,,,,,,,,,,,,,,,,,,,,,,,"2006-02-03"
"72287493134","2020-02-05T14:52:00","FM-15","7",,,"3.89","mi",,,,,,,"PENDING COOP",,,,,,,,,,,,,,,,,,,,,,,,,,,"30.11","31","63","0.00",,,,"30","30.11","CLR:00","29.91","10.00","48","260",,"8",,,,,,,,,,,,,,,,,,,,,,,,,,,,,,,,,,,,,"MET09302/05/20 14:52:02 METAR KCQT 052252Z 26007KT 10SM CLR 17/M01 A3011 RMK AO2 SLP195 T01721006 $","FM-15","7",,,,,,,,,,,,,,,,,,,,,,,,,,,,"2006-02-03"
"72287493134","2020-02-05T15:52:00","FM-15","7",,,"3.89","mi",,,,,,,"PENDING COOP",,,,,,,,,,,,,,,,,,,,,,,,,,,"30.11","30","62","0.00",,"+0.03","5","30","30.11","CLR:00","29.91","10.00","47","270",,"7",,,,,,,,,,,,,,,,,,,,,,,,,,,,,,,,,,,,,"MET11102/05/20 15:52:02 METAR KCQT 052352Z 27006KT 10SM CLR 17/M01 A3011 RMK AO2 SLP196 T01671011 10178 20144 55011 $","FM-15","7",,,,,,,,,,,,,,,,,,,,,,,,,,,,"2006-02-03"
"72287493134","2020-02-05T16:52:00","FM-15","7",,,"3.89","mi",,,,,,,"PENDING COOP",,,,,,,,,,,,,,,,,,,,,,,,,,,"30.11","31","61","0.00",,,,"32","30.11","CLR:00","29.91","10.00","47","260",,"5",,,,,,,,,,,,,,,,,,,,,,,,,,,,,,,,,,,,,"MET09302/05/20 16:52:01 METAR KCQT 060052Z 26004KT 10SM CLR 16/M01 A3011 RMK AO2 SLP196 T01611006 $","FM-15","7",,,,,,,,,,,,,,,,,,,,,,,,,,,,"2006-02-03"
"72287493134","2020-02-05T17:52:00","FM-15","7",,,"3.89","mi",,,,,,,"PENDING COOP",,,,,,,,,,,,,,,,,,,,,,,,,,,"30.12","29","59","0.00",,,,"32","30.12","CLR:00","29.92","10.00","46","000",,"0",,,,,,,,,,,,,,,,,,,,,,,,,,,,,,,,,,,,,"MET09302/05/20 17:52:01 METAR KCQT 060152Z 00000KT 10SM CLR 15/M02 A3012 RMK AO2 SLP199 T01501017 $","FM-15","7",,,,,,,,,,,,,,,,,,,,,,,,,,,,"2006-02-03"
"72287493134","2020-02-05T18:52:00","FM-15","7",,,"3.89","mi",,,,,,,"PENDING COOP",,,,,,,,,,,,,,,,,,,,,,,,,,,"30.13","27","57","0.00",,"-0.02","3","32","30.13","CLR:00","29.93","10.00","44","000",,"0",,,,,,,,,,,,,,,,,,,,,,,,,,,,,,,,,,,,,"MET09902/05/20 18:52:01 METAR KCQT 060252Z 00000KT 10SM CLR 14/M03 A3013 RMK AO2 SLP203 T01391028 53006 $","FM-15","7",,,,,,,,,,,,,,,,,,,,,,,,,,,,"2006-02-03"
"72287493134","2020-02-05T19:52:00","FM-15","7",,,"3.89","mi",,,,,,,"PENDING COOP",,,,,,,,,,,,,,,,,,,,,,,,,,,"30.14","29","56","0.00",,,,"36","30.14","CLR:00","29.94","10.00","44","000",,"0",,,,,,,,,,,,,,,,,,,,,,,,,,,,,,,,,,,,,"MET09302/05/20 19:52:01 METAR KCQT 060352Z 00000KT 10SM CLR 13/M02 A3014 RMK AO2 SLP207 T01331017 $","FM-15","7",,,,,,,,,,,,,,,,,,,,,,,,,,,,"2006-02-03"
"72287493134","2020-02-05T20:52:00","FM-15","7",,,"3.89","mi",,,,,,,"PENDING COOP",,,,,,,,,,,,,,,,,,,,,,,,,,,"30.16","30","54","0.00",,,,"40","30.15","CLR:00","29.96","10.00","44","000",,"0",,,,,,,,,,,,,,,,,,,,,,,,,,,,,,,,,,,,,"MET09302/05/20 20:52:02 METAR KCQT 060452Z 00000KT 10SM CLR 12/M01 A3016 RMK AO2 SLP211 T01221011 $","FM-15","7",,,,,,,,,,,,,,,,,,,,,,,,,,,,"2006-02-03"
"72287493134","2020-02-05T21:52:00","FM-15","7",,,"3.89","mi",,,,,,,"PENDING COOP",,,,,,,,,,,,,,,,,,,,,,,,,,,"30.17","32","53","0.00",,"-0.04","3","45","30.17","CLR:00","29.97","10.00","44","000",,"0",,,,,,,,,,,,,,,,,,,,,,,,,,,,,,,,,,,,,"MET11002/05/20 21:52:02 METAR KCQT 060552Z 00000KT 10SM CLR 12/00 A3017 RMK AO2 SLP216 T01170000 10167 20117 53014 $","FM-15","7",,,,,,,,,,,,,,,,,,,,,,,,,,,,"2006-02-03"
"72287493134","2020-02-05T22:52:00","FM-15","7",,,"3.89","mi",,,,,,,"PENDING COOP",,,,,,,,,,,,,,,,,,,,,,,,,,,"30.17","34","51","0.00",,,,"52","30.16","CLR:00","29.97","10.00","43","000",,"0",,,,,,,,,,,,,,,,,,,,,,,,,,,,,,,,,,,,,"MET09202/05/20 22:52:02 METAR KCQT 060652Z 00000KT 10SM CLR 11/01 A3017 RMK AO2 SLP215 T01060011 $","FM-15","7",,,,,,,,,,,,,,,,,,,,,,,,,,,,"2006-02-03"
"72287493134","2020-02-05T23:52:00","FM-15","7",,,"3.89","mi",,,,,,,"PENDING COOP",,,,,,,,,,,,,,,,,,,,,,,,,,,"30.17","31","53","0.00",,,,"43","30.16","CLR:00","29.97","10.00","43","000",,"0",,,,,,,,,,,,,,,,,,,,,,,,,,,,,,,,,,,,,"MET10302/05/20 23:52:02 METAR KCQT 060752Z 00000KT 10SM CLR 12/M01 A3017 RMK AO2 SLP214 T01171006 401780067 $","FM-15","7",,,,,,,,,,,,,,,,,,,,,,,,,,,,"2006-02-03"
"72287493134","2020-02-05T23:59:00","SOD  ","6",,,"3.89","mi",,,,,,,"PENDING COOP",,,,"21","54","29","30.16","29.96","41","1.0","0","-4.4","11","64","44","270","13","0.00",,,"260","8",,,,,,,,,,,,,,,,,,,,,,,,,,,,,,,,,,,,,,,,,,,,,,,,,,,,,,,,,"SOD73924 HR PRECIPITATION (IN): 0.00 SNOW DEPTH (IN):0     24 HR SNOWFALL (IN):0.0  24 HR MAX TEMP (F): 6424 HR MIN TEMP (F): 44AVERAGE STATION PRESSURE:29.960 MINIMUM SEA LEVEL PRESSURE:30.10 TIME OF OCCURRENCE:1728 PEAK WIND SPEED (MPH): 13 PEAK WIND DIR (DEG):270 PEAK WIND TIME (LST):      FASTEST 2MIN SPEED (MPH):  8FASTEST 2MIN DIR (DEG):260 FASTEST 2MIN TIME (LST):     AVERAGE WIND SPEED (MPH): 1.0 24 HR AVG TEMP (F): 54DEPART FROM NORMAL: -4  HEATING DEGREE DAYS: 11 COOLING DEGREE DAYS:  0 LATEST DAY MAX TEMP (0700-1900 LST):64  LATEST NIGHT MIN TEMP(1900-0800 LST):44 HOURLY INCREMENTAL PRECIPITATION VALUES (IN):.00 0.00 0.00 0.00 0.00 0.00 0.00 0.00 0.00 0.00 0.00 0.00 0.00 0.00 0.00 0.00 0.00 0.00 0.00 0.00 0.00 0.00 0.00 0.00","SOD  ","6",,,,,,,,,,,,,,,,,,,,,,,,,"0647","1728",,"2006-02-03"
"72287493134","2020-02-06T00:52:00","FM-15","7",,,"3.89","mi",,,,,,,"PENDING COOP",,,,,,,,,,,,,,,,,,,,,,,,,,,"30.16","34","50","0.00",,"+0.01","8","54","30.16","CLR:00","29.96","10.00","43","000",,"0",,,,,,,,,,,,,,,,,,,,,,,,,,,,,,,,,,,,,"MET09802/06/20 00:52:02 METAR KCQT 060852Z 00000KT 10SM CLR 10/01 A3016 RMK AO2 SLP213 T01000011 58003 $","FM-15","7",,,,,,,,,,,,,,,,,,,,,,,,,,,,"2006-02-03"
"72287493134","2020-02-06T01:52:00","FM-15","7",,,"3.89","mi",,,,,,,"PENDING COOP",,,,,,,,,,,,,,,,,,,,,,,,,,,"30.16","32","50","0.00",,,,"50","30.16","CLR:00","29.96","10.00","42","000",,"0",,,,,,,,,,,,,,,,,,,,,,,,,,,,,,,,,,,,,"MET09202/06/20 01:52:02 METAR KCQT 060952Z 00000KT 10SM CLR 10/00 A3016 RMK AO2 SLP213 T01000000 $","FM-15","7",,,,,,,,,,,,,,,,,,,,,,,,,,,,"2006-02-03"
"72287493134","2020-02-06T02:52:00","FM-15","7",,,"3.89","mi",,,,,,,"PENDING COOP",,,,,,,,,,,,,,,,,,,,,,,,,,,"30.16","32","49","0.00",,,,"52","30.16","CLR:00","29.96","10.00","42","000",,"0",,,,,,,,,,,,,,,,,,,,,,,,,,,,,,,,,,,,,"MET09202/06/20 02:52:02 METAR KCQT 061052Z 00000KT 10SM CLR 09/00 A3016 RMK AO2 SLP213 T00940000 $","FM-15","7",,,,,,,,,,,,,,,,,,,,,,,,,,,,"2006-02-03"
"72287493134","2020-02-06T03:52:00","FM-15","7",,,"3.89","mi",,,,,,,"PENDING COOP",,,,,,,,,,,,,,,,,,,,,,,,,,,"30.16","33","48","0.00",,"+0.00","8","56","30.16","CLR:00","29.96","10.00","41","000",,"0",,,,,,,,,,,,,,,,,,,,,,,,,,,,,,,,,,,,,"MET11002/06/20 03:52:02 METAR KCQT 061152Z 00000KT 10SM CLR 09/01 A3016 RMK AO2 SLP212 T00890006 10117 20089 58001 $","FM-15","7",,,,,,,,,,,,,,,,,,,,,,,,,,,,"2006-02-03"
"72287493134","2020-02-06T04:52:00","FM-15","7",,,"3.89","mi",,,,,,,"PENDING COOP",,,,,,,,,,,,,,,,,,,,,,,,,,,"30.16","32","48","0.00",,,,"54","30.15","CLR:00","29.96","10.00","41","000",,"0",,,,,,,,,,,,,,,,,,,,,,,,,,,,,,,,,,,,,"MET09202/06/20 04:52:02 METAR KCQT 061252Z 00000KT 10SM CLR 09/00 A3016 RMK AO2 SLP211 T00890000 $","FM-15","7",,,,,,,,,,,,,,,,,,,,,,,,,,,,"2006-02-03"
"72287493134","2020-02-06T05:52:00","FM-15","7",,,"3.89","mi",,,,,,,"PENDING COOP",,,,,,,,,,,,,,,,,,,,,,,,,,,"30.15","31","48","0.00",,,,"52","30.15","CLR:00","29.95","10.00","41","000",,"0",,,,,,,,,,,,,,,,,,,,,,,,,,,,,,,,,,,,,"MET09302/06/20 05:52:02 METAR KCQT 061352Z 00000KT 10SM CLR 09/M01 A3015 RMK AO2 SLP210 T00891006 $","FM-15","7",,,,,,,,,,,,,,,,,,,,,,,,,,,,"2006-02-03"
"72287493134","2020-02-06T06:52:00","FM-15","7",,,"3.89","mi",,,,,,,"PENDING COOP",,,,,,,,,,,,,,,,,,,,,,,,,,,"30.17","33","47","0.00",,"-0.01","3","59","30.17","CLR:00","29.97","10.00","41","000",,"0",,,,,,,,,,,,,,,,,,,,,,,,,,,,,,,,,,,,,"MET09802/06/20 06:52:02 METAR KCQT 061452Z 00000KT 10SM CLR 08/01 A3017 RMK AO2 SLP217 T00830006 53004 $","FM-15","7",,,,,,,,,,,,,,,,,,,,,,,,,,,,"2006-02-03"
"72287493134","2020-02-06T07:52:00","FM-15","7",,,"3.89","mi",,,,,,,"PENDING COOP",,,,,,,,,,,,,,,,,,,,,,,,,,,"30.18","31","52","0.00",,,,"45","30.17","CLR:00","29.98","10.00","43","000",,"0",,,,,,,,,,,,,,,,,,,,,,,,,,,,,,,,,,,,,"MET09302/06/20 07:52:02 METAR KCQT 061552Z 00000KT 10SM CLR 11/M01 A3018 RMK AO2 SLP218 T01111006 $","FM-15","7",,,,,,,,,,,,,,,,,,,,,,,,,,,,"2006-02-03"
"72287493134","2020-02-06T08:52:00","FM-15","7",,,"3.89","mi",,,,,,,"PENDING COOP",,,,,,,,,,,,,,,,,,,,,,,,,,,"30.17","33","57","0.00",,,,"41","30.17","CLR:00","29.97","10.00","46","000",,"0",,,,,,,,,,,,,,,,,,,,,,,,,,,,,,,,,,,,,"MET09602/06/20 08:52:02 METAR KCQT 061652Z 00000KT 10SM CLR 14/01 A3017 RMK AO2 SLP217 T01390006 $ RTX","FM-15","7",,,,,,,,,,,,,,,,,,,,,,,,,,,,"2006-02-03"
"72287493134","2020-02-06T09:52:00","FM-15","7",,,"3.89","mi",,,,,,,"PENDING COOP",,,,,,,,,,,,,,,,,,,,,,,,,,,"30.17","30","61","0.00",,"+0.00","8","31","30.17","CLR:00","29.97","10.00","47","000",,"0",,,,,,,,,,,,,,,,,,,,,,,,,,,,,,,,,,,,,"MET10902/06/20 09:52:02 METAR KCQT 061752Z 00000KT 10SM CLR 16/M01 A3017 RMK AO2 SLP216 T01611011 10161 20083 58001","FM-15","7",,,,,,,,,,,,,,,,,,,,,,,,,,,,"2006-02-03"
"72287493134","2020-02-06T10:52:00","FM-15","7",,,"3.89","mi",,,,,,,"PENDING COOP",,,,,,,,,,,,,,,,,,,,,,,,,,,"30.15","30","63","0.00",,,,"29","30.15","CLR:00","29.95","10.00","48","000",,"0",,,,,,,,,,,,,,,,,,,,,,,,,,,,,,,,,,,,,"MET09102/06/20 10:52:02 METAR KCQT 061852Z 00000KT 10SM CLR 17/M01 A3015 RMK AO2 SLP210 T01721011","FM-15","7",,,,,,,,,,,,,,,,,,,,,,,,,,,,"2006-02-03"
"72287493134","2020-02-06T11:52:00","FM-15","7",,,"3.89","mi",,,,,,,"PENDING COOP",,,,,,,,,,,,,,,,,,,,,,,,,,,"30.13","25","66","0.00",,,,"21","30.12","CLR:00","29.93","10.00","48","000",,"0",,,,,,,,,,,,,,,,,,,,,,,,,,,,,,,,,,,,,"MET09102/06/20 11:52:02 METAR KCQT 061952Z 00000KT 10SM CLR 19/M04 A3013 RMK AO2 SLP201 T01891039","FM-15","7",,,,,,,,,,,,,,,,,,,,,,,,,,,,"2006-02-03"
"72287493134","2020-02-06T12:52:00","FM-15","7",,,"3.89","mi",,,,,,,"PENDING COOP",,,,,,,,,,,,,,,,,,,,,,,,,,,"30.09","30","65","0.00",,"+0.08","8","27","30.08","CLR:00","29.89","10.00","49","000",,"0",,,,,,,,,,,,,,,,,,,,,,,,,,,,,,,,,,,,,"MET09702/06/20 12:52:02 METAR KCQT 062052Z 00000KT 10SM CLR 18/M01 A3009 RMK AO2 SLP187 T01831011 58028","FM-15","7",,,,,,,,,,,,,,,,,,,,,,,,,,,,"2006-02-03"
"72287493134","2020-02-06T13:52:00","FM-15","7",,,"3.89","mi",,,,,,,"PENDING COOP",,,,,,,,,,,,,,,,,,,,,,,,,,,"30.06","35","65","0.00",,,,"33","30.06","CLR:00","29.86","10.00","51","VRB",,"3",,,,,,,,,,,,,,,,,,,,,,,,,,,,,,,,,,,,,"MET09002/06/20 13:52:02 METAR KCQT 062152Z VRB03KT 10SM CLR 18/02 A3006 RMK AO2 SLP179 T01830017","FM-15","7",,,,,,,,,,,,,,,,,,,,,,,,,,,,"2006-02-03"
"72287493134","2020-02-06T14:52:00","FM-15","7",,,"3.89","mi",,,,,,,"PENDING COOP",,,,,,,,,,,,,,,,,,,,,,,,,,,"30.05","34","66","0.00",,,,"30","30.05","CLR:00","29.85","10.00","51","000",,"0",,,,,,,,,,,,,,,,,,,,,,,,,,,,,,,,,,,,,"MET09002/06/20 14:52:02 METAR KCQT 062252Z 00000KT 10SM CLR 19/01 A3005 RMK AO2 SLP175 T01890011","FM-15","7",,,,,,,,,,,,,,,,,,,,,,,,,,,,"2006-02-03"
"72287493134","2020-02-06T15:52:00","FM-15","6",,,"3.89","mi",,,,,,,"PENDING COOP",,,,,,,,,,,,,,,,,,,,,,,,,,,"30.05","35","64","0.00",,"+0.04","6","34","30.04","CLR:00","29.85","10.00","50",,,,,,,,,,,,,,,,,,,,,,,,,,,,,,,,,,,,,,,,"MET10802/06/20 15:52:02 METAR KCQT 062352Z      KT 10SM CLR 18/02 A3005 RMK AO2 SLP174 T01780017 10194 20161 56014","FM-15","6",,,,,,,,,,,,,,,,,,,,,,,,,,,,"2006-02-03"
"72287493134","2020-02-06T16:52:00","FM-15","7",,,"3.89","mi",,,,,,,"PENDING COOP",,,,,,,,,,,,,,,,,,,,,,,,,,,"30.05","35","62","0.00",,,,"37","30.04","CLR:00","29.85","10.00","49","VRB",,"3",,,,,,,,,,,,,,,,,,,,,,,,,,,,,,,,,,,,,"MET09002/06/20 16:52:01 METAR KCQT 070052Z VRB03KT 10SM CLR 17/02 A3005 RMK AO2 SLP174 T01670017","FM-15","7",,,,,,,,,,,,,,,,,,,,,,,,,,,,"2006-02-03"
"72287493134","2020-02-06T17:52:00","FM-15","7",,,"3.89","mi",,,,,,,"PENDING COOP",,,,,,,,,,,,,,,,,,,,,,,,,,,"30.06","43","60","0.00",,,,"53","30.06","CLR:00","29.86","10.00","51","000",,"0",,,,,,,,,,,,,,,,,,,,,,,,,,,,,,,,,,,,,"MET09002/06/20 17:52:01 METAR KCQT 070152Z 00000KT 10SM CLR 16/06 A3006 RMK AO2 SLP180 T01560061","FM-15","7",,,,,,,,,,,,,,,,,,,,,,,,,,,,"2006-02-03"
"72287493134","2020-02-06T18:52:00","FM-15","7",,,"3.89","mi",,,,,,,"PENDING COOP",,,,,,,,,,,,,,,,,,,,,,,,,,,"30.08","45","59","0.00",,"-0.03","3","60","30.08","CLR:00","29.88","10.00","52","VRB",,"3",,,,,,,,,,,,,,,,,,,,,,,,,,,,,,,,,,,,,"MET09602/06/20 18:52:01 METAR KCQT 070252Z VRB03KT 10SM CLR 15/07 A3008 RMK AO2 SLP185 T01500072 53010","FM-15","7",,,,,,,,,,,,,,,,,,,,,,,,,,,,"2006-02-03"
"72287493134","2020-02-06T19:52:00","FM-15","7",,,"3.89","mi",,,,,,,"PENDING COOP",,,,,,,,,,,,,,,,,,,,,,,,,,,"30.09","46","57","0.00",,,,"67","30.09","CLR:00","29.89","10.00","51","000",,"0",,,,,,,,,,,,,,,,,,,,,,,,,,,,,,,,,,,,,"MET09002/06/20 19:52:01 METAR KCQT 070352Z 00000KT 10SM CLR 14/08 A3009 RMK AO2 SLP188 T01390078","FM-15","7",,,,,,,,,,,,,,,,,,,,,,,,,,,,"2006-02-03"
"72287493134","2020-02-06T20:52:00","FM-15","7",,,"3.89","mi",,,,,,,"PENDING COOP",,,,,,,,,,,,,,,,,,,,,,,,,,,"30.10","46","56","0.00",,,,"70","30.09","CLR:00","29.90","10.00","51","000",,"0",,,,,,,,,,,,,,,,,,,,,,,,,,,,,,,,,,,,,"MET09002/06/20 20:52:02 METAR KCQT 070452Z 00000KT 10SM CLR 13/08 A3010 RMK AO2 SLP191 T01330078","FM-15","7",,,,,,,,,,,,,,,,,,,,,,,,,,,,"2006-02-03"
"72287493134","2020-02-06T21:52:00","FM-15","7",,,"3.89","mi",,,,,,,"PENDING COOP",,,,,,,,,,,,,,,,,,,,,,,,,,,"30.10","45","54","0.00",,"-0.03","1","72","30.10","CLR:00","29.90","10.00","49","000",,"0",,,,,,,,,,,,,,,,,,,,,,,,,,,,,,,,,,,,,"MET10802/06/20 21:52:02 METAR KCQT 070552Z 00000KT 10SM CLR 12/07 A3010 RMK AO2 SLP193 T01220072 10178 20122 51009","FM-15","7",,,,,,,,,,,,,,,,,,,,,,,,,,,,"2006-02-03"
"72287493134","2020-02-06T22:52:00","FM-15","7",,,"3.89","mi",,,,,,,"PENDING COOP",,,,,,,,,,,,,,,,,,,,,,,,,,,"30.10","45","54","0.00",,,,"72","30.10","CLR:00","29.90","10.00","49","000",,"0",,,,,,,,,,,,,,,,,,,,,,,,,,,,,,,,,,,,,"MET09002/06/20 22:52:02 METAR KCQT 070652Z 00000KT 10SM CLR 12/07 A3010 RMK AO2 SLP192 T01220072","FM-15","7",,,,,,,,,,,,,,,,,,,,,,,,,,,,"2006-02-03"
"72287493134","2020-02-06T23:52:00","FM-15","7",,,"3.89","mi",,,,,,,"PENDING COOP",,,,,,,,,,,,,,,,,,,,,,,,,,,"30.09","45","53","0.00",,,,"74","30.09","CLR:00","29.89","10.00","49","000",,"0",,,,,,,,,,,,,,,,,,,,,,,,,,,,,,,,,,,,,"MET10002/06/20 23:52:02 METAR KCQT 070752Z 00000KT 10SM CLR 12/07 A3009 RMK AO2 SLP188 T01170072 401940083","FM-15","7",,,,,,,,,,,,,,,,,,,,,,,,,,,,"2006-02-03"
"72287493134","2020-02-06T23:59:00","SOD  ","6",,,"3.89","mi",,,,,,,"PENDING COOP",,,,"36","57","49","30.12","29.91","47","0.5","0","-1.5","8","67","47","260","12","0.00",,,"260","7",,,,,,,,,,,,,,,,,,,,,,,,,,,,,,,,,,,,,,,,,,,,,,,,,,,,,,,,,"SOD73924 HR PRECIPITATION (IN): 0.00 SNOW DEPTH (IN):0     24 HR SNOWFALL (IN):0.0  24 HR MAX TEMP (F): 6724 HR MIN TEMP (F): 47AVERAGE STATION PRESSURE:29.915 MINIMUM SEA LEVEL PRESSURE:30.04 TIME OF OCCURRENCE:1654 PEAK WIND SPEED (MPH): 12 PEAK WIND DIR (DEG):260 PEAK WIND TIME (LST):      FASTEST 2MIN SPEED (MPH):  7FASTEST 2MIN DIR (DEG):260 FASTEST 2MIN TIME (LST):     AVERAGE WIND SPEED (MPH): 0.5 24 HR AVG TEMP (F): 57DEPART FROM NORMAL: -1  HEATING DEGREE DAYS:  8 COOLING DEGREE DAYS:  0 LATEST DAY MAX TEMP (0700-1900 LST):67  LATEST NIGHT MIN TEMP(1900-0800 LST):47 HOURLY INCREMENTAL PRECIPITATION VALUES (IN):.00 0.00 0.00 0.00 0.00 0.00 0.00 0.00 0.00 0.00 0.00 0.00 0.00 0.00 0.00 0.00 0.00 0.00 0.00 0.00 0.00 0.00 0.00 0.00","SOD  ","6",,,,,,,,,,,,,,,,,,,,,,,,,"0647","1729",,"2006-02-03"
"72287493134","2020-02-07T00:52:00","FM-15","7",,,"3.89","mi",,,,,,,"PENDING COOP",,,,,,,,,,,,,,,,,,,,,,,,,,,"30.08","40","54","0.00",,"+0.03","8","59","30.07","CLR:00","29.88","10.00","47","000",,"0",,,,,,,,,,,,,,,,,,,,,,,,,,,,,,,,,,,,,"MET09602/07/20 00:52:02 METAR KCQT 070852Z 00000KT 10SM CLR 12/04 A3008 RMK AO2 SLP184 T01220044 58009","FM-15","7",,,,,,,,,,,,,,,,,,,,,,,,,,,,"2006-02-03"
"72287493134","2020-02-07T01:52:00","FM-15","7",,,"3.89","mi",,,,,,,"PENDING COOP",,,,,,,,,,,,,,,,,,,,,,,,,,,"30.07","40","51","0.00",,,,"66","30.07","CLR:00","29.87","10.00","46","000",,"0",,,,,,,,,,,,,,,,,,,,,,,,,,,,,,,,,,,,,"MET09002/07/20 01:52:02 METAR KCQT 070952Z 00000KT 10SM CLR 11/04 A3007 RMK AO2 SLP184 T01060044","FM-15","7",,,,,,,,,,,,,,,,,,,,,,,,,,,,"2006-02-03"
"72287493134","2020-02-07T02:52:00","FM-15","7",,,"3.89","mi",,,,,,,"PENDING COOP",,,,,,,,,,,,,,,,,,,,,,,,,,,"30.07","39","50","0.00",,,,"66","30.07","CLR:00","29.87","10.00","45","000",,"0",,,,,,,,,,,,,,,,,,,,,,,,,,,,,,,,,,,,,"MET09002/07/20 02:52:02 METAR KCQT 071052Z 00000KT 10SM CLR 10/04 A3007 RMK AO2 SLP183 T01000039","FM-15","7",,,,,,,,,,,,,,,,,,,,,,,,,,,,"2006-02-03"
"72287493134","2020-02-07T03:52:00","FM-15","7",,,"3.89","mi",,,,,,,"PENDING COOP",,,,,,,,,,,,,,,,,,,,,,,,,,,"30.07","38","49","0.00",,"+0.00","7","66","30.07","CLR:00","29.87","10.00","44","000",,"0",,,,,,,,,,,,,,,,,,,,,,,,,,,,,,,,,,,,,"MET10802/07/20 03:52:02 METAR KCQT 071152Z 00000KT 10SM CLR 09/03 A3007 RMK AO2 SLP183 T00940033 10128 20094 57001","FM-15","7",,,,,,,,,,,,,,,,,,,,,,,,,,,,"2006-02-03"
"72287493134","2020-02-07T04:52:00","FM-15","6",,,"3.89","mi",,,,,,,"PENDING COOP",,,,,,,,,,,,,,,,,,,,,,,,,,,"30.08","38","48","0.00",,,,"68","30.08","CLR:00","29.88","10.00","43","000",,"0",,,,,,,,,,,,,,,,,,,,,,,,,,,,,,,,,,,,,"MET09402/07/20 04:52:02 METAR KCQT 071252Z 00000KT 10SM CLR 09/03 A3008 RMK AO2 SLP186 T00890033 RTX","FM-15","6",,,,,,,,,,,,,,,,,,,,,,,,,,,,"2006-02-03"
"72287493134","2020-02-07T05:52:00","FM-15","7",,,"3.89","mi",,,,,,,"PENDING COOP",,,,,,,,,,,,,,,,,,,,,,,,,,,"30.09","38","48","0.00",,,,"68","30.09","CLR:00","29.89","10.00","43","000",,"0",,,,,,,,,,,,,,,,,,,,,,,,,,,,,,,,,,,,,"MET09402/07/20 05:52:02 METAR KCQT 071352Z 00000KT 10SM CLR 09/03 A3009 RMK AO2 SLP190 T00890033 RTX","FM-15","7",,,,,,,,,,,,,,,,,,,,,,,,,,,,"2006-02-03"
"72287493134","2020-02-07T06:52:00","FM-15","7",,,"3.89","mi",,,,,,,"PENDING COOP",,,,,,,,,,,,,,,,,,,,,,,,,,,"30.10","38","48","0.00",,"-0.02","1","68","30.09","CLR:00","29.90","10.00","43","000",,"0",,,,,,,,,,,,,,,,,,,,,,,,,,,,,,,,,,,,,"MET09602/07/20 06:52:02 METAR KCQT 071452Z 00000KT 10SM CLR 09/03 A3010 RMK AO2 SLP191 T00890033 51008","FM-15","7",,,,,,,,,,,,,,,,,,,,,,,,,,,,"2006-02-03"
"72287493134","2020-02-07T07:52:00","FM-15","7",,,"3.89","mi",,,,,,,"PENDING COOP",,,,,,,,,,,,,,,,,,,,,,,,,,,"30.10","39","51","0.00",,,,"64","30.10","CLR:00","29.90","10.00","45","000",,"0",,,,,,,,,,,,,,,,,,,,,,,,,,,,,,,,,,,,,"MET09002/07/20 07:52:02 METAR KCQT 071552Z 00000KT 10SM CLR 11/04 A3010 RMK AO2 SLP193 T01060039","FM-15","7",,,,,,,,,,,,,,,,,,,,,,,,,,,,"2006-02-03"
"72287493134","2020-02-07T08:52:00","FM-15","7",,,"3.89","mi",,,,,,,"PENDING COOP",,,,,,,,,,,,,,,,,,,,,,,,,,,"30.11","38","58","0.00",,,,"48","30.11","CLR:00","29.91","10.00","48","090",,"3",,,,,,,,,,,,,,,,,,,,,,,,,,,,,,,,,,,,,"MET09002/07/20 08:52:02 METAR KCQT 071652Z 09003KT 10SM CLR 14/03 A3011 RMK AO2 SLP195 T01440033","FM-15","7",,,,,,,,,,,,,,,,,,,,,,,,,,,,"2006-02-03"
"72287493134","2020-02-07T09:52:00","FM-15","7",,,"3.89","mi",,,,,,,"PENDING COOP",,,,,,,,,,,,,,,,,,,,,,,,,,,"30.12","43","62","0.00",,"-0.02","3","50","30.11","CLR:00","29.92","10.00","52","000",,"0",,,,,,,,,,,,,,,,,,,,,,,,,,,,,,,,,,,,,"MET10802/07/20 09:52:02 METAR KCQT 071752Z 00000KT 10SM CLR 17/06 A3012 RMK AO2 SLP198 T01670061 10167 20089 53007","FM-15","7",,,,,,,,,,,,,,,,,,,,,,,,,,,,"2006-02-03"
"72287493134","2020-02-07T10:52:00","FM-15","7",,,"3.89","mi",,,,,,,"PENDING COOP",,,,,,,,,,,,,,,,,,,,,,,,,,,"30.11","43","65","0.00",,,,"45","30.10","CLR:00","29.91","10.00","54","000",,"0",,,,,,,,,,,,,,,,,,,,,,,,,,,,,,,,,,,,,"MET09002/07/20 10:52:02 METAR KCQT 071852Z 00000KT 10SM CLR 18/06 A3011 RMK AO2 SLP194 T01830061","FM-15","7",,,,,,,,,,,,,,,,,,,,,,,,,,,,"2006-02-03"
"72287493134","2020-02-07T11:52:00","FM-15","7",,,"3.89","mi",,,,,,,"PENDING COOP",,,,,,,,,,,,,,,,,,,,,,,,,,,"30.08","44","67","0.00",,,,"44","30.08","CLR:00","29.88","10.00","55","250",,"3",,,,,,,,,,,,,,,,,,,,,,,,,,,,,,,,,,,,,"MET09002/07/20 11:52:02 METAR KCQT 071952Z 25003KT 10SM CLR 19/07 A3008 RMK AO2 SLP186 T01940067","FM-15","7",,,,,,,,,,,,,,,,,,,,,,,,,,,,"2006-02-03"
"72287493134","2020-02-07T12:52:00","FM-15","7",,,"3.89","mi",,,,,,,"PENDING COOP",,,,,,,,,,,,,,,,,,,,,,,,,,,"30.06","40","68","0.00",,"+0.06","8","36","30.06","CLR:00","29.86","10.00","54","260",,"6",,,,,,,,,,,,,,,,,,,,,,,,,,,,,,,,,,,,,"MET09602/07/20 12:52:02 METAR KCQT 072052Z 26005KT 10SM CLR 20/04 A3006 RMK AO2 SLP178 T02000044 58020","FM-15","7",,,,,,,,,,,,,,,,,,,,,,,,,,,,"2006-02-03"
"72287493134","2020-02-07T13:52:00","FM-15","7",,,"3.89","mi",,,,,,,"PENDING COOP",,,,,,,,,,,,,,,,,,,,,,,,,,,"30.04","41","68","0.00",,,,"38","30.03","CLR:00","29.84","10.00","54","VRB",,"5",,,,,,,,,,,,,,,,,,,,,,,,,,,,,,,,,,,,,"MET09002/07/20 13:52:02 METAR KCQT 072152Z VRB04KT 10SM CLR 20/05 A3004 RMK AO2 SLP170 T02000050","FM-15","7",,,,,,,,,,,,,,,,,,,,,,,,,,,,"2006-02-03"
"72287493134","2020-02-07T14:52:00","FM-15","7",,,"3.89","mi",,,,,,,"PENDING COOP",,,,,,,,,,,,,,,,,,,,,,,,,,,"30.03","42","68","0.00",,,,"39","30.02","CLR:00","29.83","10.00","54","250",,"5",,,,,,,,,,,,,,,,,,,,,,,,,,,,,,,,,,,,,"MET09002/07/20 14:52:02 METAR KCQT 072252Z 25004KT 10SM CLR 20/06 A3003 RMK AO2 SLP167 T02000056","FM-15","7",,,,,,,,,,,,,,,,,,,,,,,,,,,,"2006-02-03"
"72287493134","2020-02-07T15:52:00","FM-15","7",,,"3.89","mi",,,,,,,"PENDING COOP",,,,,,,,,,,,,,,,,,,,,,,,,,,"30.02","44","66","0.00",,"+0.04","6","45","30.02","CLR:00","29.82","10.00","54","VRB",,"3",,,,,,,,,,,,,,,,,,,,,,,,,,,,,,,,,,,,,"MET10802/07/20 15:52:02 METAR KCQT 072352Z VRB03KT 10SM CLR 19/07 A3002 RMK AO2 SLP165 T01890067 10206 20172 56014","FM-15","7",,,,,,,,,,,,,,,,,,,,,,,,,,,,"2006-02-03"
"72287493134","2020-02-07T16:52:00","FM-15","7",,,"3.89","mi",,,,,,,"PENDING COOP",,,,,,,,,,,,,,,,,,,,,,,,,,,"30.02","45","65","0.00",,,,"49","30.01","CLR:00","29.82","10.00","54","VRB",,"3",,,,,,,,,,,,,,,,,,,,,,,,,,,,,,,,,,,,,"MET09002/07/20 16:52:01 METAR KCQT 080052Z VRB03KT 10SM CLR 18/07 A3002 RMK AO2 SLP164 T01830072","FM-15","7",,,,,,,,,,,,,,,,,,,,,,,,,,,,"2006-02-03"
"72287493134","2020-02-07T17:52:00","FM-15","7",,,"3.89","mi",,,,,,,"PENDING COOP",,,,,,,,,,,,,,,,,,,,,,,,,,,"30.02","47","62","0.00",,,,"58","30.02","CLR:00","29.82","10.00","54","250",,"3",,,,,,,,,,,,,,,,,,,,,,,,,,,,,,,,,,,,,"MET09002/07/20 17:52:01 METAR KCQT 080152Z 25003KT 10SM CLR 17/08 A3002 RMK AO2 SLP166 T01670083","FM-15","7",,,,,,,,,,,,,,,,,,,,,,,,,,,,"2006-02-03"
"72287493134","2020-02-07T18:52:00","FM-15","7",,,"3.89","mi",,,,,,,"PENDING COOP",,,,,,,,,,,,,,,,,,,,,,,,,,,"30.04","48","60","0.00",,"-0.02","3","65","30.03","CLR:00","29.84","10.00","54","000",,"0",,,,,,,,,,,,,,,,,,,,,,,,,,,,,,,,,,,,,"MET09602/07/20 18:52:01 METAR KCQT 080252Z 00000KT 10SM CLR 16/09 A3004 RMK AO2 SLP170 T01560089 53006","FM-15","7",,,,,,,,,,,,,,,,,,,,,,,,,,,,"2006-02-03"
"72287493134","2020-02-07T19:52:00","FM-15","7",,,"3.89","mi",,,,,,,"PENDING COOP",,,,,,,,,,,,,,,,,,,,,,,,,,,"30.04","49","58","0.00",,,,"72","30.04","CLR:00","29.84","10.00","53","000",,"0",,,,,,,,,,,,,,,,,,,,,,,,,,,,,,,,,,,,,"MET09002/07/20 19:52:01 METAR KCQT 080352Z 00000KT 10SM CLR 14/09 A3004 RMK AO2 SLP173 T01440094","FM-15","7",,,,,,,,,,,,,,,,,,,,,,,,,,,,"2006-02-03"
"72287493134","2020-02-07T20:52:00","FM-15","7",,,"3.89","mi",,,,,,,"PENDING COOP",,,,,,,,,,,,,,,,,,,,,,,,,,,"30.05","49","57","0.00",,,,"74","30.04","CLR:00","29.85","10.00","53","000",,"0",,,,,,,,,,,,,,,,,,,,,,,,,,,,,,,,,,,,,"MET09002/07/20 20:52:02 METAR KCQT 080452Z 00000KT 10SM CLR 14/09 A3005 RMK AO2 SLP174 T01390094","FM-15","7",,,,,,,,,,,,,,,,,,,,,,,,,,,,"2006-02-03"
"72287493134","2020-02-07T21:52:00","FM-15","7",,,"3.89","mi",,,,,,,"PENDING COOP",,,,,,,,,,,,,,,,,,,,,,,,,,,"30.05","48","56","0.00",,"-0.02","1","75","30.05","CLR:00","29.85","9.00","52","000",,"0",,,,,,,,,,,,,,,,,,,,,,,,,,,,,,,,,,,,,"MET10702/07/20 21:52:02 METAR KCQT 080552Z 00000KT 9SM CLR 13/09 A3005 RMK AO2 SLP176 T01330089 10189 20133 51006","FM-15","7",,,,,,,,,,,,,,,,,,,,,,,,,,,,"2006-02-03"
"72287493134","2020-02-07T22:52:00","FM-15","7",,,"3.89","mi",,,,,,,"PENDING COOP",,,,,,,,,,,,,,,,,,,,,,,,,,,"30.05","49","55","0.00",,,,"80","30.05","CLR:00","29.85","7.00","52","000",,"0",,,,,,,,,,,,,,,,,,,,,,,,,,,,,,,,,,,,,"MET08902/07/20 22:52:02 METAR KCQT 080652Z 00000KT 7SM CLR 13/09 A3005 RMK AO2 SLP175 T01280094","FM-15","7",,,,,,,,,,,,,,,,,,,,,,,,,,,,"2006-02-03"
"72287493134","2020-02-07T23:52:00","FM-15","7",,,"3.89","mi",,,,,,,"PENDING COOP",,,,,,,,,,,,,,,,,,,,,,,,,,,"30.05","48","54","0.00",,,,"80","30.04","CLR:00","29.85","7.00","51","000",,"0",,,,,,,,,,,,,,,,,,,,,,,,,,,,,,,,,,,,,"MET09902/07/20 23:52:02 METAR KCQT 080752Z 00000KT 7SM CLR 12/09 A3005 RMK AO2 SLP173 T01220089 402060089","FM-15","7",,,,,,,,,,,,,,,,,,,,,,,,,,,,"2006-02-03"
"72287493134","2020-02-07T23:59:00","SOD  ","6",,,"3.89","mi",,,,,,,"PENDING COOP",,,,"43","59","59","30.06","29.86","50","1.3","0","0.5","6","69","48","260","10","0.00",,,"270","6",,,,,,,,,,,,,,,,,,,,,,,,,,,,,,,,,,,,,,,,,,,,,,,,,,,,,,,,,"SOD75624 HR PRECIPITATION (IN): 0.00 SNOW DEPTH (IN):0     24 HR SNOWFALL (IN):0.0  WEATHER(CODE):8  24 HR MAX TEMP (F): 6924 HR MIN TEMP (F): 48AVERAGE STATION PRESSURE:29.860 MINIMUM SEA LEVEL PRESSURE:30.01 TIME OF OCCURRENCE:1654 PEAK WIND SPEED (MPH): 10 PEAK WIND DIR (DEG):260 PEAK WIND TIME (LST):      FASTEST 2MIN SPEED (MPH):  6FASTEST 2MIN DIR (DEG):270 FASTEST 2MIN TIME (LST):     AVERAGE WIND SPEED (MPH): 1.3 24 HR AVG TEMP (F): 59DEPART FROM NORMAL:  1  HEATING DEGREE DAYS:  6 COOLING DEGREE DAYS:  0 LATEST DAY MAX TEMP (0700-1900 LST):69  LATEST NIGHT MIN TEMP(1900-0800 LST):48 HOURLY INCREMENTAL PRECIPITATION VALUES (IN):.00 0.00 0.00 0.00 0.00 0.00 0.00 0.00 0.00 0.00 0.00 0.00 0.00 0.00 0.00 0.00 0.00 0.00 0.00 0.00 0.00 0.00 0.00 0.00","SOD  ","6",,,,,,,,,,,,,,,,,,,,,,,,,"0646","1730",,"2006-02-03"
"72287493134","2020-02-08T00:52:00","FM-15","7",,,"3.89","mi",,,,,,,"PENDING COOP",,,,,,,,,,,,,,,,,,,,,,,,,,,"30.05","46","53","0.00",,"+0.01","5","77","30.04","CLR:00","29.85","7.00","49","000",,"0",,,,,,,,,,,,,,,,,,,,,,,,,,,,,,,,,,,,,"MET09502/08/20 00:52:02 METAR KCQT 080852Z 00000KT 7SM CLR 12/08 A3005 RMK AO2 SLP173 T01170078 55002","FM-15","7",,,,,,,,,,,,,,,,,,,,,,,,,,,,"2006-02-03"
"72287493134","2020-02-08T01:47:00","FM-16","7",,,"3.89","mi",,,,,,,"PENDING COOP",,,,,,,,,,,,,,,,,,,,,,,,,,,"30.05","46","53",,"HZ:7 |FU |HZ",,,"77",,"FEW:02 6","29.85","6.00","49","000",,"0",,,,,,,,,,,,,,,,,,,,,,,,,,,,,,,,,,,,,"MET08802/08/20 01:47:02 SPECI KCQT 080947Z 00000KT 6SM HZ FEW006 12/08 A3005 RMK AO2 T01170078","FM-16","7",,,,,,,,,,,,,,,,,,,,,,,,,,,,"2006-02-03"
"72287493134","2020-02-08T01:52:00","FM-15","7",,,"3.89","mi",,,,,,,"PENDING COOP",,,,,,,,,,,,,,,,,,,,,,,,,,,"30.05","47","52","0.00","HZ:7 |FU |HZ",,,"83","30.05","SCT:04 6","29.85","6.00","49","000",,"0",,,,,,,,,,,,,,,,,,,,,,,,,,,,,,,,,,,,,"MET09502/08/20 01:52:02 METAR KCQT 080952Z 00000KT 6SM HZ SCT006 11/08 A3005 RMK AO2 SLP175 T01110083","FM-15","7",,,,,,,,,,,,,,,,,,,,,,,,,,,,"2006-02-03"
"72287493134","2020-02-08T02:30:00","FM-16","7",,,"3.89","mi",,,,,,,"PENDING COOP",,,,,,,,,,,,,,,,,,,,,,,,,,,"30.05","47","53",,,,,"80",,"BKN:07 6","29.85","7.00","50","000",,"0",,,,,,,,,,,,,,,,,,,,,,,,,,,,,,,,,,,,,"MET08502/08/20 02:30:02 SPECI KCQT 081030Z 00000KT 7SM BKN006 12/08 A3005 RMK AO2 T01170083","FM-16","7",,,,,,,,,,,,,,,,,,,,,,,,,,,,"2006-02-03"
"72287493134","2020-02-08T02:45:00","FM-16","7",,,"3.89","mi",,,,,,,"PENDING COOP",,,,,,,,,,,,,,,,,,,,,,,,,,,"30.05","46","52",,,,,"80",,"SCT:04 6","29.85","7.00","49","000",,"0",,,,,,,,,,,,,,,,,,,,,,,,,,,,,,,,,,,,,"MET08502/08/20 02:45:02 SPECI KCQT 081045Z 00000KT 7SM SCT006 11/08 A3005 RMK AO2 T01110078","FM-16","7",,,,,,,,,,,,,,,,,,,,,,,,,,,,"2006-02-03"
"72287493134","2020-02-08T02:52:00","FM-15","7",,,"3.89","mi",,,,,,,"PENDING COOP",,,,,,,,,,,,,,,,,,,,,,,,,,,"30.05","46","52","0.00",,,,"80","30.04","SCT:04 6","29.85","7.00","49","000",,"0",,,,,,,,,,,,,,,,,,,,,,,,,,,,,,,,,,,,,"MET09202/08/20 02:52:02 METAR KCQT 081052Z 00000KT 7SM SCT006 11/08 A3005 RMK AO2 SLP174 T01110078","FM-15","7",,,,,,,,,,,,,,,,,,,,,,,,,,,,"2006-02-03"
"72287493134","2020-02-08T03:06:00","FM-16","7",,,"3.89","mi",,,,,,,"PENDING COOP",,,,,,,,,,,,,,,,,,,,,,,,,,,"30.04","47","53",,"HZ:7 |FU |HZ",,,"80",,"BKN:07 6","29.84","6.00","50","000",,"0",,,,,,,,,,,,,,,,,,,,,,,,,,,,,,,,,,,,,"MET08802/08/20 03:06:02 SPECI KCQT 081106Z 00000KT 6SM HZ BKN006 12/08 A3004 RMK AO2 T01170083","FM-16","7",,,,,,,,,,,,,,,,,,,,,,,,,,,,"2006-02-03"
"72287493134","2020-02-08T03:52:00","FM-15","7",,,"3.89","mi",,,,,,,"PENDING COOP",,,,,,,,,,,,,,,,,,,,,,,,,,,"30.05","48","54","0.00","HZ:7 |FU |HZ","+0.00","8","80","30.04","OVC:08 6","29.85","6.00","51","000",,"0",,,,,,,,,,,,,,,,,,,,,,,,,,,,,,,,,,,,,"MET11302/08/20 03:52:02 METAR KCQT 081152Z 00000KT 6SM HZ OVC006 12/09 A3005 RMK AO2 SLP174 T01220089 10133 20111 58001","FM-15","7",,,,,,,,,,,,,,,,,,,,,,,,,,,,"2006-02-03"
"72287493134","2020-02-08T04:20:00","FM-16","7",,,"3.89","mi",,,,,,,"PENDING COOP",,,,,,,,,,,,,,,,,,,,,,,,,,,"30.04","50","55",,"HZ:7 |FU |HZ",,,"83",,"OVC:08 4","29.84","6.00","52","000",,"0",,,,,,,,,,,,,,,,,,,,,,,,,,,,,,,,,,,,,"MET10002/08/20 04:20:02 SPECI KCQT 081220Z 00000KT 6SM HZ OVC004 13/10 A3004 RMK AO2 CIG 003V006 T01280100","FM-16","7",,,,,,,,,,,,,,,,,,,,,,,,,,,,"2006-02-03"
"72287493134","2020-02-08T04:40:00","FM-16","7",,,"3.89","mi",,,,,,,"PENDING COOP",,,,,,,,,,,,,,,,,,,,,,,,,,,"30.04","50","55",,"HZ:7 |FU |HZ",,,"83",,"OVC:08 3","29.84","1.50","52","000",,"0",,,,,,,,,,,,,,,,,,,,,,,,,,,,,,,,,,,,,"MET09202/08/20 04:40:02 SPECI KCQT 081240Z 00000KT 1 1/2SM HZ OVC003 13/10 A3004 RMK AO2 T01280100","FM-16","7",,,,,,,,,,,,,,,,,,,,,,,,,,,,"2006-02-03"
"72287493134","2020-02-08T04:52:00","FM-15","7",,,"3.89","mi",,,,,,,"PENDING COOP",,,,,,,,,,,,,,,,,,,,,,,,,,,"30.04","50","55","0.00","HZ:7 |FU |HZ",,,"83","30.03","OVC:08 2","29.84","1.75","52","000",,"0",,,,,,,,,,,,,,,,,,,,,,,,,,,,,,,,,,,,,"MET09902/08/20 04:52:02 METAR KCQT 081252Z 00000KT 1 3/4SM HZ OVC002 13/10 A3004 RMK AO2 SLP170 T01280100","FM-15","7",,,,,,,,,,,,,,,,,,,,,,,,,,,,"2006-02-03"
"72287493134","2020-02-08T05:17:00","FM-16","7",,,"3.89","mi",,,,,,,"PENDING COOP",,,,,,,,,,,,,,,,,,,,,,,,,,,"30.03","50","54",,"BR:1 ||",,,"87",,"OVC:08 2","29.83","2.50","52","000",,"0",,,,,,,,,,,,,,,,,,,,,,,,,,,,,,,,,,,,,"MET09202/08/20 05:17:02 SPECI KCQT 081317Z 00000KT 2 1/2SM BR OVC002 12/10 A3003 RMK AO2 T01220100","FM-16","7",,,,,,,,,,,,,,,,,,,,,,,,,,,,"2006-02-03"
"72287493134","2020-02-08T05:21:00","FM-16","7",,,"3.89","mi",,,,,,,"PENDING COOP",,,,,,,,,,,,,,,,,,,,,,,,,,,"30.03","49","53",,"BR:1 ||",,,"86",,"OVC:08 2","29.83","4.00","51","000",,"0",,,,,,,,,,,,,,,,,,,,,,,,,,,,,,,,,,,,,"MET08802/08/20 05:21:02 SPECI KCQT 081321Z 00000KT 4SM BR OVC002 12/09 A3003 RMK AO2 T01170094","FM-16","7",,,,,,,,,,,,,,,,,,,,,,,,,,,,"2006-02-03"
"72287493134","2020-02-08T05:45:00","FM-16","7",,,"3.89","mi",,,,,,,"PENDING COOP",,,,,,,,,,,,,,,,,,,,,,,,,,,"30.03","45","52",,,,,"77",,"SCT:04 4","29.83","8.00","49","090",,"3",,,,,,,,,,,,,,,,,,,,,,,,,,,,,,,,,,,,,"MET08502/08/20 05:45:02 SPECI KCQT 081345Z 09003KT 8SM SCT004 11/07 A3003 RMK AO2 T01110072","FM-16","7",,,,,,,,,,,,,,,,,,,,,,,,,,,,"2006-02-03"
"72287493134","2020-02-08T05:52:00","FM-15","7",,,"3.89","mi",,,,,,,"PENDING COOP",,,,,,,,,,,,,,,,,,,,,,,,,,,"30.03","45","53","0.00",,,,"74","30.03","FEW:02 5","29.83","8.00","49","000",,"0",,,,,,,,,,,,,,,,,,,,,,,,,,,,,,,,,,,,,"MET09202/08/20 05:52:02 METAR KCQT 081352Z 00000KT 8SM FEW005 12/07 A3003 RMK AO2 SLP169 T01170072","FM-15","7",,,,,,,,,,,,,,,,,,,,,,,,,,,,"2006-02-03"
"72287493134","2020-02-08T06:52:00","FM-15","7",,,"3.89","mi",,,,,,,"PENDING COOP",,,,,,,,,,,,,,,,,,,,,,,,,,,"30.03","45","52","0.00","HZ:7 |FU |HZ","+0.02","6","77","30.03","CLR:00","29.83","5.00","49","000",,"0",,,,,,,,,,,,,,,,,,,,,,,,,,,,,,,,,,,,,"MET10202/08/20 06:52:02 METAR KCQT 081452Z 00000KT 5SM HZ CLR 11/07 A3003 RMK AO2 SLP168 T01110072 56006 RTX","FM-15","7",,,,,,,,,,,,,,,,,,,,,,,,,,,,"2006-02-03"
"72287493134","2020-02-08T07:52:00","FM-15","7",,,"3.89","mi",,,,,,,"PENDING COOP",,,,,,,,,,,,,,,,,,,,,,,,,,,"30.04","44","53","0.00",,,,"72","30.03","CLR:00","29.84","7.00","49","000",,"0",,,,,,,,,,,,,,,,,,,,,,,,,,,,,,,,,,,,,"MET08902/08/20 07:52:02 METAR KCQT 081552Z 00000KT 7SM CLR 12/07 A3004 RMK AO2 SLP170 T01170067","FM-15","7",,,,,,,,,,,,,,,,,,,,,,,,,,,,"2006-02-03"
"72287493134","2020-02-08T08:52:00","FM-15","7",,,"3.89","mi",,,,,,,"PENDING COOP",,,,,,,,,,,,,,,,,,,,,,,,,,,"30.04","44","56","0.00",,,,"65","30.04","CLR:00","29.84","7.00","50","000",,"0",,,,,,,,,,,,,,,,,,,,,,,,,,,,,,,,,,,,,"MET08902/08/20 08:52:02 METAR KCQT 081652Z 00000KT 7SM CLR 13/07 A3004 RMK AO2 SLP173 T01330067","FM-15","7",,,,,,,,,,,,,,,,,,,,,,,,,,,,"2006-02-03"
"72287493134","2020-02-08T09:52:00","FM-15","7",,,"3.89","mi",,,,,,,"PENDING COOP",,,,,,,,,,,,,,,,,,,,,,,,,,,"30.04","49","63","0.00","HZ:7 |FU |HZ","-0.01","0","60","30.04","CLR:00","29.84","5.00","55","000",,"0",,,,,,,,,,,,,,,,,,,,,,,,,,,,,,,,,,,,,"MET11002/08/20 09:52:02 METAR KCQT 081752Z 00000KT 5SM HZ CLR 17/09 A3004 RMK AO2 SLP172 T01720094 10172 20106 50004","FM-15","7",,,,,,,,,,,,,,,,,,,,,,,,,,,,"2006-02-03"
"72287493134","2020-02-08T10:52:00","FM-15","7",,,"3.89","mi",,,,,,,"PENDING COOP",,,,,,,,,,,,,,,,,,,,,,,,,,,"30.03","46","65","0.00","HZ:7 |FU |HZ",,,"51","30.02","CLR:00","29.83","6.00","55","000",,"0",,,,,,,,,,,,,,,,,,,,,,,,,,,,,,,,,,,,,"MET09202/08/20 10:52:02 METAR KCQT 081852Z 00000KT 6SM HZ CLR 18/08 A3003 RMK AO2 SLP167 T01830078","FM-15","7",,,,,,,,,,,,,,,,,,,,,,,,,,,,"2006-02-03"
"72287493134","2020-02-08T11:52:00","FM-15","7",,,"3.89","mi",,,,,,,"PENDING COOP",,,,,,,,,,,,,,,,,,,,,,,,,,,"29.99","44","69","0.00",,,,"41","29.98","CLR:00","29.79","7.00","56","000",,"0",,,,,,,,,,,,,,,,,,,,,,,,,,,,,,,,,,,,,"MET08902/08/20 11:52:02 METAR KCQT 081952Z 00000KT 7SM CLR 21/07 A2999 RMK AO2 SLP153 T02060067","FM-15","7",,,,,,,,,,,,,,,,,,,,,,,,,,,,"2006-02-03"
"72287493134","2020-02-08T12:52:00","FM-15","7",,,"3.89","mi",,,,,,,"PENDING COOP",,,,,,,,,,,,,,,,,,,,,,,,,,,"29.95","45","70","0.00",,"+0.09","8","41","29.95","CLR:00","29.75","9.00","57","000",,"0",,,,,,,,,,,,,,,,,,,,,,,,,,,,,,,,,,,,,"MET09902/08/20 12:52:02 METAR KCQT 082052Z 00000KT 9SM CLR 21/07 A2995 RMK AO2 SLP141 T02110072 58030 RTX","FM-15","7",,,,,,,,,,,,,,,,,,,,,,,,,,,,"2006-02-03"
"72287493134","2020-02-08T13:52:00","FM-15","7",,,"3.89","mi",,,,,,,"PENDING COOP",,,,,,,,,,,,,,,,,,,,,,,,,,,"29.94","47","69","0.00",,,,"45","29.93","CLR:00","29.74","10.00","57","VRB",,"3",,,,,,,,,,,,,,,,,,,,,,,,,,,,,,,,,,,,,"MET09002/08/20 13:52:02 METAR KCQT 082152Z VRB03KT 10SM CLR 21/08 A2994 RMK AO2 SLP136 T02060083","FM-15","7",,,,,,,,,,,,,,,,,,,,,,,,,,,,"2006-02-03"
"72287493134","2020-02-08T14:52:00","FM-15","7",,,"3.89","mi",,,,,,,"PENDING COOP",,,,,,,,,,,,,,,,,,,,,,,,,,,"29.93","46","66","0.00",,,,"49","29.93","CLR:00","29.73","10.00","55","270",,"7",,,,,,,,,,,,,,,,,,,,,,,,,,,,,,,,,,,,,"MET09002/08/20 14:52:02 METAR KCQT 082252Z 27006KT 10SM CLR 19/08 A2993 RMK AO2 SLP134 T01890078","FM-15","7",,,,,,,,,,,,,,,,,,,,,,,,,,,,"2006-02-03"
"72287493134","2020-02-08T15:52:00","FM-15","7",,,"3.89","mi",,,,,,,"PENDING COOP",,,,,,,,,,,,,,,,,,,,,,,,,,,"29.92","48","65","0.00",,"+0.03","6","54","29.92","CLR:00","29.72","10.00","56","270",,"5",,,,,,,,,,,,,,,,,,,,,,,,,,,,,,,,,,,,,"MET10802/08/20 15:52:02 METAR KCQT 082352Z 27004KT 10SM CLR 18/09 A2992 RMK AO2 SLP131 T01830089 10211 20161 56011","FM-15","7",,,,,,,,,,,,,,,,,,,,,,,,,,,,"2006-02-03"
"72287493134","2020-02-08T16:52:00","FM-15","7",,,"3.89","mi",,,,,,,"PENDING COOP",,,,,,,,,,,,,,,,,,,,,,,,,,,"29.93","48","62","0.00",,,,"60","29.93","CLR:00","29.73","10.00","55","250",,"6",,,,,,,,,,,,,,,,,,,,,,,,,,,,,,,,,,,,,"MET09002/08/20 16:52:01 METAR KCQT 090052Z 25005KT 10SM CLR 17/09 A2993 RMK AO2 SLP135 T01670089","FM-15","7",,,,,,,,,,,,,,,,,,,,,,,,,,,,"2006-02-03"
"72287493134","2020-02-08T17:52:00","FM-15","7",,,"3.89","mi",,,,,,,"PENDING COOP",,,,,,,,,,,,,,,,,,,,,,,,,,,"29.93","49","59","0.00",,,,"69","29.93","CLR:00","29.73","10.00","54","260",,"6",,,,,,,,,,,,,,,,,,,,,,,,,,,,,,,,,,,,,"MET09002/08/20 17:52:01 METAR KCQT 090152Z 26005KT 10SM CLR 15/09 A2993 RMK AO2 SLP134 T01500094","FM-15","7",,,,,,,,,,,,,,,,,,,,,,,,,,,,"2006-02-03"
"72287493134","2020-02-08T18:21:00","FM-16","7",,,"3.89","mi",,,,,,,"PENDING COOP",,,,,,,,,,,,,,,,,,,,,,,,,,,"29.93","49","58",,,,,"72",,"BKN:07 12","29.73","10.00","53","000",,"0",,,,,,,,,,,,,,,,,,,,,,,,,,,,,,,,,,,,,"MET08602/08/20 18:21:01 SPECI KCQT 090221Z 00000KT 10SM BKN012 14/09 A2993 RMK AO2 T01440094","FM-16","7",,,,,,,,,,,,,,,,,,,,,,,,,,,,"2006-02-03"
"72287493134","2020-02-08T18:37:00","FM-16","7",,,"3.89","mi",,,,,,,"PENDING COOP",,,,,,,,,,,,,,,,,,,,,,,,,,,"29.93","49","58",,,,,"72",,"SCT:04 12","29.73","10.00","53","000",,"0",,,,,,,,,,,,,,,,,,,,,,,,,,,,,,,,,,,,,"MET08602/08/20 18:37:01 SPECI KCQT 090237Z 00000KT 10SM SCT012 14/09 A2993 RMK AO2 T01440094","FM-16","7",,,,,,,,,,,,,,,,,,,,,,,,,,,,"2006-02-03"
"72287493134","2020-02-08T18:52:00","FM-15","7",,,"3.89","mi",,,,,,,"PENDING COOP",,,,,,,,,,,,,,,,,,,,,,,,,,,"29.93","49","58","0.00",,"-0.01","1","72","29.93","FEW:02 12","29.73","10.00","53","270",,"3",,,,,,,,,,,,,,,,,,,,,,,,,,,,,,,,,,,,,"MET09902/08/20 18:52:01 METAR KCQT 090252Z 27003KT 10SM FEW012 14/09 A2993 RMK AO2 SLP135 T01440094 51004","FM-15","7",,,,,,,,,,,,,,,,,,,,,,,,,,,,"2006-02-03"
"72287493134","2020-02-08T19:52:00","FM-15","7",,,"3.89","mi",,,,,,,"PENDING COOP",,,,,,,,,,,,,,,,,,,,,,,,,,,"29.93","49","57","0.00",,,,"74","29.93","CLR:00","29.73","10.00","53","000",,"0",,,,,,,,,,,,,,,,,,,,,,,,,,,,,,,,,,,,,"MET09002/08/20 19:52:01 METAR KCQT 090352Z 00000KT 10SM CLR 14/09 A2993 RMK AO2 SLP134 T01390094","FM-15","7",,,,,,,,,,,,,,,,,,,,,,,,,,,,"2006-02-03"
"72287493134","2020-02-08T20:52:00","FM-15","7",,,"3.89","mi",,,,,,,"PENDING COOP",,,,,,,,,,,,,,,,,,,,,,,,,,,"29.93","49","56","0.00",,,,"77","29.93","CLR:00","29.73","9.00","52","000",,"0",,,,,,,,,,,,,,,,,,,,,,,,,,,,,,,,,,,,,"MET08902/08/20 20:52:02 METAR KCQT 090452Z 00000KT 9SM CLR 13/09 A2993 RMK AO2 SLP134 T01330094","FM-15","7",,,,,,,,,,,,,,,,,,,,,,,,,,,,"2006-02-03"
"72287493134","2020-02-08T21:52:00","FM-15","7",,,"3.89","mi",,,,,,,"PENDING COOP",,,,,,,,,,,,,,,,,,,,,,,,,,,"29.93","48","55","0.00",,"-0.00","3","77","29.93","CLR:00","29.73","8.00","51","000",,"0",,,,,,,,,,,,,,,,,,,,,,,,,,,,,,,,,,,,,"MET10702/08/20 21:52:02 METAR KCQT 090552Z 00000KT 8SM CLR 13/09 A2993 RMK AO2 SLP136 T01280089 10183 20128 53001","FM-15","7",,,,,,,,,,,,,,,,,,,,,,,,,,,,"2006-02-03"
"72287493134","2020-02-08T22:52:00","FM-15","7",,,"3.89","mi",,,,,,,"PENDING COOP",,,,,,,,,,,,,,,,,,,,,,,,,,,"29.92","48","55","0.00",,,,"77","29.92","CLR:00","29.72","8.00","51","000",,"0",,,,,,,,,,,,,,,,,,,,,,,,,,,,,,,,,,,,,"MET08902/08/20 22:52:02 METAR KCQT 090652Z 00000KT 8SM CLR 13/09 A2992 RMK AO2 SLP132 T01280089","FM-15","7",,,,,,,,,,,,,,,,,,,,,,,,,,,,"2006-02-03"
"72287493134","2020-02-08T23:23:00","FM-16","7",,,"3.89","mi",,,,,,,"PENDING COOP",,,,,,,,,,,,,,,,,,,,,,,,,,,"29.92","48","55",,,,,"77",,"BKN:07 18","29.72","8.00","51","000",,"0",,,,,,,,,,,,,,,,,,,,,,,,,,,,,,,,,,,,,"MET08502/08/20 23:23:02 SPECI KCQT 090723Z 00000KT 8SM BKN018 13/09 A2992 RMK AO2 T01280089","FM-16","7",,,,,,,,,,,,,,,,,,,,,,,,,,,,"2006-02-03"
"72287493134","2020-02-08T23:52:00","FM-15","7",,,"3.89","mi",,,,,,,"PENDING COOP",,,,,,,,,,,,,,,,,,,,,,,,,,,"29.92","49","57","0.00",,,,"74","29.91","OVC:08 18","29.72","7.00","53","000",,"0",,,,,,,,,,,,,,,,,,,,,,,,,,,,,,,,,,,,,"MET10202/08/20 23:52:02 METAR KCQT 090752Z 00000KT 7SM OVC018 14/09 A2992 RMK AO2 SLP129 T01390094 402110106","FM-15","7",,,,,,,,,,,,,,,,,,,,,,,,,,,,"2006-02-03"
"72287493134","2020-02-08T23:59:00","SOD  ","6",,,"3.89","mi",,,,,,,"PENDING COOP",,,,"47","61","67","29.98","29.78","53","1.2","0","2.4","4","70","51","260","13","0.00",,,"270","8","BR HZ",,,,,,,,,,,,,,,,,,,,,,,,,,,,,,,,,,,,,,,,,,,,,,,,,,,,,,,,"SOD75724 HR PRECIPITATION (IN): 0.00 SNOW DEPTH (IN):0     24 HR SNOWFALL (IN):0.0  WEATHER(CODE):18  24 HR MAX TEMP (F): 7024 HR MIN TEMP (F): 51AVERAGE STATION PRESSURE:29.780 MINIMUM SEA LEVEL PRESSURE:29.91 TIME OF OCCURRENCE:2359 PEAK WIND SPEED (MPH): 13 PEAK WIND DIR (DEG):260 PEAK WIND TIME (LST):      FASTEST 2MIN SPEED (MPH):  8FASTEST 2MIN DIR (DEG):270 FASTEST 2MIN TIME (LST):     AVERAGE WIND SPEED (MPH): 1.2 24 HR AVG TEMP (F): 61DEPART FROM NORMAL:  2  HEATING DEGREE DAYS:  4 COOLING DEGREE DAYS:  0 LATEST DAY MAX TEMP (0700-1900 LST):70  LATEST NIGHT MIN TEMP(1900-0800 LST):51 HOURLY INCREMENTAL PRECIPITATION VALUES (IN):.00 0.00 0.00 0.00 0.00 0.00 0.00 0.00 0.00 0.00 0.00 0.00 0.00 0.00 0.00 0.00 0.00 0.00 0.00 0.00 0.00 0.00 0.00 0.00","SOD  ","6",,,,,,,,,,,,,,,,,,,,,,,,,"0645","1731",,"2006-02-03"
"72287493134","2020-02-09T00:52:00","FM-15","7",,,"3.89","mi",,,,,,,"PENDING COOP",,,,,,,,,,,,,,,,,,,,,,,,,,,"29.91","49","57","0.00",,"+0.03","8","74","29.90","OVC:08 16","29.71","7.00","53","090",,"3",,,,,,,,,,,,,,,,,,,,,,,,,,,,,,,,,,,,,"MET09802/09/20 00:52:02 METAR KCQT 090852Z 09003KT 7SM OVC016 14/09 A2991 RMK AO2 SLP126 T01390094 58009","FM-15","7",,,,,,,,,,,,,,,,,,,,,,,,,,,,"2006-02-03"
"72287493134","2020-02-09T01:52:00","FM-15","7",,,"3.89","mi",,,,,,,"PENDING COOP",,,,,,,,,,,,,,,,,,,,,,,,,,,"29.90","48","58","0.00",,,,"70","29.89","OVC:08 23","29.70","8.00","53","VRB",,"3",,,,,,,,,,,,,,,,,,,,,,,,,,,,,,,,,,,,,"MET09202/09/20 01:52:02 METAR KCQT 090952Z VRB03KT 8SM OVC023 14/09 A2990 RMK AO2 SLP122 T01440089","FM-15","7",,,,,,,,,,,,,,,,,,,,,,,,,,,,"2006-02-03"
"72287493134","2020-02-09T02:52:00","FM-15","7",,,"3.89","mi",,,,,,,"PENDING COOP",,,,,,,,,,,,,,,,,,,,,,,,,,,"29.87","47","58","0.00",,,,"67","29.86","SCT:04 19 OVC:08 26","29.67","8.00","52","100",,"5",,,,,,,,,,,,,,,,,,,,,,,,,,,,,,,,,,,,,"MET09902/09/20 02:52:02 METAR KCQT 091052Z 10004KT 8SM SCT019 OVC026 14/08 A2987 RMK AO2 SLP113 T01440083","FM-15","7",,,,,,,,,,,,,,,,,,,,,,,,,,,,"2006-02-03"
"72287493134","2020-02-09T03:52:00","FM-15","7",,,"3.89","mi",,,,,,,"PENDING COOP",,,,,,,,,,,,,,,,,,,,,,,,,,,"29.84","47","58","0.00",,"+0.06","8","67","29.84","OVC:08 28","29.64","10.00","52","100",,"3",,,,,,,,,,,,,,,,,,,,,,,,,,,,,,,,,,,,,"MET11102/09/20 03:52:02 METAR KCQT 091152Z 10003KT 10SM OVC028 14/08 A2984 RMK AO2 SLP104 T01440083 10144 20128 58021","FM-15","7",,,,,,,,,,,,,,,,,,,,,,,,,,,,"2006-02-03"
"72287493134","2020-02-09T04:15:00","FM-16","7",,,"3.89","mi",,,,,,,"PENDING COOP",,,,,,,,,,,,,,,,,,,,,,,,,,,"29.84","47","58",,,,,"67",,"OVC:08 31","29.64","10.00","52","VRB",,"3",,,,,,,,,,,,,,,,,,,,,,,,,,,,,,,,,,,,,"MET08602/09/20 04:15:02 SPECI KCQT 091215Z VRB03KT 10SM OVC031 14/08 A2984 RMK AO2 T01440083","FM-16","7",,,,,,,,,,,,,,,,,,,,,,,,,,,,"2006-02-03"
"72287493134","2020-02-09T04:34:00","FM-16","7",,,"3.89","mi",,,,,,,"PENDING COOP",,,,,,,,,,,,,,,,,,,,,,,,,,,"29.85","47","58",,,,,"67",,"BKN:07 22 OVC:08 31","29.65","10.00","52","090",,"3",,,,,,,,,,,,,,,,,,,,,,,,,,,,,,,,,,,,,"MET09302/09/20 04:34:02 SPECI KCQT 091234Z 09003KT 10SM BKN022 OVC031 14/08 A2985 RMK AO2 T01440083","FM-16","7",,,,,,,,,,,,,,,,,,,,,,,,,,,,"2006-02-03"
"72287493134","2020-02-09T04:52:00","FM-15","7",,,"3.89","mi",,,,,,,"PENDING COOP",,,,,,,,,,,,,,,,,,,,,,,,,,,"29.85","47","58","0.00",,,,"67","29.85","OVC:08 21","29.65","10.00","52","090",,"3",,,,,,,,,,,,,,,,,,,,,,,,,,,,,,,,,,,,,"MET09302/09/20 04:52:02 METAR KCQT 091252Z 09003KT 10SM OVC021 14/08 A2985 RMK AO2 SLP107 T01440083","FM-15","7",,,,,,,,,,,,,,,,,,,,,,,,,,,,"2006-02-03"
"72287493134","2020-02-09T05:52:00","FM-15","7",,,"3.89","mi",,,,,,,"PENDING COOP",,,,,,,,,,,,,,,,,,,,,,,,,,,"29.85","49","57","T",,,,"74","29.85","BKN:07 19 BKN:07 28 OVC:08 34","29.65","10.00","53","090",,"5",,,,,,,,,,,,,,,,,,,,,,,,,,,,,,,,,,,,,"MET12202/09/20 05:52:02 METAR KCQT 091352Z 09004KT 10SM BKN019 BKN028 OVC034 14/09 A2985 RMK AO2 RAB01E28 SLP108 P0000 T01390094","FM-15","7",,,,,,,,,,,,,,,,,,,,,,,,,,,,"2006-02-03"
"72287493134","2020-02-09T06:52:00","FM-15","7",,,"3.89","mi",,,,,,,"PENDING COOP",,,,,,,,,,,,,,,,,,,,,,,,,,,"29.86","47","58","0.00",,"-0.02","3","67","29.86","OVC:08 21","29.66","10.00","52","100",,"7",,,,,,,,,,,,,,,,,,,,,,,,,,,,,,,,,,,,,"MET10502/09/20 06:52:02 METAR KCQT 091452Z 10006KT 10SM OVC021 14/08 A2986 RMK AO2 SLP112 60000 T01440083 53006","FM-15","7",,,,,,,,,,,,,,,,,,,,,,,,,,,,"2006-02-03"
"72287493134","2020-02-09T07:52:00","FM-15","7",,,"3.89","mi",,,,,,,"PENDING COOP",,,,,,,,,,,,,,,,,,,,,,,,,,,"29.86","47","58","0.00",,,,"67","29.85","BKN:07 20 OVC:08 26","29.66","10.00","52","100",,"6",,,,,,,,,,,,,,,,,,,,,,,,,,,,,,,,,,,,,"MET10002/09/20 07:52:02 METAR KCQT 091552Z 10005KT 10SM BKN020 OVC026 14/08 A2986 RMK AO2 SLP109 T01440083","FM-15","7",,,,,,,,,,,,,,,,,,,,,,,,,,,,"2006-02-03"
"72287493134","2020-02-09T08:05:00","FM-16","7",,,"3.89","mi",,,,,,,"PENDING COOP",,,,,,,,,,,,,,,,,,,,,,,,,,,"29.85","47","58",,,,,"67",,"SCT:04 22 OVC:08 30","29.65","10.00","52","100",,"8",,,,,,,,,,,,,,,,,,,,,,,,,,,,,,,,,,,,,"MET09302/09/20 08:05:02 SPECI KCQT 091605Z 10007KT 10SM SCT022 OVC030 14/08 A2985 RMK AO2 T01440083","FM-16","7",,,,,,,,,,,,,,,,,,,,,,,,,,,,"2006-02-03"
"72287493134","2020-02-09T08:16:00","FM-16","7",,,"3.89","mi",,,,,,,"PENDING COOP",,,,,,,,,,,,,,,,,,,,,,,,,,,"29.85","47","58",,,,,"67",,"BKN:07 27 BKN:07 32 OVC:08 75","29.65","9.00","52","070",,"6",,,,,,,,,,,,,,,,,,,,,,,,,,,,,,,,,,,,,"MET09902/09/20 08:16:02 SPECI KCQT 091616Z 07005KT 9SM BKN027 BKN032 OVC075 14/08 A2985 RMK AO2 T01440083","FM-16","7",,,,,,,,,,,,,,,,,,,,,,,,,,,,"2006-02-03"
"72287493134","2020-02-09T08:29:00","FM-16","7",,,"3.89","mi",,,,,,,"PENDING COOP",,,,,,,,,,,,,,,,,,,,,,,,,,,"29.85","47","58",,,,,"67",,"SCT:04 29 BKN:07 35 BKN:07 75","29.65","7.00","52","100",,"6",,,,,,,,,,,,,,,,,,,,,,,,,,,,,,,,,,,,,"MET09902/09/20 08:29:02 SPECI KCQT 091629Z 10005KT 7SM SCT029 BKN035 BKN075 14/08 A2985 RMK AO2 T01440083","FM-16","7",,,,,,,,,,,,,,,,,,,,,,,,,,,,"2006-02-03"
"72287493134","2020-02-09T08:52:00","FM-15","7",,,"3.89","mi",,,,,,,"PENDING COOP",,,,,,,,,,,,,,,,,,,,,,,,,,,"29.84","47","58","0.00",,,,"67","29.84","FEW:02 80","29.64","7.00","52","100",,"6",,,,,,,,,,,,,,,,,,,,,,,,,,,,,,,,,,,,,"MET09202/09/20 08:52:02 METAR KCQT 091652Z 10005KT 7SM FEW080 14/08 A2984 RMK AO2 SLP105 T01440083","FM-15","7",,,,,,,,,,,,,,,,,,,,,,,,,,,,"2006-02-03"
"72287493134","2020-02-09T09:52:00","FM-15","7",,,"3.89","mi",,,,,,,"PENDING COOP",,,,,,,,,,,,,,,,,,,,,,,,,,,"29.84","47","59","T","-RA:02 |RA |RA","+0.02","6","64","29.83","SCT:04 31 BKN:07 80","29.64","7.00","53","090",,"9",,,,,,,,,,,,,,,,,,,,,,,,,,,,,,,,,,,,,"MET13902/09/20 09:52:02 METAR KCQT 091752Z 09008KT 7SM -RA SCT031 BKN080 15/08 A2984 RMK AO2 RAB45 SLP103 P0000 60000 T01500083 10150 20139 56008","FM-15","7",,,,,,,,,,,,,,,,,,,,,,,,,,,,"2006-02-03"
"72287493134","2020-02-09T10:07:00","FM-16","7",,,"3.89","mi",,,,,,,"PENDING COOP",,,,,,,,,,,,,,,,,,,,,,,,,,,"29.84","47","61","T",,,,"60",,"BKN:07 22 BKN:07 35 OVC:08 75","29.64","10.00","54","VRB",,"7",,,,,,,,,,,,,,,,,,,,,,,,,,,,,,,,,,,,,"MET11202/09/20 10:07:02 SPECI KCQT 091807Z VRB06KT 10SM BKN022 BKN035 OVC075 16/08 A2984 RMK AO2 RAE00 P0000 T01610083","FM-16","7",,,,,,,,,,,,,,,,,,,,,,,,,,,,"2006-02-03"
"72287493134","2020-02-09T10:41:00","FM-16","7",,,"3.89","mi",,,,,,,"PENDING COOP",,,,,,,,,,,,,,,,,,,,,,,,,,,"29.84","48","61","T",,,,"63",,"SCT:04 22 BKN:07 30 BKN:07 95","29.64","10.00","54","VRB",,"6",,,,,,,,,,,,,,,,,,,,,,,,,,,,,,,,,,,,,"MET11202/09/20 10:41:02 SPECI KCQT 091841Z VRB05KT 10SM SCT022 BKN030 BKN095 16/09 A2984 RMK AO2 RAE00 P0000 T01610089","FM-16","7",,,,,,,,,,,,,,,,,,,,,,,,,,,,"2006-02-03"
"72287493134","2020-02-09T10:44:00","FM-16","7",,,"3.89","mi",,,,,,,"PENDING COOP",,,,,,,,,,,,,,,,,,,,,,,,,,,"29.84","48","61","T",,,,"63",,"SCT:04 18 BKN:07 23 BKN:07 31","29.64","10.00","54","VRB",,"6",,,,,,,,,,,,,,,,,,,,,,,,,,,,,,,,,,,,,"MET11202/09/20 10:44:02 SPECI KCQT 091844Z VRB05KT 10SM SCT018 BKN023 BKN031 16/09 A2984 RMK AO2 RAE00 P0000 T01610089","FM-16","7",,,,,,,,,,,,,,,,,,,,,,,,,,,,"2006-02-03"
"72287493134","2020-02-09T10:52:00","FM-15","7",,,"3.89","mi",,,,,,,"PENDING COOP",,,,,,,,,,,,,,,,,,,,,,,,,,,"29.84","48","61","T",,,,"63","29.84","SCT:04 18 BKN:07 25 BKN:07 36","29.64","10.00","54","VRB",,"5",,,,,,,,,,,,,,,,,,,,,,,,,,,,,,,,,,,,,"MET11902/09/20 10:52:02 METAR KCQT 091852Z VRB04KT 10SM SCT018 BKN025 BKN036 16/09 A2984 RMK AO2 RAE00 SLP104 P0000 T01610089","FM-15","7",,,,,,,,,,,,,,,,,,,,,,,,,,,,"2006-02-03"
"72287493134","2020-02-09T11:13:00","FM-16","7",,,"3.89","mi",,,,,,,"PENDING COOP",,,,,,,,,,,,,,,,,,,,,,,,,,,"29.84","48","59",,,,,"67",,"SCT:04 19 BKN:07 35 BKN:07 43","29.64","10.00","53","VRB",,"6",,,,,,,,,,,,,,,,,,,,,,,,,,,,,,,,,,,,,"MET10002/09/20 11:13:02 SPECI KCQT 091913Z VRB05KT 10SM SCT019 BKN035 BKN043 15/09 A2984 RMK AO2 T01500089","FM-16","7",,,,,,,,,,,,,,,,,,,,,,,,,,,,"2006-02-03"
"72287493134","2020-02-09T11:52:00","FM-15","7",,,"3.89","mi",,,,,,,"PENDING COOP",,,,,,,,,,,,,,,,,,,,,,,,,,,"29.82","49","60","T",,,,"67","29.82","FEW:02 18 BKN:07 55 OVC:08 70","29.62","10.00","54","VRB",,"7",,,,,,,,,,,,,,,,,,,,,,,,,,,,,,,,,,,,,"MET12202/09/20 11:52:02 METAR KCQT 091952Z VRB06KT 10SM FEW018 BKN055 OVC070 16/09 A2982 RMK AO2 RAB26E42 SLP098 P0000 T01560094","FM-15","7",,,,,,,,,,,,,,,,,,,,,,,,,,,,"2006-02-03"
"72287493134","2020-02-09T12:52:00","FM-15","7",,,"3.89","mi",,,,,,,"PENDING COOP",,,,,,,,,,,,,,,,,,,,,,,,,,,"29.80","48","60","0.00",,"+0.04","8","65","29.80","FEW:02 14 BKN:07 42 BKN:07 100","29.60","10.00","54","000",,"0",,,,,,,,,,,,,,,,,,,,,,,,,,,,,,,,,,,,,"MET11902/09/20 12:52:02 METAR KCQT 092052Z 00000KT 10SM FEW014 BKN042 BKN100 16/09 A2980 RMK AO2 SLP090 60000 T01560089 58014","FM-15","7",,,,,,,,,,,,,,,,,,,,,,,,,,,,"2006-02-03"
"72287493134","2020-02-09T13:26:00","FM-16","7",,,"3.89","mi",,,,,,,"PENDING COOP",,,,,,,,,,,,,,,,,,,,,,,,,,,"29.79","47","60",,,,,"62",,"SCT:04 21 BKN:07 29 OVC:08 55","29.59","10.00","53","VRB",,"5",,,,,,,,,,,,,,,,,,,,,,,,,,,,,,,,,,,,,"MET10002/09/20 13:26:02 SPECI KCQT 092126Z VRB04KT 10SM SCT021 BKN029 OVC055 16/08 A2979 RMK AO2 T01560083","FM-16","7",,,,,,,,,,,,,,,,,,,,,,,,,,,,"2006-02-03"
"72287493134","2020-02-09T13:50:00","FM-16","6",,,"3.89","mi",,,,,,,"PENDING COOP",,,,,,,,,,,,,,,,,,,,,,,,,,,"29.79","46","61",,,,,"59",,"SCT:04 21 BKN:07 33 OVC:08 43","29.59","10.00","53","000",,"0",,,,,,,,,,,,,,,,,,,,,,,,,,,,,,,,,,,,,"MET09502/09/20 13:50:02 SPECI KCQT 092150Z 00000KT 10SM SCT021 BKN033 OVC043 16/08 A2979 RMK AO2 FIBI","FM-16","6",,,,,,,,,,,,,,,,,,,,,,,,,,,,"2006-02-03"
"72287493134","2020-02-09T13:52:00","FM-15","7",,,"3.89","mi",,,,,,,"PENDING COOP",,,,,,,,,,,,,,,,,,,,,,,,,,,"29.79","47","60","0.00",,,,"62","29.79","SCT:04 21 BKN:07 33 OVC:08 43","29.59","10.00","53","000",,"0",,,,,,,,,,,,,,,,,,,,,,,,,,,,,,,,,,,,,"MET10702/09/20 13:52:02 METAR KCQT 092152Z 00000KT 10SM SCT021 BKN033 OVC043 16/08 A2979 RMK AO2 SLP087 T01560083","FM-15","7",,,,,,,,,,,,,,,,,,,,,,,,,,,,"2006-02-03"
"72287493134","2020-02-09T14:52:00","FM-15","7",,,"3.89","mi",,,,,,,"PENDING COOP",,,,,,,,,,,,,,,,,,,,,,,,,,,"29.77","47","60","0.00",,,,"62","29.77","FEW:02 25 SCT:04 39 OVC:08 85","29.57","10.00","53","000",,"0",,,,,,,,,,,,,,,,,,,,,,,,,,,,,,,,,,,,,"MET10702/09/20 14:52:02 METAR KCQT 092252Z 00000KT 10SM FEW025 SCT039 OVC085 16/08 A2977 RMK AO2 SLP080 T01560083","FM-15","7",,,,,,,,,,,,,,,,,,,,,,,,,,,,"2006-02-03"
"72287493134","2020-02-09T15:52:00","FM-15","7",,,"3.89","mi",,,,,,,"PENDING COOP",,,,,,,,,,,,,,,,,,,,,,,,,,,"29.78","44","59","0.00",,"+0.02","5","58","29.78","OVC:08 100","29.58","10.00","51","VRB",,"3",,,,,,,,,,,,,,,,,,,,,,,,,,,,,,,,,,,,,"MET11702/09/20 15:52:02 METAR KCQT 092352Z VRB03KT 10SM OVC100 15/07 A2978 RMK AO2 SLP083 60000 T01500067 10172 20144 55006","FM-15","7",,,,,,,,,,,,,,,,,,,,,,,,,,,,"2006-02-03"
"72287493134","2020-02-09T16:52:00","FM-15","7",,,"3.89","mi",,,,,,,"PENDING COOP",,,,,,,,,,,,,,,,,,,,,,,,,,,"29.78","43","59","0.00",,,,"56","29.78","OVC:08 100","29.58","10.00","51","120",,"3",,,,,,,,,,,,,,,,,,,,,,,,,,,,,,,,,,,,,"MET09302/09/20 16:52:01 METAR KCQT 100052Z 12003KT 10SM OVC100 15/06 A2978 RMK AO2 SLP084 T01500061","FM-15","7",,,,,,,,,,,,,,,,,,,,,,,,,,,,"2006-02-03"
"72287493134","2020-02-09T17:52:00","FM-15","7",,,"3.89","mi",,,,,,,"PENDING COOP",,,,,,,,,,,,,,,,,,,,,,,,,,,"29.79","43","59","0.00",,,,"56","29.79","OVC:08 100","29.59","10.00","51","000",,"0",,,,,,,,,,,,,,,,,,,,,,,,,,,,,,,,,,,,,"MET09302/09/20 17:52:01 METAR KCQT 100152Z 00000KT 10SM OVC100 15/06 A2979 RMK AO2 SLP087 T01500061","FM-15","7",,,,,,,,,,,,,,,,,,,,,,,,,,,,"2006-02-03"
"72287493134","2020-02-09T18:52:00","FM-15","7",,,"3.89","mi",,,,,,,"PENDING COOP",,,,,,,,,,,,,,,,,,,,,,,,,,,"29.81","42","58","0.00",,"-0.03","3","56","29.80","OVC:08 100","29.61","10.00","50","000",,"0",,,,,,,,,,,,,,,,,,,,,,,,,,,,,,,,,,,,,"MET09902/09/20 18:52:01 METAR KCQT 100252Z 00000KT 10SM OVC100 14/06 A2981 RMK AO2 SLP093 T01440056 53010","FM-15","7",,,,,,,,,,,,,,,,,,,,,,,,,,,,"2006-02-03"
"72287493134","2020-02-09T19:52:00","FM-15","7",,,"3.89","mi",,,,,,,"PENDING COOP",,,,,,,,,,,,,,,,,,,,,,,,,,,"29.81","43","58","0.00",,,,"58","29.81","FEW:02 80 BKN:07 100 BKN:07 120","29.61","10.00","50","000",,"0",,,,,,,,,,,,,,,,,,,,,,,,,,,,,,,,,,,,,"MET10702/09/20 19:52:01 METAR KCQT 100352Z 00000KT 10SM FEW080 BKN100 BKN120 14/06 A2981 RMK AO2 SLP094 T01440061","FM-15","7",,,,,,,,,,,,,,,,,,,,,,,,,,,,"2006-02-03"
"72287493134","2020-02-09T20:52:00","FM-15","7",,,"3.89","mi",,,,,,,"PENDING COOP",,,,,,,,,,,,,,,,,,,,,,,,,,,"29.82","43","57","0.00",,,,"60","29.81","FEW:02 65 SCT:04 75 OVC:08 100","29.62","10.00","50","000",,"0",,,,,,,,,,,,,,,,,,,,,,,,,,,,,,,,,,,,,"MET10702/09/20 20:52:02 METAR KCQT 100452Z 00000KT 10SM FEW065 SCT075 OVC100 14/06 A2982 RMK AO2 SLP096 T01390061","FM-15","7",,,,,,,,,,,,,,,,,,,,,,,,,,,,"2006-02-03"
"72287493134","2020-02-09T21:52:00","FM-15","7",,,"3.89","mi",,,,,,,"PENDING COOP",,,,,,,,,,,,,,,,,,,,,,,,,,,"29.81","45","56","0.00",,"-0.01","0","67","29.81","OVC:08 110","29.61","10.00","50","000",,"0",,,,,,,,,,,,,,,,,,,,,,,,,,,,,,,,,,,,,"MET11102/09/20 21:52:02 METAR KCQT 100552Z 00000KT 10SM OVC110 13/07 A2981 RMK AO2 SLP095 T01330072 10150 20133 50002","FM-15","7",,,,,,,,,,,,,,,,,,,,,,,,,,,,"2006-02-03"
"72287493134","2020-02-09T22:52:00","FM-15","7",,,"3.89","mi",,,,,,,"PENDING COOP",,,,,,,,,,,,,,,,,,,,,,,,,,,"29.81","44","56","0.00",,,,"65","29.80","BKN:07 110","29.61","10.00","50","000",,"0",,,,,,,,,,,,,,,,,,,,,,,,,,,,,,,,,,,,,"MET09302/09/20 22:52:02 METAR KCQT 100652Z 00000KT 10SM BKN110 13/07 A2981 RMK AO2 SLP093 T01330067","FM-15","7",,,,,,,,,,,,,,,,,,,,,,,,,,,,"2006-02-03"
"72287493134","2020-02-09T23:52:00","FM-15","7",,,"3.89","mi",,,,,,,"PENDING COOP",,,,,,,,,,,,,,,,,,,,,,,,,,,"29.81","44","54","0.00",,,,"69","29.80","BKN:07 110","29.61","10.00","49","000",,"0",,,,,,,,,,,,,,,,,,,,,,,,,,,,,,,,,,,,,"MET10302/09/20 23:52:02 METAR KCQT 100752Z 00000KT 10SM BKN110 12/07 A2981 RMK AO2 SLP092 T01220067 401720122","FM-15","7",,,,,,,,,,,,,,,,,,,,,,,,,,,,"2006-02-03"
"72287493134","2020-02-09T23:59:00","SOD  ","6",,,"3.89","mi",,,,,,,"PENDING COOP",,,,"46","59","64","29.82","29.62","52","2.9","0","0.4","6","63","54","090","17","T",,,"100","10","RA",,,,,,,,,,,,,,,,,,,,,,,,,,,,,,,,,,,,,,,,,,,,,,,,,,,,,,,,"SOD75624 HR PRECIPITATION (IN):    T SNOW DEPTH (IN):0     24 HR SNOWFALL (IN):0.0  WEATHER(CODE):8  24 HR MAX TEMP (F): 6324 HR MIN TEMP (F): 54AVERAGE STATION PRESSURE:29.615 MINIMUM SEA LEVEL PRESSURE:29.77 TIME OF OCCURRENCE:1604 PEAK WIND SPEED (MPH): 17 PEAK WIND DIR (DEG): 90 PEAK WIND TIME (LST):      FASTEST 2MIN SPEED (MPH): 10FASTEST 2MIN DIR (DEG):100 FASTEST 2MIN TIME (LST):     AVERAGE WIND SPEED (MPH): 2.9 24 HR AVG TEMP (F): 59DEPART FROM NORMAL:  0  HEATING DEGREE DAYS:  6 COOLING DEGREE DAYS:  0 LATEST DAY MAX TEMP (0700-1900 LST):63  LATEST NIGHT MIN TEMP(1900-0800 LST):55 HOURLY INCREMENTAL PRECIPITATION VALUES (IN):.00 0.00 0.00 0.00 0.00 T    0.00 0.00 0.00 T    T    T    0.00 0.00 0.00 0.00 0.00 0.00 0.00 0.00 0.00 0.00 0.00 0.00","SOD  ","6",,,,,,,,,,,,,,,,,,,,,,,,,"0644","1731",,"2006-02-03"
"72287493134","2020-02-10T00:52:00","FM-15","7",,,"3.89","mi",,,,,,,"PENDING COOP",,,,,,,,,,,,,,,,,,,,,,,,,,,"29.80","41","54","0.00",,"+0.01","8","62","29.80","FEW:02 100","29.60","10.00","48","000",,"0",,,,,,,,,,,,,,,,,,,,,,,,,,,,,,,,,,,,,"MET09902/10/20 00:52:02 METAR KCQT 100852Z 00000KT 10SM FEW100 12/05 A2980 RMK AO2 SLP090 T01220050 58005","FM-15","7",,,,,,,,,,,,,,,,,,,,,,,,,,,,"2006-02-03"
"72287493134","2020-02-10T01:52:00","FM-15","7",,,"3.89","mi",,,,,,,"PENDING COOP",,,,,,,,,,,,,,,,,,,,,,,,,,,"29.80","40","52","0.00",,,,"64","29.80","FEW:02 100","29.60","10.00","46","000",,"0",,,,,,,,,,,,,,,,,,,,,,,,,,,,,,,,,,,,,"MET09302/10/20 01:52:02 METAR KCQT 100952Z 00000KT 10SM FEW100 11/04 A2980 RMK AO2 SLP091 T01110044","FM-15","7",,,,,,,,,,,,,,,,,,,,,,,,,,,,"2006-02-03"
"72287493134","2020-02-10T02:52:00","FM-15","7",,,"3.89","mi",,,,,,,"PENDING COOP",,,,,,,,,,,,,,,,,,,,,,,,,,,"29.80","41","53","0.00",,,,"64","29.80","BKN:07 110","29.60","10.00","47","000",,"0",,,,,,,,,,,,,,,,,,,,,,,,,,,,,,,,,,,,,"MET09302/10/20 02:52:02 METAR KCQT 101052Z 00000KT 10SM BKN110 12/05 A2980 RMK AO2 SLP091 T01170050","FM-15","7",,,,,,,,,,,,,,,,,,,,,,,,,,,,"2006-02-03"
"72287493134","2020-02-10T03:52:00","FM-15","7",,,"3.89","mi",,,,,,,"PENDING COOP",,,,,,,,,,,,,,,,,,,,,,,,,,,"29.80","38","54","0.00",,"+0.00","8","55","29.79","BKN:07 120","29.60","10.00","46","VRB",,"3",,,,,,,,,,,,,,,,,,,,,,,,,,,,,,,,,,,,,"MET11102/10/20 03:52:02 METAR KCQT 101152Z VRB03KT 10SM BKN120 12/03 A2980 RMK AO2 SLP089 T01220033 10133 20111 58001","FM-15","7",,,,,,,,,,,,,,,,,,,,,,,,,,,,"2006-02-03"
"72287493134","2020-02-10T04:52:00","FM-15","7",,,"3.89","mi",,,,,,,"PENDING COOP",,,,,,,,,,,,,,,,,,,,,,,,,,,"29.81","29","60","0.00",,,,"31","29.81","OVC:08 110","29.61","10.00","46","VRB",,"5",,,,,,,,,,,,,,,,,,,,,,,,,,,,,,,,,,,,,"MET09402/10/20 04:52:02 METAR KCQT 101252Z VRB04KT 10SM OVC110 16/M02 A2981 RMK AO2 SLP094 T01561017","FM-15","7",,,,,,,,,,,,,,,,,,,,,,,,,,,,"2006-02-03"
"72287493134","2020-02-10T05:52:00","FM-15","7",,,"3.89","mi",,,,,,,"PENDING COOP",,,,,,,,,,,,,,,,,,,,,,,,,,,"29.81","39","56","0.00",,,,"53","29.81","SCT:04 80 BKN:07 90 OVC:08 110","29.61","10.00","48","000",,"0",,,,,,,,,,,,,,,,,,,,,,,,,,,,,,,,,,,,,"MET11102/10/20 05:52:02 METAR KCQT 101352Z 00000KT 10SM SCT080 BKN090 OVC110 13/04 A2981 RMK AO2 SLP094 T01330039 RTX","FM-15","7",,,,,,,,,,,,,,,,,,,,,,,,,,,,"2006-02-03"
"72287493134","2020-02-10T06:52:00","FM-15","7",,,"3.89","mi",,,,,,,"PENDING COOP",,,,,,,,,,,,,,,,,,,,,,,,,,,"29.82",,"61","0.00",,"-0.02","1",,"29.82","CLR:00","29.62","10.00",,"VRB",,"7",,,,,,,,,,,,,,,,,,,,,,,,,,,,,,,,,,,,,"MET09702/10/20 06:52:02 METAR KCQT 101452Z VRB06KT 10SM CLR 16/M04 A2982 RMK AO2 SLP097 T01611044 51007","FM-15","7",,,,,,,,,,,,,,,,,,,,,,,,,,,,"2006-02-03"
"72287493134","2020-02-10T07:52:00","FM-15","7",,,"3.89","mi",,,,,,,"PENDING COOP",,,,,,,,,,,,,,,,,,,,,,,,,,,"29.83","33","59","0.00",,,,"38","29.83","CLR:00","29.63","10.00","47","110",,"5",,,,,,,,,,,,,,,,,,,,,,,,,,,,,,,,,,,,,"MET09002/10/20 07:52:02 METAR KCQT 101552Z 11004KT 10SM CLR 15/01 A2983 RMK AO2 SLP101 T01500006","FM-15","7",,,,,,,,,,,,,,,,,,,,,,,,,,,,"2006-02-03"
"72287493134","2020-02-10T08:52:00","FM-15","7",,,"3.89","mi",,,,,,,"PENDING COOP",,,,,,,,,,,,,,,,,,,,,,,,,,,"29.84","44","61","0.00",,,,"54","29.84","CLR:00","29.64","10.00","52","000",,"0",,,,,,,,,,,,,,,,,,,,,,,,,,,,,,,,,,,,,"MET09002/10/20 08:52:02 METAR KCQT 101652Z 00000KT 10SM CLR 16/07 A2984 RMK AO2 SLP104 T01610067","FM-15","7",,,,,,,,,,,,,,,,,,,,,,,,,,,,"2006-02-03"
"72287493134","2020-02-10T09:52:00","FM-15","7",,,"3.89","mi",,,,,,,"PENDING COOP",,,,,,,,,,,,,,,,,,,,,,,,,,,"29.86","36","67","0.00",,"-0.04","3","32","29.85","CLR:00","29.66","10.00","52","090",,"3",,,,,,,,,,,,,,,,,,,,,,,,,,,,,,,,,,,,,"MET10802/10/20 09:52:02 METAR KCQT 101752Z 09003KT 10SM CLR 19/02 A2986 RMK AO2 SLP109 T01940022 10194 20128 53013","FM-15","7",,,,,,,,,,,,,,,,,,,,,,,,,,,,"2006-02-03"
"72287493134","2020-02-10T10:52:00","FM-15","7",,,"3.89","mi",,,,,,,"PENDING COOP",,,,,,,,,,,,,,,,,,,,,,,,,,,"29.85","28","70","0.00",,,,"21","29.85","CLR:00","29.65","10.00","50","VRB",,"3",,,,,,,,,,,,,,,,,,,,,,,,,,,,,,,,,,,,,"MET09902/10/20 10:52:02 METAR KCQT 101852Z VRB03KT 10SM CLR 21/M02 A2985 RMK AO2 SLP108 T02111022 PWINO $","FM-15","7",,,,,,,,,,,,,,,,,,,,,,,,,,,,"2006-02-03"
"72287493134","2020-02-10T11:09:00","FM-16","7",,,"3.89","mi",,,,,,,"PENDING COOP",,,,,,,,,,,,,,,,,,,,,,,,,,,"29.85","28","71",,"HZ:7 |FU |HZ",,,"20",,"CLR:00","29.65","1.75","51","000",,"0",,,,,,,,,,,,,,,,,,,,,,,,,,,,,,,,,,,,,"MET09002/10/20 11:09:02 SPECI KCQT 101909Z 00000KT 1 3/4SM HZ CLR 22/M02 A2985 RMK AO2 T02171022","FM-16","7",,,,,,,,,,,,,,,,,,,,,,,,,,,,"2006-02-03"
"72287493134","2020-02-10T11:20:00","FM-16","7",,,"3.89","mi",,,,,,,"PENDING COOP",,,,,,,,,,,,,,,,,,,,,,,,,,,"29.85","28","72",,,,,"19",,"CLR:00","29.65","9.00","51","000",,"0",,,,,,,,,,,,,,,,,,,,,,,,,,,,,,,,,,,,,"MET08302/10/20 11:20:02 SPECI KCQT 101920Z 00000KT 9SM CLR 22/M02 A2985 RMK AO2 T02221022","FM-16","7",,,,,,,,,,,,,,,,,,,,,,,,,,,,"2006-02-03"
"72287493134","2020-02-10T11:52:00","FM-15","7",,,"3.89","mi",,,,,,,"PENDING COOP",,,,,,,,,,,,,,,,,,,,,,,,,,,"29.84","30","71","0.00",,,,"22","29.83","CLR:00","29.64","10.00","51","000",,"0",,,,,,,,,,,,,,,,,,,,,,,,,,,,,,,,,,,,,"MET09102/10/20 11:52:02 METAR KCQT 101952Z 00000KT 10SM CLR 22/M01 A2984 RMK AO2 SLP102 T02171011","FM-15","7",,,,,,,,,,,,,,,,,,,,,,,,,,,,"2006-02-03"
"72287493134","2020-02-10T12:52:00","FM-15","7",,,"3.89","mi",,,,,,,"PENDING COOP",,,,,,,,,,,,,,,,,,,,,,,,,,,"29.83","31","72","0.00",,"+0.03","8","22","29.82","CLR:00","29.63","10.00","52","000",,"0",,,,,,,,,,,,,,,,,,,,,,,,,,,,,,,,,,,,,"MET09702/10/20 12:52:02 METAR KCQT 102052Z 00000KT 10SM CLR 22/M01 A2983 RMK AO2 SLP098 T02221006 58011","FM-15","7",,,,,,,,,,,,,,,,,,,,,,,,,,,,"2006-02-03"
"72287493134","2020-02-10T13:52:00","FM-15","7",,,"3.89","mi",,,,,,,"PENDING COOP",,,,,,,,,,,,,,,,,,,,,,,,,,,"29.82","37","72","0.00",,,,"28","29.82","CLR:00","29.62","10.00","54","000",,"0",,,,,,,,,,,,,,,,,,,,,,,,,,,,,,,,,,,,,"MET09002/10/20 13:52:02 METAR KCQT 102152Z 00000KT 10SM CLR 22/03 A2982 RMK AO2 SLP097 T02220028","FM-15","7",,,,,,,,,,,,,,,,,,,,,,,,,,,,"2006-02-03"
"72287493134","2020-02-10T14:52:00","FM-15","7",,,"3.89","mi",,,,,,,"PENDING COOP",,,,,,,,,,,,,,,,,,,,,,,,,,,"29.81","35","73","0.00",,,,"25","29.81","CLR:00","29.61","10.00","54","VRB",,"3",,,,,,,,,,,,,,,,,,,,,,,,,,,,,,,,,,,,,"MET09002/10/20 14:52:02 METAR KCQT 102252Z VRB03KT 10SM CLR 23/02 A2981 RMK AO2 SLP094 T02280017","FM-15","7",,,,,,,,,,,,,,,,,,,,,,,,,,,,"2006-02-03"
"72287493134","2020-02-10T15:52:00","FM-15","7",,,"3.89","mi",,,,,,,"PENDING COOP",,,,,,,,,,,,,,,,,,,,,,,,,,,"29.81","30","74","0.00",,"+0.01","6","20","29.81","CLR:00","29.61","10.00","53","VRB",,"7",,,,,,,,,,,,,,,,,,,,,,,,,,,,,,,,,,,,,"MET10902/10/20 15:52:02 METAR KCQT 102352Z VRB06KT 10SM CLR 23/M01 A2981 RMK AO2 SLP094 T02331011 10233 20194 56004","FM-15","7",,,,,,,,,,,,,,,,,,,,,,,,,,,,"2006-02-03"
"72287493134","2020-02-10T16:52:00","FM-15","7",,,"3.89","mi",,,,,,,"PENDING COOP",,,,,,,,,,,,,,,,,,,,,,,,,,,"29.83","24","75","0.00",,,,"15","29.82","CLR:00","29.63","10.00","52","010",,"9",,,,,,,,,,,,,,,,,,,,,,,,,,,,,,,,,,,,,"MET09102/10/20 16:52:01 METAR KCQT 110052Z 01008KT 10SM CLR 24/M04 A2983 RMK AO2 SLP099 T02391044","FM-15","7",,,,,,,,,,,,,,,,,,,,,,,,,,,,"2006-02-03"
"72287493134","2020-02-10T17:52:00","FM-15","7",,,"3.89","mi",,,,,,,"PENDING COOP",,,,,,,,,,,,,,,,,,,,,,,,,,,"29.84","25","74","0.00",,,,"16","29.84","CLR:00","29.64","10.00","51","030",,"5",,,,,,,,,,,,,,,,,,,,,,,,,,,,,,,,,,,,,"MET09102/10/20 17:52:01 METAR KCQT 110152Z 03004KT 10SM CLR 23/M04 A2984 RMK AO2 SLP104 T02331039","FM-15","7",,,,,,,,,,,,,,,,,,,,,,,,,,,,"2006-02-03"
"72287493134","2020-02-10T18:52:00","FM-15","7",,,"3.89","mi",,,,,,,"PENDING COOP",,,,,,,,,,,,,,,,,,,,,,,,,,,"29.85","23","73","0.00",,"-0.04","1","15","29.85","CLR:00","29.65","10.00","50","VRB",,"6",,,,,,,,,,,,,,,,,,,,,,,,,,,,,,,,,,,,,"MET09702/10/20 18:52:01 METAR KCQT 110252Z VRB05KT 10SM CLR 23/M05 A2985 RMK AO2 SLP108 T02281050 51014","FM-15","7",,,,,,,,,,,,,,,,,,,,,,,,,,,,"2006-02-03"
"72287493134","2020-02-10T19:52:00","FM-15","7",,,"3.89","mi",,,,,,,"PENDING COOP",,,,,,,,,,,,,,,,,,,,,,,,,,,"29.87","26","69","0.00",,,,"20","29.86","CLR:00","29.67","10.00","49","000",,"0",,,,,,,,,,,,,,,,,,,,,,,,,,,,,,,,,,,,,"MET09102/10/20 19:52:01 METAR KCQT 110352Z 00000KT 10SM CLR 21/M03 A2987 RMK AO2 SLP112 T02061033","FM-15","7",,,,,,,,,,,,,,,,,,,,,,,,,,,,"2006-02-03"
"72287493134","2020-02-10T20:52:00","FM-15","7",,,"3.89","mi",,,,,,,"PENDING COOP",,,,,,,,,,,,,,,,,,,,,,,,,,,"29.87","28","66","0.00",,,,"24","29.86","CLR:00","29.67","10.00","49","000",,"0",,,,,,,,,,,,,,,,,,,,,,,,,,,,,,,,,,,,,"MET09102/10/20 20:52:01 METAR KCQT 110452Z 00000KT 10SM CLR 19/M02 A2987 RMK AO2 SLP112 T01891022","FM-15","7",,,,,,,,,,,,,,,,,,,,,,,,,,,,"2006-02-03"
"72287493134","2020-02-10T21:52:00","FM-15","7",,,"3.89","mi",,,,,,,"PENDING COOP",,,,,,,,,,,,,,,,,,,,,,,,,,,"29.89","25","63","0.00",,"-0.03","3","24","29.88","CLR:00","29.69","10.00","46","000",,"0",,,,,,,,,,,,,,,,,,,,,,,,,,,,,,,,,,,,,"MET10902/10/20 21:52:01 METAR KCQT 110552Z 00000KT 10SM CLR 17/M04 A2989 RMK AO2 SLP119 T01721039 10244 20172 53011","FM-15","7",,,,,,,,,,,,,,,,,,,,,,,,,,,,"2006-02-03"
"72287493134","2020-02-10T22:52:00","FM-15","7",,,"3.89","mi",,,,,,,"PENDING COOP",,,,,,,,,,,,,,,,,,,,,,,,,,,"29.89","30","60","0.00",,,,"32","29.89","CLR:00","29.69","10.00","46","000",,"0",,,,,,,,,,,,,,,,,,,,,,,,,,,,,,,,,,,,,"MET09102/10/20 22:52:01 METAR KCQT 110652Z 00000KT 10SM CLR 16/M01 A2989 RMK AO2 SLP121 T01561011","FM-15","7",,,,,,,,,,,,,,,,,,,,,,,,,,,,"2006-02-03"
"72287493134","2020-02-10T23:52:00","FM-15","7",,,"3.89","mi",,,,,,,"PENDING COOP",,,,,,,,,,,,,,,,,,,,,,,,,,,"29.90","37","58","0.00",,,,"46","29.90","CLR:00","29.70","10.00","48","000",,"0",,,,,,,,,,,,,,,,,,,,,,,,,,,,,,,,,,,,,"MET10002/10/20 23:52:01 METAR KCQT 110752Z 00000KT 10SM CLR 14/03 A2990 RMK AO2 SLP125 T01440028 402440111","FM-15","7",,,,,,,,,,,,,,,,,,,,,,,,,,,,"2006-02-03"
"72287493134","2020-02-10T23:59:00","SOD  ","6",,,"3.89","mi",,,,,,,"PENDING COOP",,,,"32","64","32","29.83","29.64","49","2.3","0","5.3","1","76","52","350","22","0.00",,,"360","12","HZ",,,,,,,,,,,,,,,,,,,,,,,,,,,,,,,,,,,,,,,,,,,,,,,,,,,,,,,,"SOD76024 HR PRECIPITATION (IN): 0.00 SNOW DEPTH (IN):0     24 HR SNOWFALL (IN):0.0  WEATHER(CODE):8  24 HR MAX TEMP (F): 7624 HR MIN TEMP (F): 52AVERAGE STATION PRESSURE(D):29.640 MINIMUM SEA LEVEL PRESSURE:29.79 TIME OF OCCURRENCE:0414 PEAK WIND SPEED (MPH): 22 PEAK WIND DIR (DEG):350 PEAK WIND TIME (LST):      FASTEST 2MIN SPEED (MPH): 12FASTEST 2MIN DIR (DEG):360 FASTEST 2MIN TIME (LST):     AVERAGE WIND SPEED (MPH): 2.3 24 HR AVG TEMP (F): 64DEPART FROM NORMAL:  5  HEATING DEGREE DAYS:  1 COOLING DEGREE DAYS:  0 LATEST DAY MAX TEMP (0700-1900 LST): 76 LATEST NIGHT MIN TEMP(1900-0800 LST):52 HOURLY INCREMENTAL PRECIPITATION VALUES (IN):0.00 0.00 0.00 0.00 0.00 0.00 0.00 0.00 0.00 0.00 0.00 0.00 0.00 0.00 0.00 0.00 0.00 0.00 0.00 0.00 0.00 0.00 0.00 0.00","SOD  ","6",,,,,,,,,,,,,,,,,,,,,,,,,"0643","1732",,"2006-02-03"
"72287493134","2020-02-11T00:52:00","FM-15","7",,,"3.89","mi",,,,,,,"PENDING COOP",,,,,,,,,,,,,,,,,,,,,,,,,,,"29.90","37","56","0.00",,"-0.01","0","49","29.90","CLR:00","29.70","10.00","47","000",,"0",,,,,,,,,,,,,,,,,,,,,,,,,,,,,,,,,,,,,"MET09602/11/20 00:52:02 METAR KCQT 110852Z 00000KT 10SM CLR 13/03 A2990 RMK AO2 SLP124 T01330028 50005","FM-15","7",,,,,,,,,,,,,,,,,,,,,,,,,,,,"2006-02-03"
"72287493134","2020-02-11T01:52:00","FM-15","7",,,"3.89","mi",,,,,,,"PENDING COOP",,,,,,,,,,,,,,,,,,,,,,,,,,,"29.91","39","57","0.00",,,,"51","29.90","CLR:00","29.71","10.00","48","000",,"0",,,,,,,,,,,,,,,,,,,,,,,,,,,,,,,,,,,,,"MET09002/11/20 01:52:02 METAR KCQT 110952Z 00000KT 10SM CLR 14/04 A2991 RMK AO2 SLP125 T01390039","FM-15","7",,,,,,,,,,,,,,,,,,,,,,,,,,,,"2006-02-03"
"72287493134","2020-02-11T02:52:00","FM-15","7",,,"3.89","mi",,,,,,,"PENDING COOP",,,,,,,,,,,,,,,,,,,,,,,,,,,"29.92","45","56","0.00",,,,"67","29.91","CLR:00","29.72","10.00","50","000",,"0",,,,,,,,,,,,,,,,,,,,,,,,,,,,,,,,,,,,,"MET09002/11/20 02:52:02 METAR KCQT 111052Z 00000KT 10SM CLR 13/07 A2992 RMK AO2 SLP128 T01330072","FM-15","7",,,,,,,,,,,,,,,,,,,,,,,,,,,,"2006-02-03"
"72287493134","2020-02-11T03:52:00","FM-15","7",,,"3.89","mi",,,,,,,"PENDING COOP",,,,,,,,,,,,,,,,,,,,,,,,,,,"29.93","44","53","0.00",,"-0.03","3","72","29.92","CLR:00","29.73","10.00","49","000",,"0",,,,,,,,,,,,,,,,,,,,,,,,,,,,,,,,,,,,,"MET10802/11/20 03:52:02 METAR KCQT 111152Z 00000KT 10SM CLR 12/07 A2993 RMK AO2 SLP133 T01170067 10172 20117 53009","FM-15","7",,,,,,,,,,,,,,,,,,,,,,,,,,,,"2006-02-03"
"72287493134","2020-02-11T04:52:00","FM-15","7",,,"3.89","mi",,,,,,,"PENDING COOP",,,,,,,,,,,,,,,,,,,,,,,,,,,"29.94","47","55","0.00",,,,"74","29.93","CLR:00","29.74","10.00","51","000",,"0",,,,,,,,,,,,,,,,,,,,,,,,,,,,,,,,,,,,,"MET09002/11/20 04:52:02 METAR KCQT 111252Z 00000KT 10SM CLR 13/08 A2994 RMK AO2 SLP137 T01280083","FM-15","7",,,,,,,,,,,,,,,,,,,,,,,,,,,,"2006-02-03"
"72287493134","2020-02-11T05:52:00","FM-15","7",,,"3.89","mi",,,,,,,"PENDING COOP",,,,,,,,,,,,,,,,,,,,,,,,,,,"29.95","45","53","0.00",,,,"74","29.95","CLR:00","29.75","10.00","49","000",,"0",,,,,,,,,,,,,,,,,,,,,,,,,,,,,,,,,,,,,"MET09402/11/20 05:52:02 METAR KCQT 111352Z 00000KT 10SM CLR 12/07 A2995 RMK AO2 SLP142 T01170072 RTX","FM-15","7",,,,,,,,,,,,,,,,,,,,,,,,,,,,"2006-02-03"
"72287493134","2020-02-11T06:52:00","FM-15","7",,,"3.89","mi",,,,,,,"PENDING COOP",,,,,,,,,,,,,,,,,,,,,,,,,,,"29.97","44","54","0.00",,"-0.04","3","69","29.96","CLR:00","29.77","10.00","49","000",,"0",,,,,,,,,,,,,,,,,,,,,,,,,,,,,,,,,,,,,"MET09602/11/20 06:52:02 METAR KCQT 111452Z 00000KT 10SM CLR 12/07 A2997 RMK AO2 SLP147 T01220067 53014","FM-15","7",,,,,,,,,,,,,,,,,,,,,,,,,,,,"2006-02-03"
"72287493134","2020-02-11T07:52:00","FM-15","7",,,"3.89","mi",,,,,,,"PENDING COOP",,,,,,,,,,,,,,,,,,,,,,,,,,,"29.99","38","60","0.00",,,,"44","29.98","CLR:00","29.79","10.00","49","000",,"0",,,,,,,,,,,,,,,,,,,,,,,,,,,,,,,,,,,,,"MET09002/11/20 07:52:02 METAR KCQT 111552Z 00000KT 10SM CLR 16/03 A2999 RMK AO2 SLP154 T01560033","FM-15","7",,,,,,,,,,,,,,,,,,,,,,,,,,,,"2006-02-03"
"72287493134","2020-02-11T08:52:00","FM-15","7",,,"3.89","mi",,,,,,,"PENDING COOP",,,,,,,,,,,,,,,,,,,,,,,,,,,"30.01","40","64","0.00",,,,"41","30.00","CLR:00","29.81","10.00","52","000",,"0",,,,,,,,,,,,,,,,,,,,,,,,,,,,,,,,,,,,,"MET09002/11/20 08:52:02 METAR KCQT 111652Z 00000KT 10SM CLR 18/04 A3001 RMK AO2 SLP160 T01780044","FM-15","7",,,,,,,,,,,,,,,,,,,,,,,,,,,,"2006-02-03"
"72287493134","2020-02-11T09:52:00","FM-15","7",,,"3.89","mi",,,,,,,"PENDING COOP",,,,,,,,,,,,,,,,,,,,,,,,,,,"30.02","27","68","0.00",,"-0.05","1","21","30.01","CLR:00","29.82","10.00","49","000",,"0",,,,,,,,,,,,,,,,,,,,,,,,,,,,,,,,,,,,,"MET10902/11/20 09:52:02 METAR KCQT 111752Z 00000KT 10SM CLR 20/M03 A3002 RMK AO2 SLP163 T02001028 10200 20111 51016","FM-15","7",,,,,,,,,,,,,,,,,,,,,,,,,,,,"2006-02-03"
"72287493134","2020-02-11T10:52:00","FM-15","7",,,"3.89","mi",,,,,,,"PENDING COOP",,,,,,,,,,,,,,,,,,,,,,,,,,,"30.02","28","71","0.00",,,,"20","30.01","CLR:00","29.82","10.00","51","000",,"0",,,,,,,,,,,,,,,,,,,,,,,,,,,,,,,,,,,,,"MET09102/11/20 10:52:02 METAR KCQT 111852Z 00000KT 10SM CLR 22/M02 A3002 RMK AO2 SLP164 T02171022","FM-15","7",,,,,,,,,,,,,,,,,,,,,,,,,,,,"2006-02-03"
"72287493134","2020-02-11T11:52:00","FM-15","7",,,"3.89","mi",,,,,,,"PENDING COOP",,,,,,,,,,,,,,,,,,,,,,,,,,,"30.00","25","73","0.00",,,,"17","30.00","CLR:00","29.80","10.00","51","000",,"0",,,,,,,,,,,,,,,,,,,,,,,,,,,,,,,,,,,,,"MET09102/11/20 11:52:02 METAR KCQT 111952Z 00000KT 10SM CLR 23/M04 A3000 RMK AO2 SLP159 T02281039","FM-15","7",,,,,,,,,,,,,,,,,,,,,,,,,,,,"2006-02-03"
"72287493134","2020-02-11T12:52:00","FM-15","7",,,"3.89","mi",,,,,,,"PENDING COOP",,,,,,,,,,,,,,,,,,,,,,,,,,,"29.99","25","74","0.00",,"+0.03","8","16","29.98","CLR:00","29.79","10.00","51","VRB",,"3",,,,,,,,,,,,,,,,,,,,,,,,,,,,,,,,,,,,,"MET09702/11/20 12:52:02 METAR KCQT 112052Z VRB03KT 10SM CLR 23/M04 A2999 RMK AO2 SLP153 T02331039 58009","FM-15","7",,,,,,,,,,,,,,,,,,,,,,,,,,,,"2006-02-03"
"72287493134","2020-02-11T13:52:00","FM-15","6",,,"3.89","mi",,,,,,,"PENDING COOP",,,,,,,,,,,,,,,,,,,,,,,,,,,"29.98","25","74","0.00",,,,"16","29.98","CLR:00","29.78","10.00","51",,,,,,,,,,,,,,,,,,,,,,,,,,,,,,,,,,,,,,,,"MET09102/11/20 13:52:02 METAR KCQT 112152Z      KT 10SM CLR 23/M04 A2998 RMK AO2 SLP151 T02331039","FM-15","6",,,,,,,,,,,,,,,,,,,,,,,,,,,,"2006-02-03"
"72287493134","2020-02-11T14:52:00","FM-15","7",,,"3.89","mi",,,,,,,"PENDING COOP",,,,,,,,,,,,,,,,,,,,,,,,,,,"29.97","21","72","0.00",,,,"15","29.96","CLR:00","29.77","10.00","50","250",,"5",,,,,,,,,,,,,,,,,,,,,,,,,,,,,,,,,,,,,"MET09102/11/20 14:52:02 METAR KCQT 112252Z 25004KT 10SM CLR 22/M06 A2997 RMK AO2 SLP147 T02221061","FM-15","7",,,,,,,,,,,,,,,,,,,,,,,,,,,,"2006-02-03"
"72287493134","2020-02-11T15:52:00","FM-15","7",,,"3.89","mi",,,,,,,"PENDING COOP",,,,,,,,,,,,,,,,,,,,,,,,,,,"29.97","25","71","0.00",,"+0.02","6","18","29.96","CLR:00","29.77","10.00","50","000",,"0",,,,,,,,,,,,,,,,,,,,,,,,,,,,,,,,,,,,,"MET10902/11/20 15:52:02 METAR KCQT 112352Z 00000KT 10SM CLR 22/M04 A2997 RMK AO2 SLP147 T02171039 10233 20206 56007","FM-15","7",,,,,,,,,,,,,,,,,,,,,,,,,,,,"2006-02-03"
"72287493134","2020-02-11T16:52:00","FM-15","7",,,"3.89","mi",,,,,,,"PENDING COOP",,,,,,,,,,,,,,,,,,,,,,,,,,,"29.99","35","68","0.00",,,,"30","29.98","CLR:00","29.79","10.00","52","250",,"3",,,,,,,,,,,,,,,,,,,,,,,,,,,,,,,,,,,,,"MET09002/11/20 16:52:01 METAR KCQT 120052Z 25003KT 10SM CLR 20/02 A2999 RMK AO2 SLP153 T02000017","FM-15","7",,,,,,,,,,,,,,,,,,,,,,,,,,,,"2006-02-03"
"72287493134","2020-02-11T17:52:00","FM-15","6",,,"3.89","mi",,,,,,,"PENDING COOP",,,,,,,,,,,,,,,,,,,,,,,,,,,"30.00","38","64","0.00",,,,"38","30.00","CLR:00","29.80","9.00","51",,,,,,,,,,,,,,,,,,,,,,,,,,,,,,,,,,,,,,,,"MET08902/11/20 17:52:01 METAR KCQT 120152Z      KT 9SM CLR 18/03 A3000 RMK AO2 SLP159 T01780033","FM-15","6",,,,,,,,,,,,,,,,,,,,,,,,,,,,"2006-02-03"
"72287493134","2020-02-11T18:52:00","FM-15","7",,,"3.89","mi",,,,,,,"PENDING COOP",,,,,,,,,,,,,,,,,,,,,,,,,,,"30.02","39","62","0.00",,"-0.05","1","43","30.01","CLR:00","29.82","10.00","51","000",,"0",,,,,,,,,,,,,,,,,,,,,,,,,,,,,,,,,,,,,"MET09602/11/20 18:52:01 METAR KCQT 120252Z 00000KT 10SM CLR 17/04 A3002 RMK AO2 SLP164 T01670039 51016","FM-15","7",,,,,,,,,,,,,,,,,,,,,,,,,,,,"2006-02-03"
"72287493134","2020-02-11T19:52:00","FM-15","7",,,"3.89","mi",,,,,,,"PENDING COOP",,,,,,,,,,,,,,,,,,,,,,,,,,,"30.03","43","62","0.00",,,,"50","30.03","CLR:00","29.83","10.00","52","000",,"0",,,,,,,,,,,,,,,,,,,,,,,,,,,,,,,,,,,,,"MET09002/11/20 19:52:01 METAR KCQT 120352Z 00000KT 10SM CLR 17/06 A3003 RMK AO2 SLP168 T01670061","FM-15","7",,,,,,,,,,,,,,,,,,,,,,,,,,,,"2006-02-03"
"72287493134","2020-02-11T20:52:00","FM-15","7",,,"3.89","mi",,,,,,,"PENDING COOP",,,,,,,,,,,,,,,,,,,,,,,,,,,"30.04","44","59","0.00",,,,"58","30.04","CLR:00","29.84","10.00","51","000",,"0",,,,,,,,,,,,,,,,,,,,,,,,,,,,,,,,,,,,,"MET09002/11/20 20:52:01 METAR KCQT 120452Z 00000KT 10SM CLR 15/07 A3004 RMK AO2 SLP172 T01500067","FM-15","7",,,,,,,,,,,,,,,,,,,,,,,,,,,,"2006-02-03"
"72287493134","2020-02-11T21:52:00","FM-15","7",,,"3.89","mi",,,,,,,"PENDING COOP",,,,,,,,,,,,,,,,,,,,,,,,,,,"30.05","44","59","0.00",,"-0.04","1","58","30.05","CLR:00","29.85","10.00","51","000",,"0",,,,,,,,,,,,,,,,,,,,,,,,,,,,,,,,,,,,,"MET10802/11/20 21:52:01 METAR KCQT 120552Z 00000KT 10SM CLR 15/07 A3005 RMK AO2 SLP175 T01500067 10217 20144 51012","FM-15","7",,,,,,,,,,,,,,,,,,,,,,,,,,,,"2006-02-03"
"72287493134","2020-02-11T22:52:00","FM-15","7",,,"3.89","mi",,,,,,,"PENDING COOP",,,,,,,,,,,,,,,,,,,,,,,,,,,"30.06","39","58","0.00",,,,"50","30.06","CLR:00","29.86","10.00","49","090",,"3",,,,,,,,,,,,,,,,,,,,,,,,,,,,,,,,,,,,,"MET09002/11/20 22:52:01 METAR KCQT 120652Z 09003KT 10SM CLR 14/04 A3006 RMK AO2 SLP178 T01440039","FM-15","7",,,,,,,,,,,,,,,,,,,,,,,,,,,,"2006-02-03"
"72287493134","2020-02-11T23:52:00","FM-15","7",,,"3.89","mi",,,,,,,"PENDING COOP",,,,,,,,,,,,,,,,,,,,,,,,,,,"30.06","39","56","0.00",,,,"53","30.05","CLR:00","29.86","10.00","48","000",,"0",,,,,,,,,,,,,,,,,,,,,,,,,,,,,,,,,,,,,"MET10002/11/20 23:52:01 METAR KCQT 120752Z 00000KT 10SM CLR 13/04 A3006 RMK AO2 SLP176 T01330039 402330111","FM-15","7",,,,,,,,,,,,,,,,,,,,,,,,,,,,"2006-02-03"
"72287493134","2020-02-11T23:59:00","SOD  ","6",,,"3.89","mi",,,,,,,"PENDING COOP",,,,"37","63","43","29.98","29.79","50","0.7","0","4.3","2","74","52","280","16","0.00",,,"260","9",,,,,,,,,,,,,,,,,,,,,,,,,,,,,,,,,,,,,,,,,,,,,,,,,,,,,,,,,"SOD73924 HR PRECIPITATION (IN): 0.00 SNOW DEPTH (IN):0     24 HR SNOWFALL (IN):0.0  24 HR MAX TEMP (F): 7424 HR MIN TEMP (F): 52AVERAGE STATION PRESSURE:29.790 MINIMUM SEA LEVEL PRESSURE:29.90 TIME OF OCCURRENCE:0244 PEAK WIND SPEED (MPH): 16 PEAK WIND DIR (DEG):280 PEAK WIND TIME (LST):      FASTEST 2MIN SPEED (MPH):  9FASTEST 2MIN DIR (DEG):260 FASTEST 2MIN TIME (LST):     AVERAGE WIND SPEED (MPH): 0.7 24 HR AVG TEMP (F): 63DEPART FROM NORMAL:  4  HEATING DEGREE DAYS:  2 COOLING DEGREE DAYS:  0 LATEST DAY MAX TEMP (0700-1900 LST):74  LATEST NIGHT MIN TEMP(1900-0800 LST):52 HOURLY INCREMENTAL PRECIPITATION VALUES (IN):.00 0.00 0.00 0.00 0.00 0.00 0.00 0.00 0.00 0.00 0.00 0.00 0.00 0.00 0.00 0.00 0.00 0.00 0.00 0.00 0.00 0.00 0.00 0.00","SOD  ","6",,,,,,,,,,,,,,,,,,,,,,,,,"0642","1733",,"2006-02-03"
"72287493134","2020-02-12T00:52:00","FM-15","7",,,"3.89","mi",,,,,,,"PENDING COOP",,,,,,,,,,,,,,,,,,,,,,,,,,,"30.06","32","57","0.00",,"-0.01","1","39","30.06","CLR:00","29.86","10.00","46","000",,"0",,,,,,,,,,,,,,,,,,,,,,,,,,,,,,,,,,,,,"MET09602/12/20 00:52:02 METAR KCQT 120852Z 00000KT 10SM CLR 14/00 A3006 RMK AO2 SLP178 T01390000 51003","FM-15","7",,,,,,,,,,,,,,,,,,,,,,,,,,,,"2006-02-03"
"72287493134","2020-02-12T01:52:00","FM-15","7",,,"3.89","mi",,,,,,,"PENDING COOP",,,,,,,,,,,,,,,,,,,,,,,,,,,"30.06","36","56","0.00",,,,"47","30.06","CLR:00","29.86","10.00","47","000",,"0",,,,,,,,,,,,,,,,,,,,,,,,,,,,,,,,,,,,,"MET09002/12/20 01:52:02 METAR KCQT 120952Z 00000KT 10SM CLR 13/02 A3006 RMK AO2 SLP178 T01330022","FM-15","7",,,,,,,,,,,,,,,,,,,,,,,,,,,,"2006-02-03"
"72287493134","2020-02-12T02:52:00","FM-15","7",,,"3.89","mi",,,,,,,"PENDING COOP",,,,,,,,,,,,,,,,,,,,,,,,,,,"30.06","38","54","0.00",,,,"55","30.05","CLR:00","29.86","10.00","46","000",,"0",,,,,,,,,,,,,,,,,,,,,,,,,,,,,,,,,,,,,"MET09002/12/20 02:52:02 METAR KCQT 121052Z 00000KT 10SM CLR 12/03 A3006 RMK AO2 SLP176 T01220033","FM-15","7",,,,,,,,,,,,,,,,,,,,,,,,,,,,"2006-02-03"
"72287493134","2020-02-12T03:52:00","FM-15","7",,,"3.89","mi",,,,,,,"PENDING COOP",,,,,,,,,,,,,,,,,,,,,,,,,,,"30.05","38","52","0.00",,"+0.01","8","59","30.05","CLR:00","29.85","10.00","45","000",,"0",,,,,,,,,,,,,,,,,,,,,,,,,,,,,,,,,,,,,"MET10802/12/20 03:52:02 METAR KCQT 121152Z 00000KT 10SM CLR 11/03 A3005 RMK AO2 SLP175 T01110033 10150 20111 58003","FM-15","7",,,,,,,,,,,,,,,,,,,,,,,,,,,,"2006-02-03"
"72287493134","2020-02-12T04:52:00","FM-15","7",,,"3.89","mi",,,,,,,"PENDING COOP",,,,,,,,,,,,,,,,,,,,,,,,,,,"30.05","37","51","0.00",,,,"59","30.05","CLR:00","29.85","10.00","45","000",,"0",,,,,,,,,,,,,,,,,,,,,,,,,,,,,,,,,,,,,"MET09002/12/20 04:52:02 METAR KCQT 121252Z 00000KT 10SM CLR 11/03 A3005 RMK AO2 SLP176 T01060028","FM-15","7",,,,,,,,,,,,,,,,,,,,,,,,,,,,"2006-02-03"
"72287493134","2020-02-12T05:52:00","FM-15","7",,,"3.89","mi",,,,,,,"PENDING COOP",,,,,,,,,,,,,,,,,,,,,,,,,,,"30.06","33","52","0.00",,,,"49","30.06","CLR:00","29.86","10.00","44","000",,"0",,,,,,,,,,,,,,,,,,,,,,,,,,,,,,,,,,,,,"MET09402/12/20 05:52:02 METAR KCQT 121352Z 00000KT 10SM CLR 11/01 A3006 RMK AO2 SLP178 T01110006 RTX","FM-15","7",,,,,,,,,,,,,,,,,,,,,,,,,,,,"2006-02-03"
"72287493134","2020-02-12T06:52:00","FM-15","7",,,"3.89","mi",,,,,,,"PENDING COOP",,,,,,,,,,,,,,,,,,,,,,,,,,,"30.07","30","54","0.00",,"-0.02","3","40","30.07","CLR:00","29.87","10.00","44","000",,"0",,,,,,,,,,,,,,,,,,,,,,,,,,,,,,,,,,,,,"MET09702/12/20 06:52:02 METAR KCQT 121452Z 00000KT 10SM CLR 12/M01 A3007 RMK AO2 SLP182 T01221011 53006","FM-15","7",,,,,,,,,,,,,,,,,,,,,,,,,,,,"2006-02-03"
"72287493134","2020-02-12T07:52:00","FM-15","7",,,"3.89","mi",,,,,,,"PENDING COOP",,,,,,,,,,,,,,,,,,,,,,,,,,,"30.09","29","56","0.00",,,,"36","30.09","CLR:00","29.89","10.00","44","080",,"3",,,,,,,,,,,,,,,,,,,,,,,,,,,,,,,,,,,,,"MET09102/12/20 07:52:02 METAR KCQT 121552Z 08003KT 10SM CLR 13/M02 A3009 RMK AO2 SLP189 T01331017","FM-15","7",,,,,,,,,,,,,,,,,,,,,,,,,,,,"2006-02-03"
"72287493134","2020-02-12T08:52:00","FM-15","7",,,"3.89","mi",,,,,,,"PENDING COOP",,,,,,,,,,,,,,,,,,,,,,,,,,,"30.11","29","59","0.00",,,,"32","30.10","CLR:00","29.91","10.00","46","050",,"3",,,,,,,,,,,,,,,,,,,,,,,,,,,,,,,,,,,,,"MET09102/12/20 08:52:02 METAR KCQT 121652Z 05003KT 10SM CLR 15/M02 A3011 RMK AO2 SLP194 T01501017","FM-15","7",,,,,,,,,,,,,,,,,,,,,,,,,,,,"2006-02-03"
"72287493134","2020-02-12T09:52:00","FM-15","7",,,"3.89","mi",,,,,,,"PENDING COOP",,,,,,,,,,,,,,,,,,,,,,,,,,,"30.11","40","63","0.00",,"-0.04","1","43","30.11","CLR:00","29.91","10.00","52","VRB",,"5",,,,,,,,,,,,,,,,,,,,,,,,,,,,,,,,,,,,,"MET10802/12/20 09:52:02 METAR KCQT 121752Z VRB04KT 10SM CLR 17/04 A3011 RMK AO2 SLP196 T01720044 10172 20100 51015","FM-15","7",,,,,,,,,,,,,,,,,,,,,,,,,,,,"2006-02-03"
"72287493134","2020-02-12T10:52:00","FM-15","7",,,"3.89","mi",,,,,,,"PENDING COOP",,,,,,,,,,,,,,,,,,,,,,,,,,,"30.12","41","66","0.00",,,,"40","30.11","CLR:00","29.92","10.00","53","000",,"0",,,,,,,,,,,,,,,,,,,,,,,,,,,,,,,,,,,,,"MET09002/12/20 10:52:02 METAR KCQT 121852Z 00000KT 10SM CLR 19/05 A3012 RMK AO2 SLP198 T01890050","FM-15","7",,,,,,,,,,,,,,,,,,,,,,,,,,,,"2006-02-03"
"72287493134","2020-02-12T11:52:00","FM-15","7",,,"3.89","mi",,,,,,,"PENDING COOP",,,,,,,,,,,,,,,,,,,,,,,,,,,"30.10","41","67","0.00",,,,"39","30.10","CLR:00","29.90","10.00","54","000",,"0",,,,,,,,,,,,,,,,,,,,,,,,,,,,,,,,,,,,,"MET09002/12/20 11:52:02 METAR KCQT 121952Z 00000KT 10SM CLR 19/05 A3010 RMK AO2 SLP192 T01940050","FM-15","7",,,,,,,,,,,,,,,,,,,,,,,,,,,,"2006-02-03"
"72287493134","2020-02-12T12:52:00","FM-15","6",,,"3.89","mi",,,,,,,"PENDING COOP",,,,,,,,,,,,,,,,,,,,,,,,,,,"30.08","44","68","0.00",,"+0.04","8","42","30.07","CLR:00","29.88","10.00","55",,,,,,,,,,,,,,,,,,,,,,,,,,,,,,,,,,,,,,,,"MET09602/12/20 12:52:02 METAR KCQT 122052Z      KT 10SM CLR 20/07 A3008 RMK AO2 SLP183 T02000067 58013","FM-15","6",,,,,,,,,,,,,,,,,,,,,,,,,,,,"2006-02-03"
"72287493134","2020-02-12T13:52:00","FM-15","7",,,"3.89","mi",,,,,,,"PENDING COOP",,,,,,,,,,,,,,,,,,,,,,,,,,,"30.06","48","69","0.00",,,,"47","30.05","FEW:02 38","29.86","10.00","57","000",,"0",,,,,,,,,,,,,,,,,,,,,,,,,,,,,,,,,,,,,"MET09302/12/20 13:52:02 METAR KCQT 122152Z 00000KT 10SM FEW038 21/09 A3006 RMK AO2 SLP176 T02060089","FM-15","7",,,,,,,,,,,,,,,,,,,,,,,,,,,,"2006-02-03"
"72287493134","2020-02-12T14:52:00","FM-15","7",,,"3.89","mi",,,,,,,"PENDING COOP",,,,,,,,,,,,,,,,,,,,,,,,,,,"30.05","51","67","0.00",,,,"57","30.04","CLR:00","29.85","10.00","58","250",,"3",,,,,,,,,,,,,,,,,,,,,,,,,,,,,,,,,,,,,"MET09002/12/20 14:52:02 METAR KCQT 122252Z 25003KT 10SM CLR 19/11 A3005 RMK AO2 SLP173 T01940106","FM-15","7",,,,,,,,,,,,,,,,,,,,,,,,,,,,"2006-02-03"
"72287493134","2020-02-12T15:52:00","FM-15","6",,,"3.89","mi",,,,,,,"PENDING COOP",,,,,,,,,,,,,,,,,,,,,,,,,,,"30.04","50","66","0.00",,"+0.03","6","56","30.04","CLR:00","29.84","10.00","57",,,,,,,,,,,,,,,,,,,,,,,,,,,,,,,,,,,,,,,,"MET10802/12/20 15:52:02 METAR KCQT 122352Z      KT 10SM CLR 19/10 A3004 RMK AO2 SLP173 T01890100 10206 20172 56011","FM-15","6",,,,,,,,,,,,,,,,,,,,,,,,,,,,"2006-02-03"
"72287493134","2020-02-12T16:52:00","FM-15","7",,,"3.89","mi",,,,,,,"PENDING COOP",,,,,,,,,,,,,,,,,,,,,,,,,,,"30.04","45","64","0.00",,,,"50","30.04","CLR:00","29.84","10.00","54","270",,"3",,,,,,,,,,,,,,,,,,,,,,,,,,,,,,,,,,,,,"MET09002/12/20 16:52:01 METAR KCQT 130052Z 27003KT 10SM CLR 18/07 A3004 RMK AO2 SLP173 T01780072","FM-15","7",,,,,,,,,,,,,,,,,,,,,,,,,,,,"2006-02-03"
"72287493134","2020-02-12T17:52:00","FM-15","7",,,"3.89","mi",,,,,,,"PENDING COOP",,,,,,,,,,,,,,,,,,,,,,,,,,,"30.05","47","62","0.00",,,,"58","30.04","CLR:00","29.85","10.00","54","000",,"0",,,,,,,,,,,,,,,,,,,,,,,,,,,,,,,,,,,,,"MET09002/12/20 17:52:01 METAR KCQT 130152Z 00000KT 10SM CLR 17/08 A3005 RMK AO2 SLP174 T01670083","FM-15","7",,,,,,,,,,,,,,,,,,,,,,,,,,,,"2006-02-03"
"72287493134","2020-02-12T18:52:00","FM-15","7",,,"3.89","mi",,,,,,,"PENDING COOP",,,,,,,,,,,,,,,,,,,,,,,,,,,"30.05","49","59","0.00",,"-0.01","3","69","30.05","CLR:00","29.85","10.00","54","000",,"0",,,,,,,,,,,,,,,,,,,,,,,,,,,,,,,,,,,,,"MET09602/12/20 18:52:01 METAR KCQT 130252Z 00000KT 10SM CLR 15/09 A3005 RMK AO2 SLP177 T01500094 53004","FM-15","7",,,,,,,,,,,,,,,,,,,,,,,,,,,,"2006-02-03"
"72287493134","2020-02-12T19:52:00","FM-15","7",,,"3.89","mi",,,,,,,"PENDING COOP",,,,,,,,,,,,,,,,,,,,,,,,,,,"30.07","49","58","0.00",,,,"72","30.06","CLR:00","29.87","10.00","53","000",,"0",,,,,,,,,,,,,,,,,,,,,,,,,,,,,,,,,,,,,"MET09002/12/20 19:52:01 METAR KCQT 130352Z 00000KT 10SM CLR 14/09 A3007 RMK AO2 SLP181 T01440094","FM-15","7",,,,,,,,,,,,,,,,,,,,,,,,,,,,"2006-02-03"
"72287493134","2020-02-12T20:52:00","FM-15","7",,,"3.89","mi",,,,,,,"PENDING COOP",,,,,,,,,,,,,,,,,,,,,,,,,,,"30.08","48","58","0.00",,,,"70","30.08","CLR:00","29.88","10.00","53","000",,"0",,,,,,,,,,,,,,,,,,,,,,,,,,,,,,,,,,,,,"MET09002/12/20 20:52:01 METAR KCQT 130452Z 00000KT 10SM CLR 14/09 A3008 RMK AO2 SLP185 T01440089","FM-15","7",,,,,,,,,,,,,,,,,,,,,,,,,,,,"2006-02-03"
"72287493134","2020-02-12T21:52:00","FM-15","7",,,"3.89","mi",,,,,,,"PENDING COOP",,,,,,,,,,,,,,,,,,,,,,,,,,,"30.08","49","56","0.00",,"-0.03","1","77","30.08","CLR:00","29.88","10.00","52","000",,"0",,,,,,,,,,,,,,,,,,,,,,,,,,,,,,,,,,,,,"MET10802/12/20 21:52:01 METAR KCQT 130552Z 00000KT 10SM CLR 13/09 A3008 RMK AO2 SLP186 T01330094 10189 20133 51009","FM-15","7",,,,,,,,,,,,,,,,,,,,,,,,,,,,"2006-02-03"
"72287493134","2020-02-12T22:52:00","FM-15","7",,,"3.89","mi",,,,,,,"PENDING COOP",,,,,,,,,,,,,,,,,,,,,,,,,,,"30.08","49","55","0.00","HZ:7 |FU |HZ",,,"80","30.07","CLR:00","29.88","5.00","52","000",,"0",,,,,,,,,,,,,,,,,,,,,,,,,,,,,,,,,,,,,"MET09202/12/20 22:52:01 METAR KCQT 130652Z 00000KT 5SM HZ CLR 13/09 A3008 RMK AO2 SLP184 T01280094","FM-15","7",,,,,,,,,,,,,,,,,,,,,,,,,,,,"2006-02-03"
"72287493134","2020-02-12T23:52:00","FM-15","7",,,"3.89","mi",,,,,,,"PENDING COOP",,,,,,,,,,,,,,,,,,,,,,,,,,,"30.08","48","54","0.00",,,,"80","30.07","CLR:00","29.88","8.00","51","000",,"0",,,,,,,,,,,,,,,,,,,,,,,,,,,,,,,,,,,,,"MET09902/12/20 23:52:01 METAR KCQT 130752Z 00000KT 8SM CLR 12/09 A3008 RMK AO2 SLP184 T01220089 402060100","FM-15","7",,,,,,,,,,,,,,,,,,,,,,,,,,,,"2006-02-03"
"72287493134","2020-02-12T23:59:00","SOD  ","6",,,"3.89","mi",,,,,,,"PENDING COOP",,,,"42","60","55","30.07","29.87","51","0.8","0","1.2","5","69","50","260","14","0.00",,,"260","7","HZ",,,,,,,,,,,,,,,,,,,,,,,,,,,,,,,,,,,,,,,,,,,,,,,,,,,,,,,,"SOD75624 HR PRECIPITATION (IN): 0.00 SNOW DEPTH (IN):0     24 HR SNOWFALL (IN):0.0  WEATHER(CODE):8  24 HR MAX TEMP (F): 6924 HR MIN TEMP (F): 50AVERAGE STATION PRESSURE:29.870 MINIMUM SEA LEVEL PRESSURE:30.04 TIME OF OCCURRENCE:1806 PEAK WIND SPEED (MPH): 14 PEAK WIND DIR (DEG):260 PEAK WIND TIME (LST):      FASTEST 2MIN SPEED (MPH):  7FASTEST 2MIN DIR (DEG):260 FASTEST 2MIN TIME (LST):     AVERAGE WIND SPEED (MPH): 0.8 24 HR AVG TEMP (F): 60DEPART FROM NORMAL:  1  HEATING DEGREE DAYS:  5 COOLING DEGREE DAYS:  0 LATEST DAY MAX TEMP (0700-1900 LST):69  LATEST NIGHT MIN TEMP(1900-0800 LST):50 HOURLY INCREMENTAL PRECIPITATION VALUES (IN):.00 0.00 0.00 0.00 0.00 0.00 0.00 0.00 0.00 0.00 0.00 0.00 0.00 0.00 0.00 0.00 0.00 0.00 0.00 0.00 0.00 0.00 0.00 0.00","SOD  ","6",,,,,,,,,,,,,,,,,,,,,,,,,"0641","1734",,"2006-02-03"
"72287493134","2020-02-13T00:38:00","FM-16","7",,,"3.89","mi",,,,,,,"PENDING COOP",,,,,,,,,,,,,,,,,,,,,,,,,,,"30.08","47","53",,,,,"80",,"BKN:07 12","29.88","9.00","50","000",,"0",,,,,,,,,,,,,,,,,,,,,,,,,,,,,,,,,,,,,"MET08502/13/20 00:38:02 SPECI KCQT 130838Z 00000KT 9SM BKN012 12/08 A3008 RMK AO2 T01170083","FM-16","7",,,,,,,,,,,,,,,,,,,,,,,,,,,,"2006-02-03"
"72287493134","2020-02-13T00:52:00","FM-15","7",,,"3.89","mi",,,,,,,"PENDING COOP",,,,,,,,,,,,,,,,,,,,,,,,,,,"30.08","47","53","0.00",,"+0.00","5","80","30.07","OVC:08 11","29.88","9.00","50","000",,"0",,,,,,,,,,,,,,,,,,,,,,,,,,,,,,,,,,,,,"MET09802/13/20 00:52:02 METAR KCQT 130852Z 00000KT 9SM OVC011 12/08 A3008 RMK AO2 SLP184 T01170083 55001","FM-15","7",,,,,,,,,,,,,,,,,,,,,,,,,,,,"2006-02-03"
"72287493134","2020-02-13T01:27:00","FM-16","7",,,"3.89","mi",,,,,,,"PENDING COOP",,,,,,,,,,,,,,,,,,,,,,,,,,,"30.08","48","54",,,,,"80",,"OVC:08 9","29.88","9.00","51","000",,"0",,,,,,,,,,,,,,,,,,,,,,,,,,,,,,,,,,,,,"MET08502/13/20 01:27:02 SPECI KCQT 130927Z 00000KT 9SM OVC009 12/09 A3008 RMK AO2 T01220089","FM-16","7",,,,,,,,,,,,,,,,,,,,,,,,,,,,"2006-02-03"
"72287493134","2020-02-13T01:38:00","FM-16","7",,,"3.89","mi",,,,,,,"PENDING COOP",,,,,,,,,,,,,,,,,,,,,,,,,,,"30.08","47","55",,,,,"74",,"OVC:08 10","29.88","9.00","51","000",,"0",,,,,,,,,,,,,,,,,,,,,,,,,,,,,,,,,,,,,"MET08502/13/20 01:38:02 SPECI KCQT 130938Z 00000KT 9SM OVC010 13/08 A3008 RMK AO2 T01280083","FM-16","7",,,,,,,,,,,,,,,,,,,,,,,,,,,,"2006-02-03"
"72287493134","2020-02-13T01:52:00","FM-15","7",,,"3.89","mi",,,,,,,"PENDING COOP",,,,,,,,,,,,,,,,,,,,,,,,,,,"30.08","48","55","0.00",,,,"77","30.07","OVC:08 10","29.88","9.00","51","000",,"0",,,,,,,,,,,,,,,,,,,,,,,,,,,,,,,,,,,,,"MET09202/13/20 01:52:02 METAR KCQT 130952Z 00000KT 9SM OVC010 13/09 A3008 RMK AO2 SLP183 T01280089","FM-15","7",,,,,,,,,,,,,,,,,,,,,,,,,,,,"2006-02-03"
"72287493134","2020-02-13T02:16:00","FM-16","7",,,"3.89","mi",,,,,,,"PENDING COOP",,,,,,,,,,,,,,,,,,,,,,,,,,,"30.07","47","54",,,,,"77",,"SCT:04 12","29.87","8.00","50","000",,"0",,,,,,,,,,,,,,,,,,,,,,,,,,,,,,,,,,,,,"MET08502/13/20 02:16:02 SPECI KCQT 131016Z 00000KT 8SM SCT012 12/08 A3007 RMK AO2 T01220083","FM-16","7",,,,,,,,,,,,,,,,,,,,,,,,,,,,"2006-02-03"
"72287493134","2020-02-13T02:52:00","FM-15","7",,,"3.89","mi",,,,,,,"PENDING COOP",,,,,,,,,,,,,,,,,,,,,,,,,,,"30.06","46","53","0.00",,,,"77","30.06","CLR:00","29.86","9.00","49","000",,"0",,,,,,,,,,,,,,,,,,,,,,,,,,,,,,,,,,,,,"MET08902/13/20 02:52:02 METAR KCQT 131052Z 00000KT 9SM CLR 12/08 A3006 RMK AO2 SLP178 T01170078","FM-15","7",,,,,,,,,,,,,,,,,,,,,,,,,,,,"2006-02-03"
"72287493134","2020-02-13T03:52:00","FM-15","7",,,"3.89","mi",,,,,,,"PENDING COOP",,,,,,,,,,,,,,,,,,,,,,,,,,,"30.05","45","51","0.00",,"+0.03","8","80","30.05","CLR:00","29.85","8.00","48","000",,"0",,,,,,,,,,,,,,,,,,,,,,,,,,,,,,,,,,,,,"MET10702/13/20 03:52:02 METAR KCQT 131152Z 00000KT 8SM CLR 11/07 A3005 RMK AO2 SLP177 T01060072 10133 20106 58009","FM-15","7",,,,,,,,,,,,,,,,,,,,,,,,,,,,"2006-02-03"
"72287493134","2020-02-13T04:52:00","FM-15","7",,,"3.89","mi",,,,,,,"PENDING COOP",,,,,,,,,,,,,,,,,,,,,,,,,,,"30.06","44","52","0.00",,,,"75","30.05","CLR:00","29.86","8.00","48","000",,"0",,,,,,,,,,,,,,,,,,,,,,,,,,,,,,,,,,,,,"MET08902/13/20 04:52:02 METAR KCQT 131252Z 00000KT 8SM CLR 11/07 A3006 RMK AO2 SLP177 T01110067","FM-15","7",,,,,,,,,,,,,,,,,,,,,,,,,,,,"2006-02-03"
"72287493134","2020-02-13T05:52:00","FM-15","7",,,"3.89","mi",,,,,,,"PENDING COOP",,,,,,,,,,,,,,,,,,,,,,,,,,,"30.06","42","50","0.00",,,,"74","30.06","CLR:00","29.86","10.00","46","000",,"0",,,,,,,,,,,,,,,,,,,,,,,,,,,,,,,,,,,,,"MET09002/13/20 05:52:02 METAR KCQT 131352Z 00000KT 10SM CLR 10/06 A3006 RMK AO2 SLP178 T01000056","FM-15","7",,,,,,,,,,,,,,,,,,,,,,,,,,,,"2006-02-03"
"72287493134","2020-02-13T06:52:00","FM-15","7",,,"3.89","mi",,,,,,,"PENDING COOP",,,,,,,,,,,,,,,,,,,,,,,,,,,"30.08","39","51","0.00",,"-0.02","3","64","30.07","CLR:00","29.88","9.00","45","000",,"0",,,,,,,,,,,,,,,,,,,,,,,,,,,,,,,,,,,,,"MET09502/13/20 06:52:02 METAR KCQT 131452Z 00000KT 9SM CLR 11/04 A3008 RMK AO2 SLP184 T01060039 53007","FM-15","7",,,,,,,,,,,,,,,,,,,,,,,,,,,,"2006-02-03"
"72287493134","2020-02-13T07:52:00","FM-15","7",,,"3.89","mi",,,,,,,"PENDING COOP",,,,,,,,,,,,,,,,,,,,,,,,,,,"30.09","39","54","0.00",,,,"57","30.09","CLR:00","29.89","10.00","47","000",,"0",,,,,,,,,,,,,,,,,,,,,,,,,,,,,,,,,,,,,"MET09002/13/20 07:52:02 METAR KCQT 131552Z 00000KT 10SM CLR 12/04 A3009 RMK AO2 SLP189 T01220039","FM-15","7",,,,,,,,,,,,,,,,,,,,,,,,,,,,"2006-02-03"
"72287493134","2020-02-13T08:52:00","FM-15","7",,,"3.89","mi",,,,,,,"PENDING COOP",,,,,,,,,,,,,,,,,,,,,,,,,,,"30.10","40","59","0.00",,,,"49","30.09","CLR:00","29.90","10.00","50","000",,"0",,,,,,,,,,,,,,,,,,,,,,,,,,,,,,,,,,,,,"MET09002/13/20 08:52:02 METAR KCQT 131652Z 00000KT 10SM CLR 15/04 A3010 RMK AO2 SLP191 T01500044","FM-15","7",,,,,,,,,,,,,,,,,,,,,,,,,,,,"2006-02-03"
"72287493134","2020-02-13T09:52:00","FM-15","7",,,"3.89","mi",,,,,,,"PENDING COOP",,,,,,,,,,,,,,,,,,,,,,,,,,,"30.09","39","64","0.00",,"-0.02","0","40","30.09","CLR:00","29.89","10.00","52","000",,"0",,,,,,,,,,,,,,,,,,,,,,,,,,,,,,,,,,,,,"MET10802/13/20 09:52:02 METAR KCQT 131752Z 00000KT 10SM CLR 18/04 A3009 RMK AO2 SLP190 T01780039 10178 20100 50006","FM-15","7",,,,,,,,,,,,,,,,,,,,,,,,,,,,"2006-02-03"
"72287493134","2020-02-13T10:52:00","FM-15","7",,,"3.89","mi",,,,,,,"PENDING COOP",,,,,,,,,,,,,,,,,,,,,,,,,,,"30.08","39","67","0.00",,,,"36","30.08","CLR:00","29.88","10.00","53","000",,"0",,,,,,,,,,,,,,,,,,,,,,,,,,,,,,,,,,,,,"MET09002/13/20 10:52:02 METAR KCQT 131852Z 00000KT 10SM CLR 19/04 A3008 RMK AO2 SLP185 T01940039","FM-15","7",,,,,,,,,,,,,,,,,,,,,,,,,,,,"2006-02-03"
"72287493134","2020-02-13T11:52:00","FM-15","7",,,"3.89","mi",,,,,,,"PENDING COOP",,,,,,,,,,,,,,,,,,,,,,,,,,,"30.07","39","69","0.00",,,,"33","30.06","CLR:00","29.87","10.00","54","VRB",,"3",,,,,,,,,,,,,,,,,,,,,,,,,,,,,,,,,,,,,"MET09002/13/20 11:52:02 METAR KCQT 131952Z VRB03KT 10SM CLR 21/04 A3007 RMK AO2 SLP179 T02060039","FM-15","7",,,,,,,,,,,,,,,,,,,,,,,,,,,,"2006-02-03"
"72287493134","2020-02-13T12:52:00","FM-15","7",,,"3.89","mi",,,,,,,"PENDING COOP",,,,,,,,,,,,,,,,,,,,,,,,,,,"30.03","40","69","0.00",,"+0.06","8","35","30.03","CLR:00","29.83","10.00","54","000",,"0",,,,,,,,,,,,,,,,,,,,,,,,,,,,,,,,,,,,,"MET09602/13/20 12:52:02 METAR KCQT 132052Z 00000KT 10SM CLR 21/04 A3003 RMK AO2 SLP168 T02060044 58021","FM-15","7",,,,,,,,,,,,,,,,,,,,,,,,,,,,"2006-02-03"
"72287493134","2020-02-13T13:52:00","FM-15","7",,,"3.89","mi",,,,,,,"PENDING COOP",,,,,,,,,,,,,,,,,,,,,,,,,,,"30.01","37","70","0.00",,,,"30","30.01","CLR:00","29.81","10.00","53","VRB",,"3",,,,,,,,,,,,,,,,,,,,,,,,,,,,,,,,,,,,,"MET09002/13/20 13:52:02 METAR KCQT 132152Z VRB03KT 10SM CLR 21/03 A3001 RMK AO2 SLP161 T02110028","FM-15","7",,,,,,,,,,,,,,,,,,,,,,,,,,,,"2006-02-03"
"72287493134","2020-02-13T14:52:00","FM-15","7",,,"3.89","mi",,,,,,,"PENDING COOP",,,,,,,,,,,,,,,,,,,,,,,,,,,"30.00","35","68","0.00",,,,"30","29.99","CLR:00","29.80","10.00","52","270",,"6",,,,,,,,,,,,,,,,,,,,,,,,,,,,,,,,,,,,,"MET09002/13/20 14:52:02 METAR KCQT 132252Z 27005KT 10SM CLR 20/02 A3000 RMK AO2 SLP157 T02000017","FM-15","7",,,,,,,,,,,,,,,,,,,,,,,,,,,,"2006-02-03"
"72287493134","2020-02-13T15:52:00","FM-15","7",,,"3.89","mi",,,,,,,"PENDING COOP",,,,,,,,,,,,,,,,,,,,,,,,,,,"30.00","40","67","0.00",,"+0.04","6","37","29.99","CLR:00","29.80","10.00","53","VRB",,"3",,,,,,,,,,,,,,,,,,,,,,,,,,,,,,,,,,,,,"MET10802/13/20 15:52:02 METAR KCQT 132352Z VRB03KT 10SM CLR 19/04 A3000 RMK AO2 SLP157 T01940044 10217 20178 56012","FM-15","7",,,,,,,,,,,,,,,,,,,,,,,,,,,,"2006-02-03"
"72287493134","2020-02-13T16:52:00","FM-15","7",,,"3.89","mi",,,,,,,"PENDING COOP",,,,,,,,,,,,,,,,,,,,,,,,,,,"30.00","43","65","0.00",,,,"45","30.00","CLR:00","29.80","10.00","54","VRB",,"5",,,,,,,,,,,,,,,,,,,,,,,,,,,,,,,,,,,,,"MET09002/13/20 16:52:01 METAR KCQT 140052Z VRB04KT 10SM CLR 18/06 A3000 RMK AO2 SLP158 T01830061","FM-15","7",,,,,,,,,,,,,,,,,,,,,,,,,,,,"2006-02-03"
"72287493134","2020-02-13T17:52:00","FM-15","7",,,"3.89","mi",,,,,,,"PENDING COOP",,,,,,,,,,,,,,,,,,,,,,,,,,,"30.01","46","61","0.00",,,,"58","30.01","CLR:00","29.81","10.00","53","260",,"6",,,,,,,,,,,,,,,,,,,,,,,,,,,,,,,,,,,,,"MET09002/13/20 17:52:01 METAR KCQT 140152Z 26005KT 10SM CLR 16/08 A3001 RMK AO2 SLP162 T01610078","FM-15","7",,,,,,,,,,,,,,,,,,,,,,,,,,,,"2006-02-03"
"72287493134","2020-02-13T18:52:00","FM-15","7",,,"3.89","mi",,,,,,,"PENDING COOP",,,,,,,,,,,,,,,,,,,,,,,,,,,"30.02","48","60","0.00",,"-0.02","3","65","30.01","CLR:00","29.82","10.00","54","000",,"0",,,,,,,,,,,,,,,,,,,,,,,,,,,,,,,,,,,,,"MET09602/13/20 18:52:01 METAR KCQT 140252Z 00000KT 10SM CLR 16/09 A3002 RMK AO2 SLP164 T01560089 53007","FM-15","7",,,,,,,,,,,,,,,,,,,,,,,,,,,,"2006-02-03"
"72287493134","2020-02-13T19:52:00","FM-15","7",,,"3.89","mi",,,,,,,"PENDING COOP",,,,,,,,,,,,,,,,,,,,,,,,,,,"30.03","49","59","0.00",,,,"69","30.03","CLR:00","29.83","10.00","54","000",,"0",,,,,,,,,,,,,,,,,,,,,,,,,,,,,,,,,,,,,"MET09002/13/20 19:52:01 METAR KCQT 140352Z 00000KT 10SM CLR 15/09 A3003 RMK AO2 SLP168 T01500094","FM-15","7",,,,,,,,,,,,,,,,,,,,,,,,,,,,"2006-02-03"
"72287493134","2020-02-13T20:52:00","FM-15","7",,,"3.89","mi",,,,,,,"PENDING COOP",,,,,,,,,,,,,,,,,,,,,,,,,,,"30.04","50","58","0.00",,,,"75","30.03","CLR:00","29.84","10.00","54","000",,"0",,,,,,,,,,,,,,,,,,,,,,,,,,,,,,,,,,,,,"MET09002/13/20 20:52:02 METAR KCQT 140452Z 00000KT 10SM CLR 14/10 A3004 RMK AO2 SLP171 T01440100","FM-15","7",,,,,,,,,,,,,,,,,,,,,,,,,,,,"2006-02-03"
"72287493134","2020-02-13T21:52:00","FM-15","7",,,"3.89","mi",,,,,,,"PENDING COOP",,,,,,,,,,,,,,,,,,,,,,,,,,,"30.05","49","57","0.00",,"-0.03","1","74","30.04","CLR:00","29.85","10.00","53","000",,"0",,,,,,,,,,,,,,,,,,,,,,,,,,,,,,,,,,,,,"MET10802/13/20 21:52:02 METAR KCQT 140552Z 00000KT 10SM CLR 14/09 A3005 RMK AO2 SLP174 T01390094 10194 20139 51010","FM-15","7",,,,,,,,,,,,,,,,,,,,,,,,,,,,"2006-02-03"
"72287493134","2020-02-13T22:52:00","FM-15","7",,,"3.89","mi",,,,,,,"PENDING COOP",,,,,,,,,,,,,,,,,,,,,,,,,,,"30.05","49","56","0.00",,,,"77","30.04","CLR:00","29.85","10.00","52","000",,"0",,,,,,,,,,,,,,,,,,,,,,,,,,,,,,,,,,,,,"MET09002/13/20 22:52:02 METAR KCQT 140652Z 00000KT 10SM CLR 13/09 A3005 RMK AO2 SLP173 T01330094","FM-15","7",,,,,,,,,,,,,,,,,,,,,,,,,,,,"2006-02-03"
"72287493134","2020-02-13T23:52:00","FM-15","7",,,"3.89","mi",,,,,,,"PENDING COOP",,,,,,,,,,,,,,,,,,,,,,,,,,,"30.05","48","56","0.00",,,,"75","30.04","CLR:00","29.85","10.00","52","000",,"0",,,,,,,,,,,,,,,,,,,,,,,,,,,,,,,,,,,,,"MET10002/13/20 23:52:02 METAR KCQT 140752Z 00000KT 10SM CLR 13/09 A3005 RMK AO2 SLP173 T01330089 402170100","FM-15","7",,,,,,,,,,,,,,,,,,,,,,,,,,,,"2006-02-03"
"72287493134","2020-02-13T23:59:00","SOD  ","6",,,"3.89","mi",,,,,,,"PENDING COOP",,,,"43","61","58","30.04","29.85","51","1.1","0","2.2","4","71","50","270","13","0.00",,,"260","8",,,,,,,,,,,,,,,,,,,,,,,,,,,,,,,,,,,,,,,,,,,,,,,,,,,,,,,,,"SOD73924 HR PRECIPITATION (IN): 0.00 SNOW DEPTH (IN):0     24 HR SNOWFALL (IN):0.0  24 HR MAX TEMP (F): 7124 HR MIN TEMP (F): 50AVERAGE STATION PRESSURE:29.845 MINIMUM SEA LEVEL PRESSURE:29.99 TIME OF OCCURRENCE:1646 PEAK WIND SPEED (MPH): 13 PEAK WIND DIR (DEG):270 PEAK WIND TIME (LST):      FASTEST 2MIN SPEED (MPH):  8FASTEST 2MIN DIR (DEG):260 FASTEST 2MIN TIME (LST):     AVERAGE WIND SPEED (MPH): 1.1 24 HR AVG TEMP (F): 61DEPART FROM NORMAL:  2  HEATING DEGREE DAYS:  4 COOLING DEGREE DAYS:  0 LATEST DAY MAX TEMP (0700-1900 LST):71  LATEST NIGHT MIN TEMP(1900-0800 LST):50 HOURLY INCREMENTAL PRECIPITATION VALUES (IN):.00 0.00 0.00 0.00 0.00 0.00 0.00 0.00 0.00 0.00 0.00 0.00 0.00 0.00 0.00 0.00 0.00 0.00 0.00 0.00 0.00 0.00 0.00 0.00","SOD  ","6",,,,,,,,,,,,,,,,,,,,,,,,,"0640","1735",,"2006-02-03"
"72287493134","2020-02-14T00:52:00","FM-15","7",,,"3.89","mi",,,,,,,"PENDING COOP",,,,,,,,,,,,,,,,,,,,,,,,,,,"30.04","48","54","0.00",,"+0.01","8","80","30.03","CLR:00","29.84","9.00","51","000",,"0",,,,,,,,,,,,,,,,,,,,,,,,,,,,,,,,,,,,,"MET09502/14/20 00:52:02 METAR KCQT 140852Z 00000KT 9SM CLR 12/09 A3004 RMK AO2 SLP170 T01220089 58004","FM-15","7",,,,,,,,,,,,,,,,,,,,,,,,,,,,"2006-02-03"
"72287493134","2020-02-14T01:52:00","FM-15","7",,,"3.89","mi",,,,,,,"PENDING COOP",,,,,,,,,,,,,,,,,,,,,,,,,,,"30.03","47","53","0.00",,,,"80","30.03","CLR:00","29.83","10.00","50","000",,"0",,,,,,,,,,,,,,,,,,,,,,,,,,,,,,,,,,,,,"MET09002/14/20 01:52:02 METAR KCQT 140952Z 00000KT 10SM CLR 12/08 A3003 RMK AO2 SLP168 T01170083","FM-15","7",,,,,,,,,,,,,,,,,,,,,,,,,,,,"2006-02-03"
"72287493134","2020-02-14T02:52:00","FM-15","7",,,"3.89","mi",,,,,,,"PENDING COOP",,,,,,,,,,,,,,,,,,,,,,,,,,,"30.03","46","52","0.00",,,,"80","30.03","CLR:00","29.83","10.00","49","000",,"0",,,,,,,,,,,,,,,,,,,,,,,,,,,,,,,,,,,,,"MET09002/14/20 02:52:02 METAR KCQT 141052Z 00000KT 10SM CLR 11/08 A3003 RMK AO2 SLP168 T01110078","FM-15","7",,,,,,,,,,,,,,,,,,,,,,,,,,,,"2006-02-03"
"72287493134","2020-02-14T03:52:00","FM-15","7",,,"3.89","mi",,,,,,,"PENDING COOP",,,,,,,,,,,,,,,,,,,,,,,,,,,"30.03","43","51","0.00",,"+0.01","5","74","30.03","CLR:00","29.83","9.00","47","000",,"0",,,,,,,,,,,,,,,,,,,,,,,,,,,,,,,,,,,,,"MET10702/14/20 03:52:02 METAR KCQT 141152Z 00000KT 9SM CLR 11/06 A3003 RMK AO2 SLP169 T01060061 10139 20106 55002","FM-15","7",,,,,,,,,,,,,,,,,,,,,,,,,,,,"2006-02-03"
"72287493134","2020-02-14T04:52:00","FM-15","7",,,"3.89","mi",,,,,,,"PENDING COOP",,,,,,,,,,,,,,,,,,,,,,,,,,,"30.03","41","52","0.00",,,,"66","30.03","CLR:00","29.83","10.00","47","000",,"0",,,,,,,,,,,,,,,,,,,,,,,,,,,,,,,,,,,,,"MET09002/14/20 04:52:02 METAR KCQT 141252Z 00000KT 10SM CLR 11/05 A3003 RMK AO2 SLP168 T01110050","FM-15","7",,,,,,,,,,,,,,,,,,,,,,,,,,,,"2006-02-03"
"72287493134","2020-02-14T05:52:00","FM-15","7",,,"3.89","mi",,,,,,,"PENDING COOP",,,,,,,,,,,,,,,,,,,,,,,,,,,"30.03","42","50","0.00",,,,"74","30.03","CLR:00","29.83","10.00","46","000",,"0",,,,,,,,,,,,,,,,,,,,,,,,,,,,,,,,,,,,,"MET09002/14/20 05:52:02 METAR KCQT 141352Z 00000KT 10SM CLR 10/06 A3003 RMK AO2 SLP169 T01000056","FM-15","7",,,,,,,,,,,,,,,,,,,,,,,,,,,,"2006-02-03"
"72287493134","2020-02-14T06:52:00","FM-15","7",,,"3.89","mi",,,,,,,"PENDING COOP",,,,,,,,,,,,,,,,,,,,,,,,,,,"30.05","42","50","0.00",,"-0.02","3","74","30.05","CLR:00","29.85","9.00","46","000",,"0",,,,,,,,,,,,,,,,,,,,,,,,,,,,,,,,,,,,,"MET09502/14/20 06:52:02 METAR KCQT 141452Z 00000KT 9SM CLR 10/06 A3005 RMK AO2 SLP176 T01000056 53007","FM-15","7",,,,,,,,,,,,,,,,,,,,,,,,,,,,"2006-02-03"
"72287493134","2020-02-14T07:52:00","FM-15","7",,,"3.89","mi",,,,,,,"PENDING COOP",,,,,,,,,,,,,,,,,,,,,,,,,,,"30.07","40","55","0.00",,,,"57","30.07","CLR:00","29.87","10.00","48","000",,"0",,,,,,,,,,,,,,,,,,,,,,,,,,,,,,,,,,,,,"MET09002/14/20 07:52:02 METAR KCQT 141552Z 00000KT 10SM CLR 13/04 A3007 RMK AO2 SLP183 T01280044","FM-15","7",,,,,,,,,,,,,,,,,,,,,,,,,,,,"2006-02-03"
"72287493134","2020-02-14T08:52:00","FM-15","7",,,"3.89","mi",,,,,,,"PENDING COOP",,,,,,,,,,,,,,,,,,,,,,,,,,,"30.08","41","59","0.00",,,,"51","30.08","CLR:00","29.88","10.00","50","000",,"0",,,,,,,,,,,,,,,,,,,,,,,,,,,,,,,,,,,,,"MET09002/14/20 08:52:02 METAR KCQT 141652Z 00000KT 10SM CLR 15/05 A3008 RMK AO2 SLP185 T01500050","FM-15","7",,,,,,,,,,,,,,,,,,,,,,,,,,,,"2006-02-03"
"72287493134","2020-02-14T09:52:00","FM-15","7",,,"3.89","mi",,,,,,,"PENDING COOP",,,,,,,,,,,,,,,,,,,,,,,,,,,"30.08","45","63","0.00",,"-0.03","1","52","30.08","CLR:00","29.88","10.00","54","000",,"0",,,,,,,,,,,,,,,,,,,,,,,,,,,,,,,,,,,,,"MET10802/14/20 09:52:02 METAR KCQT 141752Z 00000KT 10SM CLR 17/07 A3008 RMK AO2 SLP187 T01720072 10172 20094 51010","FM-15","7",,,,,,,,,,,,,,,,,,,,,,,,,,,,"2006-02-03"
"72287493134","2020-02-14T10:52:00","FM-15","7",,,"3.89","mi",,,,,,,"PENDING COOP",,,,,,,,,,,,,,,,,,,,,,,,,,,"30.08","45","66","0.00",,,,"47","30.07","CLR:00","29.88","9.00","55","VRB",,"3",,,,,,,,,,,,,,,,,,,,,,,,,,,,,,,,,,,,,"MET08902/14/20 10:52:02 METAR KCQT 141852Z VRB03KT 9SM CLR 19/07 A3008 RMK AO2 SLP184 T01890072","FM-15","7",,,,,,,,,,,,,,,,,,,,,,,,,,,,"2006-02-03"
"72287493134","2020-02-14T11:52:00","FM-15","7",,,"3.89","mi",,,,,,,"PENDING COOP",,,,,,,,,,,,,,,,,,,,,,,,,,,"30.07","46","68","0.00",,,,"45","30.06","CLR:00","29.87","8.00","56","VRB",,"3",,,,,,,,,,,,,,,,,,,,,,,,,,,,,,,,,,,,,"MET08902/14/20 11:52:02 METAR KCQT 141952Z VRB03KT 8SM CLR 20/08 A3007 RMK AO2 SLP179 T02000078","FM-15","7",,,,,,,,,,,,,,,,,,,,,,,,,,,,"2006-02-03"
"72287493134","2020-02-14T12:52:00","FM-15","7",,,"3.89","mi",,,,,,,"PENDING COOP",,,,,,,,,,,,,,,,,,,,,,,,,,,"30.04","48","68","0.00",,"+0.04","8","49","30.03","CLR:00","29.84","10.00","57","000",,"0",,,,,,,,,,,,,,,,,,,,,,,,,,,,,,,,,,,,,"MET09602/14/20 12:52:02 METAR KCQT 142052Z 00000KT 10SM CLR 20/09 A3004 RMK AO2 SLP170 T02000089 58015","FM-15","7",,,,,,,,,,,,,,,,,,,,,,,,,,,,"2006-02-03"
"72287493134","2020-02-14T13:52:00","FM-15","7",,,"3.89","mi",,,,,,,"PENDING COOP",,,,,,,,,,,,,,,,,,,,,,,,,,,"30.02","42","70","0.00",,,,"37","30.01","CLR:00","29.82","10.00","55","000",,"0",,,,,,,,,,,,,,,,,,,,,,,,,,,,,,,,,,,,,"MET09002/14/20 13:52:02 METAR KCQT 142152Z 00000KT 10SM CLR 21/06 A3002 RMK AO2 SLP164 T02110056","FM-15","7",,,,,,,,,,,,,,,,,,,,,,,,,,,,"2006-02-03"
"72287493134","2020-02-14T14:52:00","FM-15","7",,,"3.89","mi",,,,,,,"PENDING COOP",,,,,,,,,,,,,,,,,,,,,,,,,,,"30.02","44","68","0.00",,,,"42","30.02","CLR:00","29.82","10.00","55","000",,"0",,,,,,,,,,,,,,,,,,,,,,,,,,,,,,,,,,,,,"MET09002/14/20 14:52:02 METAR KCQT 142252Z 00000KT 10SM CLR 20/07 A3002 RMK AO2 SLP165 T02000067","FM-15","7",,,,,,,,,,,,,,,,,,,,,,,,,,,,"2006-02-03"
"72287493134","2020-02-14T15:52:00","FM-15","7",,,"3.89","mi",,,,,,,"PENDING COOP",,,,,,,,,,,,,,,,,,,,,,,,,,,"30.03","46","66","0.00",,"+0.01","5","49","30.02","CLR:00","29.83","10.00","55","VRB",,"3",,,,,,,,,,,,,,,,,,,,,,,,,,,,,,,,,,,,,"MET10802/14/20 15:52:02 METAR KCQT 142352Z VRB03KT 10SM CLR 19/08 A3003 RMK AO2 SLP167 T01890078 10217 20172 55004","FM-15","7",,,,,,,,,,,,,,,,,,,,,,,,,,,,"2006-02-03"
"72287493134","2020-02-14T16:52:00","FM-15","7",,,"3.89","mi",,,,,,,"PENDING COOP",,,,,,,,,,,,,,,,,,,,,,,,,,,"30.03","46","64","0.00",,,,"52","30.03","CLR:00","29.83","10.00","54","250",,"5",,,,,,,,,,,,,,,,,,,,,,,,,,,,,,,,,,,,,"MET09002/14/20 16:52:01 METAR KCQT 150052Z 25004KT 10SM CLR 18/08 A3003 RMK AO2 SLP168 T01780078","FM-15","7",,,,,,,,,,,,,,,,,,,,,,,,,,,,"2006-02-03"
"72287493134","2020-02-14T17:52:00","FM-15","7",,,"3.89","mi",,,,,,,"PENDING COOP",,,,,,,,,,,,,,,,,,,,,,,,,,,"30.06","47","61","0.00",,,,"60","30.06","CLR:00","29.86","10.00","54","000",,"0",,,,,,,,,,,,,,,,,,,,,,,,,,,,,,,,,,,,,"MET09002/14/20 17:52:01 METAR KCQT 150152Z 00000KT 10SM CLR 16/08 A3006 RMK AO2 SLP178 T01610083","FM-15","7",,,,,,,,,,,,,,,,,,,,,,,,,,,,"2006-02-03"
"72287493134","2020-02-14T18:52:00","FM-15","7",,,"3.89","mi",,,,,,,"PENDING COOP",,,,,,,,,,,,,,,,,,,,,,,,,,,"30.07","49","59","0.00",,"-0.04","3","69","30.07","CLR:00","29.87","10.00","54","000",,"0",,,,,,,,,,,,,,,,,,,,,,,,,,,,,,,,,,,,,"MET09602/14/20 18:52:01 METAR KCQT 150252Z 00000KT 10SM CLR 15/09 A3007 RMK AO2 SLP182 T01500094 53015","FM-15","7",,,,,,,,,,,,,,,,,,,,,,,,,,,,"2006-02-03"
"72287493134","2020-02-14T19:52:00","FM-15","7",,,"3.89","mi",,,,,,,"PENDING COOP",,,,,,,,,,,,,,,,,,,,,,,,,,,"30.09","50","58","0.00",,,,"75","30.09","CLR:00","29.89","10.00","54","000",,"0",,,,,,,,,,,,,,,,,,,,,,,,,,,,,,,,,,,,,"MET09002/14/20 19:52:01 METAR KCQT 150352Z 00000KT 10SM CLR 14/10 A3009 RMK AO2 SLP189 T01440100","FM-15","7",,,,,,,,,,,,,,,,,,,,,,,,,,,,"2006-02-03"
"72287493134","2020-02-14T20:52:00","FM-15","7",,,"3.89","mi",,,,,,,"PENDING COOP",,,,,,,,,,,,,,,,,,,,,,,,,,,"30.11","50","57","0.00",,,,"78","30.10","CLR:00","29.91","9.00","53","000",,"0",,,,,,,,,,,,,,,,,,,,,,,,,,,,,,,,,,,,,"MET08902/14/20 20:52:02 METAR KCQT 150452Z 00000KT 9SM CLR 14/10 A3011 RMK AO2 SLP194 T01390100","FM-15","7",,,,,,,,,,,,,,,,,,,,,,,,,,,,"2006-02-03"
"72287493134","2020-02-14T21:52:00","FM-15","7",,,"3.89","mi",,,,,,,"PENDING COOP",,,,,,,,,,,,,,,,,,,,,,,,,,,"30.11","50","57","0.00",,"-0.04","1","78","30.11","CLR:00","29.91","8.00","53","000",,"0",,,,,,,,,,,,,,,,,,,,,,,,,,,,,,,,,,,,,"MET10702/14/20 21:52:02 METAR KCQT 150552Z 00000KT 8SM CLR 14/10 A3011 RMK AO2 SLP197 T01390100 10189 20133 51015","FM-15","7",,,,,,,,,,,,,,,,,,,,,,,,,,,,"2006-02-03"
"72287493134","2020-02-14T22:52:00","FM-15","7",,,"3.89","mi",,,,,,,"PENDING COOP",,,,,,,,,,,,,,,,,,,,,,,,,,,"30.12","50","56","0.00",,,,"81","30.11","CLR:00","29.92","8.00","53","000",,"0",,,,,,,,,,,,,,,,,,,,,,,,,,,,,,,,,,,,,"MET08902/14/20 22:52:02 METAR KCQT 150652Z 00000KT 8SM CLR 13/10 A3012 RMK AO2 SLP196 T01330100","FM-15","7",,,,,,,,,,,,,,,,,,,,,,,,,,,,"2006-02-03"
"72287493134","2020-02-14T23:52:00","FM-15","7",,,"3.89","mi",,,,,,,"PENDING COOP",,,,,,,,,,,,,,,,,,,,,,,,,,,"30.12","49","56","0.00",,,,"77","30.12","CLR:00","29.92","7.00","52","000",,"0",,,,,,,,,,,,,,,,,,,,,,,,,,,,,,,,,,,,,"MET09902/14/20 23:52:02 METAR KCQT 150752Z 00000KT 7SM CLR 13/09 A3012 RMK AO2 SLP199 T01330094 402170094","FM-15","7",,,,,,,,,,,,,,,,,,,,,,,,,,,,"2006-02-03"
"72287493134","2020-02-14T23:59:00","SOD  ","6",,,"3.89","mi",,,,,,,"PENDING COOP",,,,"46","60","63","30.06","29.86","52","0.6","0","1.1","5","71","49","260","13","0.00",,,"260","8",,,,,,,,,,,,,,,,,,,,,,,,,,,,,,,,,,,,,,,,,,,,,,,,,,,,,,,,,"SOD75624 HR PRECIPITATION (IN): 0.00 SNOW DEPTH (IN):0     24 HR SNOWFALL (IN):0.0  WEATHER(CODE):8  24 HR MAX TEMP (F): 7124 HR MIN TEMP (F): 49AVERAGE STATION PRESSURE:29.860 MINIMUM SEA LEVEL PRESSURE:30.01 TIME OF OCCURRENCE:1424 PEAK WIND SPEED (MPH): 13 PEAK WIND DIR (DEG):260 PEAK WIND TIME (LST):      FASTEST 2MIN SPEED (MPH):  8FASTEST 2MIN DIR (DEG):260 FASTEST 2MIN TIME (LST):     AVERAGE WIND SPEED (MPH): 0.6 24 HR AVG TEMP (F): 60DEPART FROM NORMAL:  1  HEATING DEGREE DAYS:  5 COOLING DEGREE DAYS:  0 LATEST DAY MAX TEMP (0700-1900 LST):71  LATEST NIGHT MIN TEMP(1900-0800 LST):49 HOURLY INCREMENTAL PRECIPITATION VALUES (IN):.00 0.00 0.00 0.00 0.00 0.00 0.00 0.00 0.00 0.00 0.00 0.00 0.00 0.00 0.00 0.00 0.00 0.00 0.00 0.00 0.00 0.00 0.00 0.00","SOD  ","6",,,,,,,,,,,,,,,,,,,,,,,,,"0639","1736",,"2006-02-03"
"72287493134","2020-02-15T00:52:00","FM-15","7",,,"3.89","mi",,,,,,,"PENDING COOP",,,,,,,,,,,,,,,,,,,,,,,,,,,"30.14","47","54","0.00",,"-0.02","3","77","30.13","CLR:00","29.94","8.00","50","000",,"0",,,,,,,,,,,,,,,,,,,,,,,,,,,,,,,,,,,,,"MET09502/15/20 00:52:02 METAR KCQT 150852Z 00000KT 8SM CLR 12/08 A3014 RMK AO2 SLP204 T01220083 53007","FM-15","7",,,,,,,,,,,,,,,,,,,,,,,,,,,,"2006-02-03"
"72287493134","2020-02-15T01:52:00","FM-15","7",,,"3.89","mi",,,,,,,"PENDING COOP",,,,,,,,,,,,,,,,,,,,,,,,,,,"30.13","46","53","0.00",,,,"77","30.13","CLR:00","29.93","7.00","49","000",,"0",,,,,,,,,,,,,,,,,,,,,,,,,,,,,,,,,,,,,"MET08902/15/20 01:52:02 METAR KCQT 150952Z 00000KT 7SM CLR 12/08 A3013 RMK AO2 SLP203 T01170078","FM-15","7",,,,,,,,,,,,,,,,,,,,,,,,,,,,"2006-02-03"
"72287493134","2020-02-15T02:52:00","FM-15","7",,,"3.89","mi",,,,,,,"PENDING COOP",,,,,,,,,,,,,,,,,,,,,,,,,,,"30.13","46","52","0.00",,,,"80","30.13","CLR:00","29.93","7.00","49","000",,"0",,,,,,,,,,,,,,,,,,,,,,,,,,,,,,,,,,,,,"MET08902/15/20 02:52:02 METAR KCQT 151052Z 00000KT 7SM CLR 11/08 A3013 RMK AO2 SLP202 T01110078","FM-15","7",,,,,,,,,,,,,,,,,,,,,,,,,,,,"2006-02-03"
"72287493134","2020-02-15T03:52:00","FM-15","7",,,"3.89","mi",,,,,,,"PENDING COOP",,,,,,,,,,,,,,,,,,,,,,,,,,,"30.14","45","51","0.00",,"+0.00","5","80","30.14","CLR:00","29.94","7.00","48","000",,"0",,,,,,,,,,,,,,,,,,,,,,,,,,,,,,,,,,,,,"MET10702/15/20 03:52:02 METAR KCQT 151152Z 00000KT 7SM CLR 11/07 A3014 RMK AO2 SLP205 T01060072 10139 20106 55000","FM-15","7",,,,,,,,,,,,,,,,,,,,,,,,,,,,"2006-02-03"
"72287493134","2020-02-15T04:52:00","FM-15","7",,,"3.89","mi",,,,,,,"PENDING COOP",,,,,,,,,,,,,,,,,,,,,,,,,,,"30.14","44","50","0.00",,,,"80","30.14","CLR:00","29.94","8.00","47","000",,"0",,,,,,,,,,,,,,,,,,,,,,,,,,,,,,,,,,,,,"MET08902/15/20 04:52:02 METAR KCQT 151252Z 00000KT 8SM CLR 10/07 A3014 RMK AO2 SLP205 T01000067","FM-15","7",,,,,,,,,,,,,,,,,,,,,,,,,,,,"2006-02-03"
"72287493134","2020-02-15T05:52:00","FM-15","7",,,"3.89","mi",,,,,,,"PENDING COOP",,,,,,,,,,,,,,,,,,,,,,,,,,,"30.15","42","50","0.00",,,,"74","30.14","CLR:00","29.95","9.00","46","000",,"0",,,,,,,,,,,,,,,,,,,,,,,,,,,,,,,,,,,,,"MET09302/15/20 05:52:02 METAR KCQT 151352Z 00000KT 9SM CLR 10/06 A3015 RMK AO2 SLP208 T01000056 RTX","FM-15","7",,,,,,,,,,,,,,,,,,,,,,,,,,,,"2006-02-03"
"72287493134","2020-02-15T06:52:00","FM-15","7",,,"3.89","mi",,,,,,,"PENDING COOP",,,,,,,,,,,,,,,,,,,,,,,,,,,"30.15","41","49","0.00",,"-0.01","3","74","30.15","CLR:00","29.95","8.00","45","000",,"0",,,,,,,,,,,,,,,,,,,,,,,,,,,,,,,,,,,,,"MET09502/15/20 06:52:02 METAR KCQT 151452Z 00000KT 8SM CLR 09/05 A3015 RMK AO2 SLP209 T00940050 53004","FM-15","7",,,,,,,,,,,,,,,,,,,,,,,,,,,,"2006-02-03"
"72287493134","2020-02-15T07:52:00","FM-15","7",,,"3.89","mi",,,,,,,"PENDING COOP",,,,,,,,,,,,,,,,,,,,,,,,,,,"30.17","43","53","0.00",,,,"69","30.17","CLR:00","29.97","7.00","48","000",,"0",,,,,,,,,,,,,,,,,,,,,,,,,,,,,,,,,,,,,"MET08902/15/20 07:52:02 METAR KCQT 151552Z 00000KT 7SM CLR 12/06 A3017 RMK AO2 SLP216 T01170061","FM-15","7",,,,,,,,,,,,,,,,,,,,,,,,,,,,"2006-02-03"
"72287493134","2020-02-15T08:52:00","FM-15","7",,,"3.89","mi",,,,,,,"PENDING COOP",,,,,,,,,,,,,,,,,,,,,,,,,,,"30.19","43","59","0.00",,,,"56","30.19","CLR:00","29.99","8.00","51","000",,"0",,,,,,,,,,,,,,,,,,,,,,,,,,,,,,,,,,,,,"MET08902/15/20 08:52:02 METAR KCQT 151652Z 00000KT 8SM CLR 15/06 A3019 RMK AO2 SLP223 T01500061","FM-15","7",,,,,,,,,,,,,,,,,,,,,,,,,,,,"2006-02-03"
"72287493134","2020-02-15T09:52:00","FM-15","7",,,"3.89","mi",,,,,,,"PENDING COOP",,,,,,,,,,,,,,,,,,,,,,,,,,,"30.18","41","63","0.00",,"-0.04","0","45","30.18","CLR:00","29.98","9.00","52","000",,"0",,,,,,,,,,,,,,,,,,,,,,,,,,,,,,,,,,,,,"MET10702/15/20 09:52:02 METAR KCQT 151752Z 00000KT 9SM CLR 17/05 A3018 RMK AO2 SLP221 T01720050 10172 20094 50012","FM-15","7",,,,,,,,,,,,,,,,,,,,,,,,,,,,"2006-02-03"
"72287493134","2020-02-15T10:52:00","FM-15","7",,,"3.89","mi",,,,,,,"PENDING COOP",,,,,,,,,,,,,,,,,,,,,,,,,,,"30.18","39","67","0.00",,,,"36","30.17","CLR:00","29.98","8.00","53","000",,"0",,,,,,,,,,,,,,,,,,,,,,,,,,,,,,,,,,,,,"MET08902/15/20 10:52:02 METAR KCQT 151852Z 00000KT 8SM CLR 19/04 A3018 RMK AO2 SLP218 T01940039","FM-15","7",,,,,,,,,,,,,,,,,,,,,,,,,,,,"2006-02-03"
"72287493134","2020-02-15T11:52:00","FM-15","7",,,"3.89","mi",,,,,,,"PENDING COOP",,,,,,,,,,,,,,,,,,,,,,,,,,,"30.16","39","69","0.00",,,,"33","30.15","CLR:00","29.96","8.00","54","000",,"0",,,,,,,,,,,,,,,,,,,,,,,,,,,,,,,,,,,,,"MET08902/15/20 11:52:02 METAR KCQT 151952Z 00000KT 8SM CLR 21/04 A3016 RMK AO2 SLP210 T02060039","FM-15","7",,,,,,,,,,,,,,,,,,,,,,,,,,,,"2006-02-03"
"72287493134","2020-02-15T12:52:00","FM-15","7",,,"3.89","mi",,,,,,,"PENDING COOP",,,,,,,,,,,,,,,,,,,,,,,,,,,"30.14","51","69","0.00",,"+0.05","8","53","30.13","CLR:00","29.94","7.00","59","000",,"0",,,,,,,,,,,,,,,,,,,,,,,,,,,,,,,,,,,,,"MET09502/15/20 12:52:02 METAR KCQT 152052Z 00000KT 7SM CLR 21/11 A3014 RMK AO2 SLP203 T02060106 58017","FM-15","7",,,,,,,,,,,,,,,,,,,,,,,,,,,,"2006-02-03"
"72287493134","2020-02-15T13:52:00","FM-15","7",,,"3.89","mi",,,,,,,"PENDING COOP",,,,,,,,,,,,,,,,,,,,,,,,,,,"30.12","48","69","0.00",,,,"47","30.11","CLR:00","29.92","8.00","57","250",,"3",,,,,,,,,,,,,,,,,,,,,,,,,,,,,,,,,,,,,"MET08902/15/20 13:52:02 METAR KCQT 152152Z 25003KT 8SM CLR 21/09 A3012 RMK AO2 SLP197 T02060089","FM-15","7",,,,,,,,,,,,,,,,,,,,,,,,,,,,"2006-02-03"
"72287493134","2020-02-15T14:52:00","FM-15","7",,,"3.89","mi",,,,,,,"PENDING COOP",,,,,,,,,,,,,,,,,,,,,,,,,,,"30.11","47","68","0.00",,,,"47","30.11","CLR:00","29.91","10.00","57","VRB",,"5",,,,,,,,,,,,,,,,,,,,,,,,,,,,,,,,,,,,,"MET09002/15/20 14:52:02 METAR KCQT 152252Z VRB04KT 10SM CLR 20/08 A3011 RMK AO2 SLP195 T02000083","FM-15","7",,,,,,,,,,,,,,,,,,,,,,,,,,,,"2006-02-03"
"72287493134","2020-02-15T15:52:00","FM-15","7",,,"3.89","mi",,,,,,,"PENDING COOP",,,,,,,,,,,,,,,,,,,,,,,,,,,"30.11","48","66","0.00",,"+0.03","5","52","30.11","CLR:00","29.91","10.00","56","270",,"8",,,,,,,,,,,,,,,,,,,,,,,,,,,,,,,,,,,,,"MET10802/15/20 15:52:02 METAR KCQT 152352Z 27007KT 10SM CLR 19/09 A3011 RMK AO2 SLP195 T01890089 10211 20172 55009","FM-15","7",,,,,,,,,,,,,,,,,,,,,,,,,,,,"2006-02-03"
"72287493134","2020-02-15T16:52:00","FM-15","7",,,"3.89","mi",,,,,,,"PENDING COOP",,,,,,,,,,,,,,,,,,,,,,,,,,,"30.10","49","64","0.00",,,,"58","30.10","CLR:00","29.90","10.00","56","260",,"5",,,,,,,,,,,,,,,,,,,,,,,,,,,,,,,,,,,,,"MET09002/15/20 16:52:01 METAR KCQT 160052Z 26004KT 10SM CLR 18/09 A3010 RMK AO2 SLP193 T01780094","FM-15","7",,,,,,,,,,,,,,,,,,,,,,,,,,,,"2006-02-03"
"72287493134","2020-02-15T17:52:00","FM-15","7",,,"3.89","mi",,,,,,,"PENDING COOP",,,,,,,,,,,,,,,,,,,,,,,,,,,"30.11","49","61","0.00",,,,"65","30.11","CLR:00","29.91","10.00","55","000",,"0",,,,,,,,,,,,,,,,,,,,,,,,,,,,,,,,,,,,,"MET09002/15/20 17:52:01 METAR KCQT 160152Z 00000KT 10SM CLR 16/09 A3011 RMK AO2 SLP197 T01610094","FM-15","7",,,,,,,,,,,,,,,,,,,,,,,,,,,,"2006-02-03"
"72287493134","2020-02-15T18:52:00","FM-15","7",,,"3.89","mi",,,,,,,"PENDING COOP",,,,,,,,,,,,,,,,,,,,,,,,,,,"30.12","50","60","0.00",,"-0.01","3","70","30.12","CLR:00","29.92","10.00","55","000",,"0",,,,,,,,,,,,,,,,,,,,,,,,,,,,,,,,,,,,,"MET09602/15/20 18:52:01 METAR KCQT 160252Z 00000KT 10SM CLR 16/10 A3012 RMK AO2 SLP200 T01560100 53005","FM-15","7",,,,,,,,,,,,,,,,,,,,,,,,,,,,"2006-02-03"
"72287493134","2020-02-15T19:52:00","FM-15","7",,,"3.89","mi",,,,,,,"PENDING COOP",,,,,,,,,,,,,,,,,,,,,,,,,,,"30.15","50","59","0.00",,,,"72","30.14","CLR:00","29.95","9.00","54","000",,"0",,,,,,,,,,,,,,,,,,,,,,,,,,,,,,,,,,,,,"MET08902/15/20 19:52:01 METAR KCQT 160352Z 00000KT 9SM CLR 15/10 A3015 RMK AO2 SLP208 T01500100","FM-15","7",,,,,,,,,,,,,,,,,,,,,,,,,,,,"2006-02-03"
"72287493134","2020-02-15T20:52:00","FM-15","7",,,"3.89","mi",,,,,,,"PENDING COOP",,,,,,,,,,,,,,,,,,,,,,,,,,,"30.15","51","58","0.00",,,,"78","30.14","CLR:00","29.95","8.00","54","000",,"0",,,,,,,,,,,,,,,,,,,,,,,,,,,,,,,,,,,,,"MET08902/15/20 20:52:02 METAR KCQT 160452Z 00000KT 8SM CLR 14/11 A3015 RMK AO2 SLP208 T01440106","FM-15","7",,,,,,,,,,,,,,,,,,,,,,,,,,,,"2006-02-03"
"72287493134","2020-02-15T21:52:00","FM-15","7",,,"3.89","mi",,,,,,,"PENDING COOP",,,,,,,,,,,,,,,,,,,,,,,,,,,"30.15","51","57","0.00",,"-0.02","1","81","30.14","CLR:00","29.95","7.00","54","000",,"0",,,,,,,,,,,,,,,,,,,,,,,,,,,,,,,,,,,,,"MET10702/15/20 21:52:02 METAR KCQT 160552Z 00000KT 7SM CLR 14/11 A3015 RMK AO2 SLP208 T01390106 10189 20139 51007","FM-15","7",,,,,,,,,,,,,,,,,,,,,,,,,,,,"2006-02-03"
"72287493134","2020-02-15T22:52:00","FM-15","7",,,"3.89","mi",,,,,,,"PENDING COOP",,,,,,,,,,,,,,,,,,,,,,,,,,,"30.15","51","57","0.00","HZ:7 |FU |HZ",,,"81","30.14","CLR:00","29.95","5.00","54","000",,"0",,,,,,,,,,,,,,,,,,,,,,,,,,,,,,,,,,,,,"MET09202/15/20 22:52:02 METAR KCQT 160652Z 00000KT 5SM HZ CLR 14/11 A3015 RMK AO2 SLP206 T01390106","FM-15","7",,,,,,,,,,,,,,,,,,,,,,,,,,,,"2006-02-03"
"72287493134","2020-02-15T23:52:00","FM-15","7",,,"3.89","mi",,,,,,,"PENDING COOP",,,,,,,,,,,,,,,,,,,,,,,,,,,"30.14","50","56","0.00","HZ:7 |FU |HZ",,,"81","30.14","FEW:02 6","29.94","4.00","53","000",,"0",,,,,,,,,,,,,,,,,,,,,,,,,,,,,,,,,,,,,"MET10502/15/20 23:52:02 METAR KCQT 160752Z 00000KT 4SM HZ FEW006 13/10 A3014 RMK AO2 SLP205 T01330100 402110094","FM-15","7",,,,,,,,,,,,,,,,,,,,,,,,,,,,"2006-02-03"
"72287493134","2020-02-15T23:59:00","SOD  ","6",,,"3.89","mi",,,,,,,"PENDING COOP",,,,"46","60","65","30.14","29.94","52","0.9","0","1.1","5","70","49","270","13","0.00",,,"260","8","HZ",,,,,,,,,,,,,,,,,,,,,,,,,,,,,,,,,,,,,,,,,,,,,,,,,,,,,,,,"SOD75624 HR PRECIPITATION (IN): 0.00 SNOW DEPTH (IN):0     24 HR SNOWFALL (IN):0.0  WEATHER(CODE):8  24 HR MAX TEMP (F): 7024 HR MIN TEMP (F): 49AVERAGE STATION PRESSURE:29.940 MINIMUM SEA LEVEL PRESSURE:30.09 TIME OF OCCURRENCE:1629 PEAK WIND SPEED (MPH): 13 PEAK WIND DIR (DEG):270 PEAK WIND TIME (LST):      FASTEST 2MIN SPEED (MPH):  8FASTEST 2MIN DIR (DEG):260 FASTEST 2MIN TIME (LST):     AVERAGE WIND SPEED (MPH): 0.9 24 HR AVG TEMP (F): 60DEPART FROM NORMAL:  1  HEATING DEGREE DAYS:  5 COOLING DEGREE DAYS:  0 LATEST DAY MAX TEMP (0700-1900 LST):70  LATEST NIGHT MIN TEMP(1900-0800 LST):49 HOURLY INCREMENTAL PRECIPITATION VALUES (IN):.00 0.00 0.00 0.00 0.00 0.00 0.00 0.00 0.00 0.00 0.00 0.00 0.00 0.00 0.00 0.00 0.00 0.00 0.00 0.00 0.00 0.00 0.00 0.00","SOD  ","6",,,,,,,,,,,,,,,,,,,,,,,,,"0638","1737",,"2006-02-03"
"72287493134","2020-02-16T00:03:00","FM-16","7",,,"3.89","mi",,,,,,,"PENDING COOP",,,,,,,,,,,,,,,,,,,,,,,,,,,"30.15","50","56",,"HZ:7 |FU |HZ",,,"81",,"BKN:07 6","29.95","4.00","53","000",,"0",,,,,,,,,,,,,,,,,,,,,,,,,,,,,,,,,,,,,"MET08802/16/20 00:03:02 SPECI KCQT 160803Z 00000KT 4SM HZ BKN006 13/10 A3015 RMK AO2 T01330100","FM-16","7",,,,,,,,,,,,,,,,,,,,,,,,,,,,"2006-02-03"
"72287493134","2020-02-16T00:42:00","FM-16","7",,,"3.89","mi",,,,,,,"PENDING COOP",,,,,,,,,,,,,,,,,,,,,,,,,,,"30.15","51","56",,"HZ:7 |FU |HZ",,,"84",,"SCT:04 5","29.95","3.00","53","000",,"0",,,,,,,,,,,,,,,,,,,,,,,,,,,,,,,,,,,,,"MET08802/16/20 00:42:02 SPECI KCQT 160842Z 00000KT 3SM HZ SCT005 13/11 A3015 RMK AO2 T01330106","FM-16","7",,,,,,,,,,,,,,,,,,,,,,,,,,,,"2006-02-03"
"72287493134","2020-02-16T00:52:00","FM-15","7",,,"3.89","mi",,,,,,,"PENDING COOP",,,,,,,,,,,,,,,,,,,,,,,,,,,"30.15","50","56","0.00","HZ:7 |FU |HZ","-0.00","3","81","30.14","FEW:02 5","29.95","3.00","53","000",,"0",,,,,,,,,,,,,,,,,,,,,,,,,,,,,,,,,,,,,"MET10102/16/20 00:52:02 METAR KCQT 160852Z 00000KT 3SM HZ FEW005 13/10 A3015 RMK AO2 SLP208 T01330100 53001","FM-15","7",,,,,,,,,,,,,,,,,,,,,,,,,,,,"2006-02-03"
"72287493134","2020-02-16T00:57:00","FM-16","7",,,"3.89","mi",,,,,,,"PENDING COOP",,,,,,,,,,,,,,,,,,,,,,,,,,,"30.15","50","56",,"HZ:7 |FU |HZ",,,"81",,"CLR:00","29.95","2.50","53","000",,"0",,,,,,,,,,,,,,,,,,,,,,,,,,,,,,,,,,,,,"MET08902/16/20 00:57:02 SPECI KCQT 160857Z 00000KT 2 1/2SM HZ CLR 13/10 A3015 RMK AO2 T01330100","FM-16","7",,,,,,,,,,,,,,,,,,,,,,,,,,,,"2006-02-03"
"72287493134","2020-02-16T01:15:00","FM-16","7",,,"3.89","mi",,,,,,,"PENDING COOP",,,,,,,,,,,,,,,,,,,,,,,,,,,"30.15","50","56",,"HZ:7 |FU |HZ",,,"81",,"CLR:00","29.95","3.00","53","000",,"0",,,,,,,,,,,,,,,,,,,,,,,,,,,,,,,,,,,,,"MET08502/16/20 01:15:02 SPECI KCQT 160915Z 00000KT 3SM HZ CLR 13/10 A3015 RMK AO2 T01330100","FM-16","7",,,,,,,,,,,,,,,,,,,,,,,,,,,,"2006-02-03"
"72287493134","2020-02-16T01:52:00","FM-15","7",,,"3.89","mi",,,,,,,"PENDING COOP",,,,,,,,,,,,,,,,,,,,,,,,,,,"30.16","50","55","0.00","HZ:7 |FU |HZ",,,"83","30.15","FEW:02 5","29.96","4.00","52","000",,"0",,,,,,,,,,,,,,,,,,,,,,,,,,,,,,,,,,,,,"MET09502/16/20 01:52:02 METAR KCQT 160952Z 00000KT 4SM HZ FEW005 13/10 A3016 RMK AO2 SLP210 T01280100","FM-15","7",,,,,,,,,,,,,,,,,,,,,,,,,,,,"2006-02-03"
"72287493134","2020-02-16T02:38:00","FM-16","7",,,"3.89","mi",,,,,,,"PENDING COOP",,,,,,,,,,,,,,,,,,,,,,,,,,,"30.15","50","55",,"HZ:7 |FU |HZ",,,"83",,"SCT:04 4","29.95","2.00","52","000",,"0",,,,,,,,,,,,,,,,,,,,,,,,,,,,,,,,,,,,,"MET08802/16/20 02:38:02 SPECI KCQT 161038Z 00000KT 2SM HZ SCT004 13/10 A3015 RMK AO2 T01280100","FM-16","7",,,,,,,,,,,,,,,,,,,,,,,,,,,,"2006-02-03"
"72287493134","2020-02-16T02:41:00","FM-16","7",,,"3.89","mi",,,,,,,"PENDING COOP",,,,,,,,,,,,,,,,,,,,,,,,,,,"30.15","50","55",,"HZ:7 |FU |HZ",,,"83",,"BKN:07 4","29.95","1.50","52","000",,"0",,,,,,,,,,,,,,,,,,,,,,,,,,,,,,,,,,,,,"MET09202/16/20 02:41:02 SPECI KCQT 161041Z 00000KT 1 1/2SM HZ BKN004 13/10 A3015 RMK AO2 T01280100","FM-16","7",,,,,,,,,,,,,,,,,,,,,,,,,,,,"2006-02-03"
"72287493134","2020-02-16T02:47:00","FM-16","7",,,"3.89","mi",,,,,,,"PENDING COOP",,,,,,,,,,,,,,,,,,,,,,,,,,,"30.15","50","54",,"BR:1 ||",,,"87",,"VV:09 2","29.95","0.75","52","000",,"0",,,,,,,,,,,,,,,,,,,,,,,,,,,,,,,,,,,,,"MET08902/16/20 02:47:02 SPECI KCQT 161047Z 00000KT 3/4SM BR VV002 12/10 A3015 RMK AO2 T01220100","FM-16","7",,,,,,,,,,,,,,,,,,,,,,,,,,,,"2006-02-03"
"72287493134","2020-02-16T02:52:00","FM-15","7",,,"3.89","mi",,,,,,,"PENDING COOP",,,,,,,,,,,,,,,,,,,,,,,,,,,"30.15","51","55","0.00","FG:2 |FG |",,,"87","30.15","VV:09 2","29.95","0.50","53","000",,"0",,,,,,,,,,,,,,,,,,,,,,,,,,,,,,,,,,,,,"MET09602/16/20 02:52:02 METAR KCQT 161052Z 00000KT 1/2SM FG VV002 13/11 A3015 RMK AO2 SLP209 T01280106","FM-15","7",,,,,,,,,,,,,,,,,,,,,,,,,,,,"2006-02-03"
"72287493134","2020-02-16T03:15:00","FM-16","7",,,"3.89","mi",,,,,,,"PENDING COOP",,,,,,,,,,,,,,,,,,,,,,,,,,,"30.15","50","54",,"BR:1 ||",,,"87",,"VV:09 3","29.95","1.00","52","000",,"0",,,,,,,,,,,,,,,,,,,,,,,,,,,,,,,,,,,,,"MET08702/16/20 03:15:02 SPECI KCQT 161115Z 00000KT 1SM BR VV003 12/10 A3015 RMK AO2 T01220100","FM-16","7",,,,,,,,,,,,,,,,,,,,,,,,,,,,"2006-02-03"
"72287493134","2020-02-16T03:28:00","FM-16","7",,,"3.89","mi",,,,,,,"PENDING COOP",,,,,,,,,,,,,,,,,,,,,,,,,,,"30.15","50","54",,"BR:1 ||",,,"87",,"VV:09 5","29.95","1.00","52","000",,"0",,,,,,,,,,,,,,,,,,,,,,,,,,,,,,,,,,,,,"MET08702/16/20 03:28:02 SPECI KCQT 161128Z 00000KT 1SM BR VV005 12/10 A3015 RMK AO2 T01220100","FM-16","7",,,,,,,,,,,,,,,,,,,,,,,,,,,,"2006-02-03"
"72287493134","2020-02-16T03:34:00","FM-16","7",,,"3.89","mi",,,,,,,"PENDING COOP",,,,,,,,,,,,,,,,,,,,,,,,,,,"30.15","50","54",,"BR:1 ||",,,"87",,"VV:09 4","29.95","0.75","52","000",,"0",,,,,,,,,,,,,,,,,,,,,,,,,,,,,,,,,,,,,"MET08902/16/20 03:34:02 SPECI KCQT 161134Z 00000KT 3/4SM BR VV004 12/10 A3015 RMK AO2 T01220100","FM-16","7",,,,,,,,,,,,,,,,,,,,,,,,,,,,"2006-02-03"
"72287493134","2020-02-16T03:52:00","FM-15","7",,,"3.89","mi",,,,,,,"PENDING COOP",,,,,,,,,,,,,,,,,,,,,,,,,,,"30.15","49","53","0.00","FG:2 |FG |","+0.01","8","86","30.14","VV:09 3","29.95","0.25","51","000",,"0",,,,,,,,,,,,,,,,,,,,,,,,,,,,,,,,,,,,,"MET11402/16/20 03:52:02 METAR KCQT 161152Z 00000KT 1/4SM FG VV003 12/09 A3015 RMK AO2 SLP207 T01170094 10144 20117 58002","FM-15","7",,,,,,,,,,,,,,,,,,,,,,,,,,,,"2006-02-03"
"72287493134","2020-02-16T04:52:00","FM-15","7",,,"3.89","mi",,,,,,,"PENDING COOP",,,,,,,,,,,,,,,,,,,,,,,,,,,"30.14","48","52","0.00","BR:1 ||",,,"86","30.14","VV:09 6","29.94","0.75","50","000",,"0",,,,,,,,,,,,,,,,,,,,,,,,,,,,,,,,,,,,,"MET09602/16/20 04:52:02 METAR KCQT 161252Z 00000KT 3/4SM BR VV006 11/09 A3014 RMK AO2 SLP207 T01110089","FM-15","7",,,,,,,,,,,,,,,,,,,,,,,,,,,,"2006-02-03"
"72287493134","2020-02-16T04:55:00","FM-16","7",,,"3.89","mi",,,,,,,"PENDING COOP",,,,,,,,,,,,,,,,,,,,,,,,,,,"30.14","48","52",,"BR:1 ||",,,"86",,"BKN:07 6","29.94","1.25","50","000",,"0",,,,,,,,,,,,,,,,,,,,,,,,,,,,,,,,,,,,,"MET09202/16/20 04:55:02 SPECI KCQT 161255Z 00000KT 1 1/4SM BR BKN006 11/09 A3014 RMK AO2 T01110089","FM-16","7",,,,,,,,,,,,,,,,,,,,,,,,,,,,"2006-02-03"
"72287493134","2020-02-16T05:05:00","FM-16","7",,,"3.89","mi",,,,,,,"PENDING COOP",,,,,,,,,,,,,,,,,,,,,,,,,,,"30.14","48","51",,"BR:1 ||",,,"89",,"BKN:07 8","29.94","2.00","49","000",,"0",,,,,,,,,,,,,,,,,,,,,,,,,,,,,,,,,,,,,"MET08802/16/20 05:05:02 SPECI KCQT 161305Z 00000KT 2SM BR BKN008 11/09 A3014 RMK AO2 T01060089","FM-16","7",,,,,,,,,,,,,,,,,,,,,,,,,,,,"2006-02-03"
"72287493134","2020-02-16T05:12:00","FM-16","7",,,"3.89","mi",,,,,,,"PENDING COOP",,,,,,,,,,,,,,,,,,,,,,,,,,,"30.14","48","51",,"BR:1 ||",,,"89",,"BKN:07 10","29.94","1.25","49","000",,"0",,,,,,,,,,,,,,,,,,,,,,,,,,,,,,,,,,,,,"MET09202/16/20 05:12:02 SPECI KCQT 161312Z 00000KT 1 1/4SM BR BKN010 11/09 A3014 RMK AO2 T01060089","FM-16","7",,,,,,,,,,,,,,,,,,,,,,,,,,,,"2006-02-03"
"72287493134","2020-02-16T05:32:00","FM-16","7",,,"3.89","mi",,,,,,,"PENDING COOP",,,,,,,,,,,,,,,,,,,,,,,,,,,"30.14","47","51",,"BR:1 ||",,,"86",,"SCT:04 11","29.94","2.50","49","000",,"0",,,,,,,,,,,,,,,,,,,,,,,,,,,,,,,,,,,,,"MET09602/16/20 05:32:02 SPECI KCQT 161332Z 00000KT 2 1/2SM BR SCT011 11/08 A3014 RMK AO2 T01060083 RTX","FM-16","7",,,,,,,,,,,,,,,,,,,,,,,,,,,,"2006-02-03"
"72287493134","2020-02-16T05:40:00","FM-16","7",,,"3.89","mi",,,,,,,"PENDING COOP",,,,,,,,,,,,,,,,,,,,,,,,,,,"30.14","47","51",,"BR:1 ||",,,"86",,"SCT:04 11","29.94","3.00","49","000",,"0",,,,,,,,,,,,,,,,,,,,,,,,,,,,,,,,,,,,,"MET08802/16/20 05:40:02 SPECI KCQT 161340Z 00000KT 3SM BR SCT011 11/08 A3014 RMK AO2 T01060083","FM-16","7",,,,,,,,,,,,,,,,,,,,,,,,,,,,"2006-02-03"
"72287493134","2020-02-16T05:52:00","FM-15","7",,,"3.89","mi",,,,,,,"PENDING COOP",,,,,,,,,,,,,,,,,,,,,,,,,,,"30.14","47","51","0.00","BR:1 ||",,,"86","30.14","CLR:00","29.94","4.00","49","000",,"0",,,,,,,,,,,,,,,,,,,,,,,,,,,,,,,,,,,,,"MET09602/16/20 05:52:02 METAR KCQT 161352Z 00000KT 4SM BR CLR 11/08 A3014 RMK AO2 SLP205 T01060083 RTX","FM-15","7",,,,,,,,,,,,,,,,,,,,,,,,,,,,"2006-02-03"
"72287493134","2020-02-16T06:52:00","FM-15","7",,,"3.89","mi",,,,,,,"PENDING COOP",,,,,,,,,,,,,,,,,,,,,,,,,,,"30.15","46","51","0.00","HZ:7 |FU |HZ","-0.01","3","83","30.15","CLR:00","29.95","3.00","49","000",,"0",,,,,,,,,,,,,,,,,,,,,,,,,,,,,,,,,,,,,"MET09802/16/20 06:52:02 METAR KCQT 161452Z 00000KT 3SM HZ CLR 11/08 A3015 RMK AO2 SLP209 T01060078 53002","FM-15","7",,,,,,,,,,,,,,,,,,,,,,,,,,,,"2006-02-03"
"72287493134","2020-02-16T07:52:00","FM-15","7",,,"3.89","mi",,,,,,,"PENDING COOP",,,,,,,,,,,,,,,,,,,,,,,,,,,"30.16","46","55","0.00","HZ:7 |FU |HZ",,,"72","30.16","CLR:00","29.96","5.00","50","000",,"0",,,,,,,,,,,,,,,,,,,,,,,,,,,,,,,,,,,,,"MET09202/16/20 07:52:02 METAR KCQT 161552Z 00000KT 5SM HZ CLR 13/08 A3016 RMK AO2 SLP212 T01280078","FM-15","7",,,,,,,,,,,,,,,,,,,,,,,,,,,,"2006-02-03"
"72287493134","2020-02-16T08:52:00","FM-15","7",,,"3.89","mi",,,,,,,"PENDING COOP",,,,,,,,,,,,,,,,,,,,,,,,,,,"30.15","46","60","0.00","HZ:7 |FU |HZ",,,"60","30.14","CLR:00","29.95","6.00","53","000",,"0",,,,,,,,,,,,,,,,,,,,,,,,,,,,,,,,,,,,,"MET09202/16/20 08:52:02 METAR KCQT 161652Z 00000KT 6SM HZ CLR 16/08 A3015 RMK AO2 SLP208 T01560078","FM-15","7",,,,,,,,,,,,,,,,,,,,,,,,,,,,"2006-02-03"
"72287493134","2020-02-16T09:52:00","FM-15","7",,,"3.89","mi",,,,,,,"PENDING COOP",,,,,,,,,,,,,,,,,,,,,,,,,,,"30.13","45","64","0.00",,"+0.02","8","50","30.12","CLR:00","29.93","9.00","54","000",,"0",,,,,,,,,,,,,,,,,,,,,,,,,,,,,,,,,,,,,"MET10702/16/20 09:52:02 METAR KCQT 161752Z 00000KT 9SM CLR 18/07 A3013 RMK AO2 SLP201 T01780072 10178 20106 58007","FM-15","7",,,,,,,,,,,,,,,,,,,,,,,,,,,,"2006-02-03"
"72287493134","2020-02-16T10:52:00","FM-15","7",,,"3.89","mi",,,,,,,"PENDING COOP",,,,,,,,,,,,,,,,,,,,,,,,,,,"30.10","42","68","0.00",,,,"39","30.10","CLR:00","29.90","10.00","54","000",,"0",,,,,,,,,,,,,,,,,,,,,,,,,,,,,,,,,,,,,"MET09002/16/20 10:52:02 METAR KCQT 161852Z 00000KT 10SM CLR 20/06 A3010 RMK AO2 SLP192 T02000056","FM-15","7",,,,,,,,,,,,,,,,,,,,,,,,,,,,"2006-02-03"
"72287493134","2020-02-16T11:52:00","FM-15","7",,,"3.89","mi",,,,,,,"PENDING COOP",,,,,,,,,,,,,,,,,,,,,,,,,,,"30.07","43","70","0.00",,,,"38","30.06","CLR:00","29.87","10.00","56","000",,"0",,,,,,,,,,,,,,,,,,,,,,,,,,,,,,,,,,,,,"MET09002/16/20 11:52:02 METAR KCQT 161952Z 00000KT 10SM CLR 21/06 A3007 RMK AO2 SLP181 T02110061","FM-15","7",,,,,,,,,,,,,,,,,,,,,,,,,,,,"2006-02-03"
"72287493134","2020-02-16T12:52:00","FM-15","7",,,"3.89","mi",,,,,,,"PENDING COOP",,,,,,,,,,,,,,,,,,,,,,,,,,,"30.04","48","69","0.00",,"+0.09","8","47","30.03","CLR:00","29.84","9.00","57","000",,"0",,,,,,,,,,,,,,,,,,,,,,,,,,,,,,,,,,,,,"MET09502/16/20 12:52:02 METAR KCQT 162052Z 00000KT 9SM CLR 21/09 A3004 RMK AO2 SLP171 T02060089 58029","FM-15","7",,,,,,,,,,,,,,,,,,,,,,,,,,,,"2006-02-03"
"72287493134","2020-02-16T13:52:00","FM-15","7",,,"3.89","mi",,,,,,,"PENDING COOP",,,,,,,,,,,,,,,,,,,,,,,,,,,"30.01","48","69","0.00",,,,"47","30.01","CLR:00","29.81","10.00","57","VRB",,"3",,,,,,,,,,,,,,,,,,,,,,,,,,,,,,,,,,,,,"MET09002/16/20 13:52:02 METAR KCQT 162152Z VRB03KT 10SM CLR 21/09 A3001 RMK AO2 SLP162 T02060089","FM-15","7",,,,,,,,,,,,,,,,,,,,,,,,,,,,"2006-02-03"
"72287493134","2020-02-16T14:52:00","FM-15","7",,,"3.89","mi",,,,,,,"PENDING COOP",,,,,,,,,,,,,,,,,,,,,,,,,,,"30.01","46","68","0.00",,,,"45","30.01","CLR:00","29.81","10.00","56","000",,"0",,,,,,,,,,,,,,,,,,,,,,,,,,,,,,,,,,,,,"MET09002/16/20 14:52:02 METAR KCQT 162252Z 00000KT 10SM CLR 20/08 A3001 RMK AO2 SLP161 T02000078","FM-15","7",,,,,,,,,,,,,,,,,,,,,,,,,,,,"2006-02-03"
"72287493134","2020-02-16T15:52:00","FM-15","7",,,"3.89","mi",,,,,,,"PENDING COOP",,,,,,,,,,,,,,,,,,,,,,,,,,,"30.02","47","66","0.00",,"+0.02","5","50","30.01","CLR:00","29.82","10.00","56","VRB",,"6",,,,,,,,,,,,,,,,,,,,,,,,,,,,,,,,,,,,,"MET10802/16/20 15:52:02 METAR KCQT 162352Z VRB05KT 10SM CLR 19/08 A3002 RMK AO2 SLP164 T01890083 10222 20178 55008","FM-15","7",,,,,,,,,,,,,,,,,,,,,,,,,,,,"2006-02-03"
"72287493134","2020-02-16T16:52:00","FM-15","7",,,"3.89","mi",,,,,,,"PENDING COOP",,,,,,,,,,,,,,,,,,,,,,,,,,,"30.02","49","64","0.00",,,,"58","30.01","CLR:00","29.82","10.00","56","250",,"3",,,,,,,,,,,,,,,,,,,,,,,,,,,,,,,,,,,,,"MET09002/16/20 16:52:01 METAR KCQT 170052Z 25003KT 10SM CLR 18/09 A3002 RMK AO2 SLP164 T01780094","FM-15","7",,,,,,,,,,,,,,,,,,,,,,,,,,,,"2006-02-03"
"72287493134","2020-02-16T17:52:00","FM-15","7",,,"3.89","mi",,,,,,,"PENDING COOP",,,,,,,,,,,,,,,,,,,,,,,,,,,"30.02","50","62","0.00",,,,"65","30.02","CLR:00","29.82","9.00","55","000",,"0",,,,,,,,,,,,,,,,,,,,,,,,,,,,,,,,,,,,,"MET08902/16/20 17:52:01 METAR KCQT 170152Z 00000KT 9SM CLR 17/10 A3002 RMK AO2 SLP165 T01670100","FM-15","7",,,,,,,,,,,,,,,,,,,,,,,,,,,,"2006-02-03"
"72287493134","2020-02-16T18:52:00","FM-15","7",,,"3.89","mi",,,,,,,"PENDING COOP",,,,,,,,,,,,,,,,,,,,,,,,,,,"30.01","51","61","0.00",,"+0.00","8","70","30.01","CLR:00","29.81","10.00","56","000",,"0",,,,,,,,,,,,,,,,,,,,,,,,,,,,,,,,,,,,,"MET09602/16/20 18:52:01 METAR KCQT 170252Z 00000KT 10SM CLR 16/11 A3001 RMK AO2 SLP163 T01610106 58001","FM-15","7",,,,,,,,,,,,,,,,,,,,,,,,,,,,"2006-02-03"
"72287493134","2020-02-16T19:52:00","FM-15","7",,,"3.89","mi",,,,,,,"PENDING COOP",,,,,,,,,,,,,,,,,,,,,,,,,,,"30.02","51","59","0.00",,,,"75","30.01","CLR:00","29.82","10.00","55","000",,"0",,,,,,,,,,,,,,,,,,,,,,,,,,,,,,,,,,,,,"MET09002/16/20 19:52:01 METAR KCQT 170352Z 00000KT 10SM CLR 15/11 A3002 RMK AO2 SLP163 T01500106","FM-15","7",,,,,,,,,,,,,,,,,,,,,,,,,,,,"2006-02-03"
"72287493134","2020-02-16T20:52:00","FM-15","7",,,"3.89","mi",,,,,,,"PENDING COOP",,,,,,,,,,,,,,,,,,,,,,,,,,,"30.02","51","58","0.00",,,,"78","30.02","CLR:00","29.82","9.00","54","000",,"0",,,,,,,,,,,,,,,,,,,,,,,,,,,,,,,,,,,,,"MET08902/16/20 20:52:02 METAR KCQT 170452Z 00000KT 9SM CLR 14/11 A3002 RMK AO2 SLP165 T01440106","FM-15","7",,,,,,,,,,,,,,,,,,,,,,,,,,,,"2006-02-03"
"72287493134","2020-02-16T21:52:00","FM-15","7",,,"3.89","mi",,,,,,,"PENDING COOP",,,,,,,,,,,,,,,,,,,,,,,,,,,"30.01","51","58","0.00",,"-0.00","0","78","30.01","CLR:00","29.81","8.00","54","000",,"0",,,,,,,,,,,,,,,,,,,,,,,,,,,,,,,,,,,,,"MET10702/16/20 21:52:02 METAR KCQT 170552Z 00000KT 8SM CLR 14/11 A3001 RMK AO2 SLP162 T01440106 10189 20139 50000","FM-15","7",,,,,,,,,,,,,,,,,,,,,,,,,,,,"2006-02-03"
"72287493134","2020-02-16T22:52:00","FM-15","7",,,"3.89","mi",,,,,,,"PENDING COOP",,,,,,,,,,,,,,,,,,,,,,,,,,,"30.00","50","56","0.00",,,,"81","30.00","CLR:00","29.80","8.00","53","000",,"0",,,,,,,,,,,,,,,,,,,,,,,,,,,,,,,,,,,,,"MET08902/16/20 22:52:02 METAR KCQT 170652Z 00000KT 8SM CLR 13/10 A3000 RMK AO2 SLP158 T01330100","FM-15","7",,,,,,,,,,,,,,,,,,,,,,,,,,,,"2006-02-03"
"72287493134","2020-02-16T23:52:00","FM-15","7",,,"3.89","mi",,,,,,,"PENDING COOP",,,,,,,,,,,,,,,,,,,,,,,,,,,"29.99","50","57","0.00",,,,"78","29.98","CLR:00","29.79","7.00","53","000",,"0",,,,,,,,,,,,,,,,,,,,,,,,,,,,,,,,,,,,,"MET09902/16/20 23:52:02 METAR KCQT 170752Z 00000KT 7SM CLR 14/10 A2999 RMK AO2 SLP154 T01390100 402220106","FM-15","7",,,,,,,,,,,,,,,,,,,,,,,,,,,,"2006-02-03"
"72287493134","2020-02-16T23:59:00","SOD  ","6",,,"3.89","mi",,,,,,,"PENDING COOP",,,,"48","62","67","30.07","29.91","54","0.5","0","3.0","3","72","51","270","13","0.00",,,"260","8","FG BR HZ",,,,,,,,,,,,,,,,,,,,,,,,,,,,,,,,,,,,,,,,,,,,,,,,,,,,,,,,"SOD76224 HR PRECIPITATION (IN): 0.00 SNOW DEPTH (IN):0     24 HR SNOWFALL (IN):0.0  WEATHER(CODE):128  24 HR MAX TEMP (F): 7224 HR MIN TEMP (F): 51AVERAGE STATION PRESSURE(D):29.904 MINIMUM SEA LEVEL PRESSURE:29.98 TIME OF OCCURRENCE:2359 PEAK WIND SPEED (MPH): 13 PEAK WIND DIR (DEG):270 PEAK WIND TIME (LST):      FASTEST 2MIN SPEED (MPH):  8FASTEST 2MIN DIR (DEG):260 FASTEST 2MIN TIME (LST):     AVERAGE WIND SPEED (MPH): 0.5 24 HR AVG TEMP (F): 62DEPART FROM NORMAL:  3  HEATING DEGREE DAYS:  3 COOLING DEGREE DAYS:  0 LATEST DAY MAX TEMP (0700-1900 LST): 72 LATEST NIGHT MIN TEMP(1900-0800 LST):51 HOURLY INCREMENTAL PRECIPITATION VALUES (IN):0.00 0.00 0.00 0.00 0.00 0.00 0.00 0.00 0.00 0.00 0.00 0.00 0.00 0.00 0.00 0.00 0.00 0.00 0.00 0.00 0.00 0.00 0.00 0.00","SOD  ","6",,,,,,,,,,,,,,,,,,,,,,,,,"0637","1738",,"2006-02-03"
"72287493134","2020-02-17T00:52:00","FM-15","7",,,"3.89","mi",,,,,,,"PENDING COOP",,,,,,,,,,,,,,,,,,,,,,,,,,,"29.98","49","54","0.00","HZ:7 |FU |HZ","+0.03","6","83","29.98","CLR:00","29.78","6.00","51","000",,"0",,,,,,,,,,,,,,,,,,,,,,,,,,,,,,,,,,,,,"MET09802/17/20 00:52:02 METAR KCQT 170852Z 00000KT 6SM HZ CLR 12/09 A2998 RMK AO2 SLP151 T01220094 56010","FM-15","7",,,,,,,,,,,,,,,,,,,,,,,,,,,,"2006-02-03"
"72287493134","2020-02-17T01:52:00","FM-15","7",,,"3.89","mi",,,,,,,"PENDING COOP",,,,,,,,,,,,,,,,,,,,,,,,,,,"29.98","48","53","0.00","HZ:7 |FU |HZ",,,"83","29.98","CLR:00","29.78","6.00","50","000",,"0",,,,,,,,,,,,,,,,,,,,,,,,,,,,,,,,,,,,,"MET09202/17/20 01:52:02 METAR KCQT 170952Z 00000KT 6SM HZ CLR 12/09 A2998 RMK AO2 SLP151 T01170089","FM-15","7",,,,,,,,,,,,,,,,,,,,,,,,,,,,"2006-02-03"
"72287493134","2020-02-17T02:52:00","FM-15","7",,,"3.89","mi",,,,,,,"PENDING COOP",,,,,,,,,,,,,,,,,,,,,,,,,,,"29.98","47","53","0.00",,,,"80","29.97","CLR:00","29.78","7.00","50","000",,"0",,,,,,,,,,,,,,,,,,,,,,,,,,,,,,,,,,,,,"MET08902/17/20 02:52:02 METAR KCQT 171052Z 00000KT 7SM CLR 12/08 A2998 RMK AO2 SLP149 T01170083","FM-15","7",,,,,,,,,,,,,,,,,,,,,,,,,,,,"2006-02-03"
"72287493134","2020-02-17T03:52:00","FM-15","7",,,"3.89","mi",,,,,,,"PENDING COOP",,,,,,,,,,,,,,,,,,,,,,,,,,,"29.96","46","53","0.00",,"+0.02","8","77","29.96","CLR:00","29.76","8.00","49","000",,"0",,,,,,,,,,,,,,,,,,,,,,,,,,,,,,,,,,,,,"MET10702/17/20 03:52:02 METAR KCQT 171152Z 00000KT 8SM CLR 12/08 A2996 RMK AO2 SLP145 T01170078 10144 20111 58007","FM-15","7",,,,,,,,,,,,,,,,,,,,,,,,,,,,"2006-02-03"
"72287493134","2020-02-17T04:52:00","FM-15","7",,,"3.89","mi",,,,,,,"PENDING COOP",,,,,,,,,,,,,,,,,,,,,,,,,,,"29.97","46","54","0.00","HZ:7 |FU |HZ",,,"75","29.96","CLR:00","29.77","6.00","50","000",,"0",,,,,,,,,,,,,,,,,,,,,,,,,,,,,,,,,,,,,"MET09202/17/20 04:52:02 METAR KCQT 171252Z 00000KT 6SM HZ CLR 12/08 A2997 RMK AO2 SLP146 T01220078","FM-15","7",,,,,,,,,,,,,,,,,,,,,,,,,,,,"2006-02-03"
"72287493134","2020-02-17T04:59:00","FM-16","7",,,"3.89","mi",,,,,,,"PENDING COOP",,,,,,,,,,,,,,,,,,,,,,,,,,,"29.97","46","53",,"HZ:7 |FU |HZ",,,"77",,"FEW:02 7","29.77","6.00","49","000",,"0",,,,,,,,,,,,,,,,,,,,,,,,,,,,,,,,,,,,,"MET08802/17/20 04:59:02 SPECI KCQT 171259Z 00000KT 6SM HZ FEW007 12/08 A2997 RMK AO2 T01170078","FM-16","7",,,,,,,,,,,,,,,,,,,,,,,,,,,,"2006-02-03"
"72287493134","2020-02-17T05:52:00","FM-15","7",,,"3.89","mi",,,,,,,"PENDING COOP",,,,,,,,,,,,,,,,,,,,,,,,,,,"29.97","45","51","0.00",,,,"80","29.97","CLR:00","29.77","7.00","48","000",,"0",,,,,,,,,,,,,,,,,,,,,,,,,,,,,,,,,,,,,"MET08902/17/20 05:52:02 METAR KCQT 171352Z 00000KT 7SM CLR 11/07 A2997 RMK AO2 SLP148 T01060072","FM-15","7",,,,,,,,,,,,,,,,,,,,,,,,,,,,"2006-02-03"
"72287493134","2020-02-17T06:41:00","FM-16","7",,,"3.89","mi",,,,,,,"PENDING COOP",,,,,,,,,,,,,,,,,,,,,,,,,,,"29.98","45","51",,"HZ:7 |FU |HZ",,,"80",,"FEW:02 5","29.78","6.00","48","000",,"0",,,,,,,,,,,,,,,,,,,,,,,,,,,,,,,,,,,,,"MET08802/17/20 06:41:02 SPECI KCQT 171441Z 00000KT 6SM HZ FEW005 11/07 A2998 RMK AO2 T01060072","FM-16","7",,,,,,,,,,,,,,,,,,,,,,,,,,,,"2006-02-03"
"72287493134","2020-02-17T06:52:00","FM-15","7",,,"3.89","mi",,,,,,,"PENDING COOP",,,,,,,,,,,,,,,,,,,,,,,,,,,"29.97","45","51","0.00","HZ:7 |FU |HZ","-0.01","1","80","29.97","FEW:02 6","29.77","5.00","48","000",,"0",,,,,,,,,,,,,,,,,,,,,,,,,,,,,,,,,,,,,"MET10102/17/20 06:52:02 METAR KCQT 171452Z 00000KT 5SM HZ FEW006 11/07 A2997 RMK AO2 SLP150 T01060072 51005","FM-15","7",,,,,,,,,,,,,,,,,,,,,,,,,,,,"2006-02-03"
"72287493134","2020-02-17T07:52:00","FM-15","7",,,"3.89","mi",,,,,,,"PENDING COOP",,,,,,,,,,,,,,,,,,,,,,,,,,,"29.98","47","53","0.00","HZ:7 |FU |HZ",,,"80","29.97","CLR:00","29.78","4.00","50","000",,"0",,,,,,,,,,,,,,,,,,,,,,,,,,,,,,,,,,,,,"MET09202/17/20 07:52:02 METAR KCQT 171552Z 00000KT 4SM HZ CLR 12/08 A2998 RMK AO2 SLP150 T01170083","FM-15","7",,,,,,,,,,,,,,,,,,,,,,,,,,,,"2006-02-03"
"72287493134","2020-02-17T08:52:00","FM-15","7",,,"3.89","mi",,,,,,,"PENDING COOP",,,,,,,,,,,,,,,,,,,,,,,,,,,"29.98","49","58","0.00","HZ:7 |FU |HZ",,,"72","29.98","CLR:00","29.78","4.00","53","VRB",,"3",,,,,,,,,,,,,,,,,,,,,,,,,,,,,,,,,,,,,"MET09202/17/20 08:52:02 METAR KCQT 171652Z VRB03KT 4SM HZ CLR 14/09 A2998 RMK AO2 SLP152 T01440094","FM-15","7",,,,,,,,,,,,,,,,,,,,,,,,,,,,"2006-02-03"
"72287493134","2020-02-17T09:52:00","FM-15","7",,,"3.89","mi",,,,,,,"PENDING COOP",,,,,,,,,,,,,,,,,,,,,,,,,,,"29.98","49","63","0.00","HZ:7 |FU |HZ","-0.00","0","60","29.97","CLR:00","29.78","5.00","55","000",,"0",,,,,,,,,,,,,,,,,,,,,,,,,,,,,,,,,,,,,"MET11002/17/20 09:52:02 METAR KCQT 171752Z 00000KT 5SM HZ CLR 17/09 A2998 RMK AO2 SLP150 T01720094 10172 20106 50001","FM-15","7",,,,,,,,,,,,,,,,,,,,,,,,,,,,"2006-02-03"
"72287493134","2020-02-17T10:52:00","FM-15","7",,,"3.89","mi",,,,,,,"PENDING COOP",,,,,,,,,,,,,,,,,,,,,,,,,,,"29.96","49","65","0.00","HZ:7 |FU |HZ",,,"56","29.96","CLR:00","29.76","5.00","56","000",,"0",,,,,,,,,,,,,,,,,,,,,,,,,,,,,,,,,,,,,"MET09202/17/20 10:52:02 METAR KCQT 171852Z 00000KT 5SM HZ CLR 18/09 A2996 RMK AO2 SLP145 T01830094","FM-15","7",,,,,,,,,,,,,,,,,,,,,,,,,,,,"2006-02-03"
"72287493134","2020-02-17T11:52:00","FM-15","7",,,"3.89","mi",,,,,,,"PENDING COOP",,,,,,,,,,,,,,,,,,,,,,,,,,,"29.94","46","68","0.00",,,,"45","29.93","CLR:00","29.74","7.00","56","000",,"0",,,,,,,,,,,,,,,,,,,,,,,,,,,,,,,,,,,,,"MET08902/17/20 11:52:02 METAR KCQT 171952Z 00000KT 7SM CLR 20/08 A2994 RMK AO2 SLP136 T02000078","FM-15","7",,,,,,,,,,,,,,,,,,,,,,,,,,,,"2006-02-03"
"72287493134","2020-02-17T12:52:00","FM-15","7",,,"3.89","mi",,,,,,,"PENDING COOP",,,,,,,,,,,,,,,,,,,,,,,,,,,"29.91","50","69","0.00",,"+0.07","8","51","29.90","CLR:00","29.71","8.00","58","000",,"0",,,,,,,,,,,,,,,,,,,,,,,,,,,,,,,,,,,,,"MET09502/17/20 12:52:02 METAR KCQT 172052Z 00000KT 8SM CLR 21/10 A2991 RMK AO2 SLP126 T02060100 58023","FM-15","7",,,,,,,,,,,,,,,,,,,,,,,,,,,,"2006-02-03"
"72287493134","2020-02-17T13:52:00","FM-15","7",,,"3.89","mi",,,,,,,"PENDING COOP",,,,,,,,,,,,,,,,,,,,,,,,,,,"29.89","50","70","0.00",,,,"49","29.89","CLR:00","29.69","10.00","59","250",,"3",,,,,,,,,,,,,,,,,,,,,,,,,,,,,,,,,,,,,"MET09002/17/20 13:52:02 METAR KCQT 172152Z 25003KT 10SM CLR 21/10 A2989 RMK AO2 SLP121 T02110100","FM-15","7",,,,,,,,,,,,,,,,,,,,,,,,,,,,"2006-02-03"
"72287493134","2020-02-17T14:52:00","FM-15","7",,,"3.89","mi",,,,,,,"PENDING COOP",,,,,,,,,,,,,,,,,,,,,,,,,,,"29.88","50","69","0.00",,,,"51","29.87","CLR:00","29.68","10.00","58","VRB",,"3",,,,,,,,,,,,,,,,,,,,,,,,,,,,,,,,,,,,,"MET09002/17/20 14:52:02 METAR KCQT 172252Z VRB03KT 10SM CLR 21/10 A2988 RMK AO2 SLP115 T02060100","FM-15","7",,,,,,,,,,,,,,,,,,,,,,,,,,,,"2006-02-03"
"72287493134","2020-02-17T15:52:00","FM-15","7",,,"3.89","mi",,,,,,,"PENDING COOP",,,,,,,,,,,,,,,,,,,,,,,,,,,"29.88","47","68","0.00",,"+0.03","5","47","29.88","CLR:00","29.68","10.00","57","260",,"6",,,,,,,,,,,,,,,,,,,,,,,,,,,,,,,,,,,,,"MET10802/17/20 15:52:02 METAR KCQT 172352Z 26005KT 10SM CLR 20/08 A2988 RMK AO2 SLP117 T02000083 10211 20167 55009","FM-15","7",,,,,,,,,,,,,,,,,,,,,,,,,,,,"2006-02-03"
"72287493134","2020-02-17T16:52:00","FM-15","7",,,"3.89","mi",,,,,,,"PENDING COOP",,,,,,,,,,,,,,,,,,,,,,,,,,,"29.88","50","65","0.00",,,,"59","29.88","CLR:00","29.68","10.00","57","VRB",,"3",,,,,,,,,,,,,,,,,,,,,,,,,,,,,,,,,,,,,"MET09002/17/20 16:52:01 METAR KCQT 180052Z VRB03KT 10SM CLR 18/10 A2988 RMK AO2 SLP119 T01830100","FM-15","7",,,,,,,,,,,,,,,,,,,,,,,,,,,,"2006-02-03"
"72287493134","2020-02-17T17:52:00","FM-15","7",,,"3.89","mi",,,,,,,"PENDING COOP",,,,,,,,,,,,,,,,,,,,,,,,,,,"29.89","52","62","0.00",,,,"70","29.89","CLR:00","29.69","9.00","56","260",,"3",,,,,,,,,,,,,,,,,,,,,,,,,,,,,,,,,,,,,"MET08902/17/20 17:52:01 METAR KCQT 180152Z 26003KT 9SM CLR 17/11 A2989 RMK AO2 SLP121 T01670111","FM-15","7",,,,,,,,,,,,,,,,,,,,,,,,,,,,"2006-02-03"
"72287493134","2020-02-17T18:52:00","FM-15","7",,,"3.89","mi",,,,,,,"PENDING COOP",,,,,,,,,,,,,,,,,,,,,,,,,,,"29.90","52","61","0.00",,"-0.02","3","72","29.90","CLR:00","29.70","8.00","56","000",,"0",,,,,,,,,,,,,,,,,,,,,,,,,,,,,,,,,,,,,"MET09502/17/20 18:52:01 METAR KCQT 180252Z 00000KT 8SM CLR 16/11 A2990 RMK AO2 SLP125 T01610111 53006","FM-15","7",,,,,,,,,,,,,,,,,,,,,,,,,,,,"2006-02-03"
"72287493134","2020-02-17T19:52:00","FM-15","7",,,"3.89","mi",,,,,,,"PENDING COOP",,,,,,,,,,,,,,,,,,,,,,,,,,,"29.91","52","59","0.00",,,,"78","29.91","CLR:00","29.71","7.00","55","000",,"0",,,,,,,,,,,,,,,,,,,,,,,,,,,,,,,,,,,,,"MET08902/17/20 19:52:02 METAR KCQT 180352Z 00000KT 7SM CLR 15/11 A2991 RMK AO2 SLP129 T01500111","FM-15","7",,,,,,,,,,,,,,,,,,,,,,,,,,,,"2006-02-03"
"72287493134","2020-02-17T20:52:00","FM-15","7",,,"3.89","mi",,,,,,,"PENDING COOP",,,,,,,,,,,,,,,,,,,,,,,,,,,"29.93","52","59","0.00",,,,"78","29.92","CLR:00","29.73","7.00","55","000",,"0",,,,,,,,,,,,,,,,,,,,,,,,,,,,,,,,,,,,,"MET08902/17/20 20:52:02 METAR KCQT 180452Z 00000KT 7SM CLR 15/11 A2993 RMK AO2 SLP133 T01500111","FM-15","7",,,,,,,,,,,,,,,,,,,,,,,,,,,,"2006-02-03"
"72287493134","2020-02-17T21:52:00","FM-15","7",,,"3.89","mi",,,,,,,"PENDING COOP",,,,,,,,,,,,,,,,,,,,,,,,,,,"29.95","52","59","0.00",,"-0.05","3","78","29.94","CLR:00","29.75","7.00","55","000",,"0",,,,,,,,,,,,,,,,,,,,,,,,,,,,,,,,,,,,,"MET10702/17/20 21:52:02 METAR KCQT 180552Z 00000KT 7SM CLR 15/11 A2995 RMK AO2 SLP139 T01500111 10200 20144 53016","FM-15","7",,,,,,,,,,,,,,,,,,,,,,,,,,,,"2006-02-03"
"72287493134","2020-02-17T22:52:00","FM-15","6",,,"3.89","mi",,,,,,,"PENDING COOP",,,,,,,,,,,,,,,,,,,,,,,,,,,"29.95","52","58","0.00",,,,"81","29.94",,"29.75","7.00","55",,,,,,,,,,,,,,,,,,,,,,,,,,,,,,,,,,,,,,,,"MET08402/17/20 22:52:02 METAR KCQT 180652Z      KT NO 14/11 A2995 RMK AO2 SLP139 T01440111","FM-15","6",,,,,,,,,,,,,,,,,,,,,,,,,,,,"2006-02-03"
"72287493134","2020-02-17T23:52:00","FM-15","7",,,"3.89","mi",,,,,,,"PENDING COOP",,,,,,,,,,,,,,,,,,,,,,,,,,,"29.95","52","58","0.00","HZ:7 |FU |HZ",,,"81","29.95","CLR:00","29.75","6.00","55","000",,"0",,,,,,,,,,,,,,,,,,,,,,,,,,,,,,,,,,,,,"MET10202/17/20 23:52:02 METAR KCQT 180752Z 00000KT 6SM HZ CLR 14/11 A2995 RMK AO2 SLP141 T01440111 402110106","FM-15","7",,,,,,,,,,,,,,,,,,,,,,,,,,,,"2006-02-03"
"72287493134","2020-02-17T23:59:00","SOD  ","6",,,"3.89","mi",,,,,,,"PENDING COOP",,,,"49","61","69","29.94","29.75","54","1.0","0","2.0","4","70","51","270","12","0.00",,,"270","7","HZ",,,,,,,,,,,,,,,,,,,,,,,,,,,,,,,,,,,,,,,,,,,,,,,,,,,,,,,,"SOD76024 HR PRECIPITATION (IN): 0.00 SNOW DEPTH (IN):0     24 HR SNOWFALL (IN):0.0  WEATHER(CODE):8  24 HR MAX TEMP (F): 7024 HR MIN TEMP (F): 51AVERAGE STATION PRESSURE(D):29.745 MINIMUM SEA LEVEL PRESSURE:29.87 TIME OF OCCURRENCE:1525 PEAK WIND SPEED (MPH): 12 PEAK WIND DIR (DEG):270 PEAK WIND TIME (LST):      FASTEST 2MIN SPEED (MPH):  7FASTEST 2MIN DIR (DEG):270 FASTEST 2MIN TIME (LST):     AVERAGE WIND SPEED (MPH): 1.0 24 HR AVG TEMP (F): 61DEPART FROM NORMAL:  2  HEATING DEGREE DAYS:  4 COOLING DEGREE DAYS:  0 LATEST DAY MAX TEMP (0700-1900 LST): 70 LATEST NIGHT MIN TEMP(1900-0800 LST):51 HOURLY INCREMENTAL PRECIPITATION VALUES (IN):0.00 0.00 0.00 0.00 0.00 0.00 0.00 0.00 0.00 0.00 0.00 0.00 0.00 0.00 0.00 0.00 0.00 0.00 0.00 0.00 0.00 0.00 0.00 0.00","SOD  ","6",,,,,,,,,,,,,,,,,,,,,,,,,"0636","1739",,"2006-02-03"
"72287493134","2020-02-18T00:52:00","FM-15","7",,,"3.89","mi",,,,,,,"PENDING COOP",,,,,,,,,,,,,,,,,,,,,,,,,,,"29.95","51","57","0.00","HZ:7 |FU |HZ","-0.00","0","81","29.94","CLR:00","29.75","5.00","54","000",,"0",,,,,,,,,,,,,,,,,,,,,,,,,,,,,,,,,,,,,"MET09802/18/20 00:52:02 METAR KCQT 180852Z 00000KT 5SM HZ CLR 14/11 A2995 RMK AO2 SLP140 T01390106 50001","FM-15","7",,,,,,,,,,,,,,,,,,,,,,,,,,,,"2006-02-03"
"72287493134","2020-02-18T01:52:00","FM-15","7",,,"3.89","mi",,,,,,,"PENDING COOP",,,,,,,,,,,,,,,,,,,,,,,,,,,"29.95","52","58","0.00","HZ:7 |FU |HZ",,,"81","29.95","CLR:00","29.75","4.00","55","000",,"0",,,,,,,,,,,,,,,,,,,,,,,,,,,,,,,,,,,,,"MET09202/18/20 01:52:02 METAR KCQT 180952Z 00000KT 4SM HZ CLR 14/11 A2995 RMK AO2 SLP141 T01440111","FM-15","7",,,,,,,,,,,,,,,,,,,,,,,,,,,,"2006-02-03"
"72287493134","2020-02-18T01:57:00","FM-16","7",,,"3.89","mi",,,,,,,"PENDING COOP",,,,,,,,,,,,,,,,,,,,,,,,,,,"29.95","52","58",,"HZ:7 |FU |HZ",,,"81",,"FEW:02 4","29.75","4.00","55","130",,"3",,,,,,,,,,,,,,,,,,,,,,,,,,,,,,,,,,,,,"MET09202/18/20 01:57:02 SPECI KCQT 180957Z 13003KT 4SM HZ FEW004 14/11 A2995 RMK AO2 T01440111 RTX","FM-16","7",,,,,,,,,,,,,,,,,,,,,,,,,,,,"2006-02-03"
"72287493134","2020-02-18T02:07:00","FM-16","7",,,"3.89","mi",,,,,,,"PENDING COOP",,,,,,,,,,,,,,,,,,,,,,,,,,,"29.95","52","57",,"HZ:7 |FU |HZ",,,"83",,"BKN:07 4","29.75","3.00","54","000",,"0",,,,,,,,,,,,,,,,,,,,,,,,,,,,,,,,,,,,,"MET08802/18/20 02:07:02 SPECI KCQT 181007Z 00000KT 3SM HZ BKN004 14/11 A2995 RMK AO2 T01390111","FM-16","7",,,,,,,,,,,,,,,,,,,,,,,,,,,,"2006-02-03"
"72287493134","2020-02-18T02:11:00","FM-16","7",,,"3.89","mi",,,,,,,"PENDING COOP",,,,,,,,,,,,,,,,,,,,,,,,,,,"29.95","52","57",,"HZ:7 |FU |HZ",,,"83",,"BKN:07 4","29.75","2.00","54","090",,"3",,,,,,,,,,,,,,,,,,,,,,,,,,,,,,,,,,,,,"MET08802/18/20 02:11:02 SPECI KCQT 181011Z 09003KT 2SM HZ BKN004 14/11 A2995 RMK AO2 T01390111","FM-16","7",,,,,,,,,,,,,,,,,,,,,,,,,,,,"2006-02-03"
"72287493134","2020-02-18T02:14:00","FM-16","7",,,"3.89","mi",,,,,,,"PENDING COOP",,,,,,,,,,,,,,,,,,,,,,,,,,,"29.95","52","57",,"HZ:7 |FU |HZ",,,"83",,"BKN:07 4","29.75","1.25","54","000",,"0",,,,,,,,,,,,,,,,,,,,,,,,,,,,,,,,,,,,,"MET09202/18/20 02:14:02 SPECI KCQT 181014Z 00000KT 1 1/4SM HZ BKN004 14/11 A2995 RMK AO2 T01390111","FM-16","7",,,,,,,,,,,,,,,,,,,,,,,,,,,,"2006-02-03"
"72287493134","2020-02-18T02:18:00","FM-16","7",,,"3.89","mi",,,,,,,"PENDING COOP",,,,,,,,,,,,,,,,,,,,,,,,,,,"29.95","53","57",,"BR:1 ||",,,"87",,"BKN:07 3","29.75","0.75","55","VRB",,"3",,,,,,,,,,,,,,,,,,,,,,,,,,,,,,,,,,,,,"MET09002/18/20 02:18:02 SPECI KCQT 181018Z VRB03KT 3/4SM BR BKN003 14/12 A2995 RMK AO2 T01390117","FM-16","7",,,,,,,,,,,,,,,,,,,,,,,,,,,,"2006-02-03"
"72287493134","2020-02-18T02:52:00","FM-15","7",,,"3.89","mi",,,,,,,"PENDING COOP",,,,,,,,,,,,,,,,,,,,,,,,,,,"29.95","53","56","0.00","BR:1 ||",,,"90","29.95","VV:09 2","29.75","0.75","54","140",,"3",,,,,,,,,,,,,,,,,,,,,,,,,,,,,,,,,,,,,"MET09602/18/20 02:52:02 METAR KCQT 181052Z 14003KT 3/4SM BR VV002 13/12 A2995 RMK AO2 SLP141 T01330117","FM-15","7",,,,,,,,,,,,,,,,,,,,,,,,,,,,"2006-02-03"
"72287493134","2020-02-18T03:03:00","FM-16","7",,,"3.89","mi",,,,,,,"PENDING COOP",,,,,,,,,,,,,,,,,,,,,,,,,,,"29.95","53","56",,"BR:1 ||",,,"90",,"VV:09 2","29.75","1.00","54","000",,"0",,,,,,,,,,,,,,,,,,,,,,,,,,,,,,,,,,,,,"MET08702/18/20 03:03:02 SPECI KCQT 181103Z 00000KT 1SM BR VV002 13/12 A2995 RMK AO2 T01330117","FM-16","7",,,,,,,,,,,,,,,,,,,,,,,,,,,,"2006-02-03"
"72287493134","2020-02-18T03:08:00","FM-16","7",,,"3.89","mi",,,,,,,"PENDING COOP",,,,,,,,,,,,,,,,,,,,,,,,,,,"29.95","53","56",,"BR:1 ||",,,"90",,"VV:09 2","29.75","0.75","54","000",,"0",,,,,,,,,,,,,,,,,,,,,,,,,,,,,,,,,,,,,"MET08902/18/20 03:08:02 SPECI KCQT 181108Z 00000KT 3/4SM BR VV002 13/12 A2995 RMK AO2 T01330117","FM-16","7",,,,,,,,,,,,,,,,,,,,,,,,,,,,"2006-02-03"
"72287493134","2020-02-18T03:11:00","FM-16","7",,,"3.89","mi",,,,,,,"PENDING COOP",,,,,,,,,,,,,,,,,,,,,,,,,,,"29.95","53","56",,"BR:1 ||",,,"90",,"OVC:08 2","29.75","1.00","54","000",,"0",,,,,,,,,,,,,,,,,,,,,,,,,,,,,,,,,,,,,"MET08802/18/20 03:11:02 SPECI KCQT 181111Z 00000KT 1SM BR OVC002 13/12 A2995 RMK AO2 T01330117","FM-16","7",,,,,,,,,,,,,,,,,,,,,,,,,,,,"2006-02-03"
"72287493134","2020-02-18T03:25:00","FM-16","7",,,"3.89","mi",,,,,,,"PENDING COOP",,,,,,,,,,,,,,,,,,,,,,,,,,,"29.95","52","56",,"BR:1 ||",,,"87",,"OVC:08 2","29.75","0.75","54","000",,"0",,,,,,,,,,,,,,,,,,,,,,,,,,,,,,,,,,,,,"MET09002/18/20 03:25:02 SPECI KCQT 181125Z 00000KT 3/4SM BR OVC002 13/11 A2995 RMK AO2 T01330111","FM-16","7",,,,,,,,,,,,,,,,,,,,,,,,,,,,"2006-02-03"
"72287493134","2020-02-18T03:34:00","FM-16","7",,,"3.89","mi",,,,,,,"PENDING COOP",,,,,,,,,,,,,,,,,,,,,,,,,,,"29.95","52","56",,"BR:1 ||",,,"87",,"OVC:08 2","29.75","1.00","54","VRB",,"3",,,,,,,,,,,,,,,,,,,,,,,,,,,,,,,,,,,,,"MET08802/18/20 03:34:02 SPECI KCQT 181134Z VRB03KT 1SM BR OVC002 13/11 A2995 RMK AO2 T01330111","FM-16","7",,,,,,,,,,,,,,,,,,,,,,,,,,,,"2006-02-03"
"72287493134","2020-02-18T03:52:00","FM-15","7",,,"3.89","mi",,,,,,,"PENDING COOP",,,,,,,,,,,,,,,,,,,,,,,,,,,"29.95","52","56","0.00","BR:1 ||","-0.00","1","87","29.95","OVC:08 2","29.75","2.00","54","090",,"3",,,,,,,,,,,,,,,,,,,,,,,,,,,,,,,,,,,,,"MET11302/18/20 03:52:02 METAR KCQT 181152Z 09003KT 2SM BR OVC002 13/11 A2995 RMK AO2 SLP141 T01330111 10150 20133 51000","FM-15","7",,,,,,,,,,,,,,,,,,,,,,,,,,,,"2006-02-03"
"72287493134","2020-02-18T04:48:00","FM-16","7",,,"3.89","mi",,,,,,,"PENDING COOP",,,,,,,,,,,,,,,,,,,,,,,,,,,"29.97","52","57",,"HZ:7 |FU |HZ",,,"83",,"OVC:08 3","29.77","3.00","54","000",,"0",,,,,,,,,,,,,,,,,,,,,,,,,,,,,,,,,,,,,"MET08802/18/20 04:48:02 SPECI KCQT 181248Z 00000KT 3SM HZ OVC003 14/11 A2997 RMK AO2 T01390111","FM-16","7",,,,,,,,,,,,,,,,,,,,,,,,,,,,"2006-02-03"
"72287493134","2020-02-18T04:52:00","FM-15","7",,,"3.89","mi",,,,,,,"PENDING COOP",,,,,,,,,,,,,,,,,,,,,,,,,,,"29.97","52","57","0.00","HZ:7 |FU |HZ",,,"83","29.96","OVC:08 3","29.77","3.00","54","VRB",,"3",,,,,,,,,,,,,,,,,,,,,,,,,,,,,,,,,,,,,"MET09502/18/20 04:52:02 METAR KCQT 181252Z VRB03KT 3SM HZ OVC003 14/11 A2997 RMK AO2 SLP147 T01390111","FM-15","7",,,,,,,,,,,,,,,,,,,,,,,,,,,,"2006-02-03"
"72287493134","2020-02-18T05:01:00","FM-16","7",,,"3.89","mi",,,,,,,"PENDING COOP",,,,,,,,,,,,,,,,,,,,,,,,,,,"29.98","52","57",,"HZ:7 |FU |HZ",,,"83",,"OVC:08 5","29.78","4.00","54","000",,"0",,,,,,,,,,,,,,,,,,,,,,,,,,,,,,,,,,,,,"MET10002/18/20 05:01:02 SPECI KCQT 181301Z 00000KT 4SM HZ OVC005 14/11 A2998 RMK AO2 CIG 003V007 T01390111","FM-16","7",,,,,,,,,,,,,,,,,,,,,,,,,,,,"2006-02-03"
"72287493134","2020-02-18T05:52:00","FM-15","7",,,"3.89","mi",,,,,,,"PENDING COOP",,,,,,,,,,,,,,,,,,,,,,,,,,,"29.98","52","57","0.00","HZ:7 |FU |HZ",,,"83","29.97","OVC:08 7","29.78","4.00","54","000",,"0",,,,,,,,,,,,,,,,,,,,,,,,,,,,,,,,,,,,,"MET09502/18/20 05:52:02 METAR KCQT 181352Z 00000KT 4SM HZ OVC007 14/11 A2998 RMK AO2 SLP150 T01390111","FM-15","7",,,,,,,,,,,,,,,,,,,,,,,,,,,,"2006-02-03"
"72287493134","2020-02-18T06:52:00","FM-15","7",,,"3.89","mi",,,,,,,"PENDING COOP",,,,,,,,,,,,,,,,,,,,,,,,,,,"29.98","51","57","0.00","HZ:7 |FU |HZ","-0.04","1","81","29.98","OVC:08 7","29.78","4.00","54","000",,"0",,,,,,,,,,,,,,,,,,,,,,,,,,,,,,,,,,,,,"MET10102/18/20 06:52:02 METAR KCQT 181452Z 00000KT 4SM HZ OVC007 14/11 A2998 RMK AO2 SLP153 T01390106 51012","FM-15","7",,,,,,,,,,,,,,,,,,,,,,,,,,,,"2006-02-03"
"72287493134","2020-02-18T07:03:00","FM-16","7",,,"3.89","mi",,,,,,,"PENDING COOP",,,,,,,,,,,,,,,,,,,,,,,,,,,"29.99","51","57",,"HZ:7 |FU |HZ",,,"81",,"OVC:08 7","29.79","2.50","54","000",,"0",,,,,,,,,,,,,,,,,,,,,,,,,,,,,,,,,,,,,"MET09202/18/20 07:03:02 SPECI KCQT 181503Z 00000KT 2 1/2SM HZ OVC007 14/11 A2999 RMK AO2 T01390106","FM-16","7",,,,,,,,,,,,,,,,,,,,,,,,,,,,"2006-02-03"
"72287493134","2020-02-18T07:08:00","FM-16","7",,,"3.89","mi",,,,,,,"PENDING COOP",,,,,,,,,,,,,,,,,,,,,,,,,,,"29.99","51","58",,"HZ:7 |FU |HZ",,,"78",,"OVC:08 8","29.79","3.00","54","000",,"0",,,,,,,,,,,,,,,,,,,,,,,,,,,,,,,,,,,,,"MET08802/18/20 07:08:02 SPECI KCQT 181508Z 00000KT 3SM HZ OVC008 14/11 A2999 RMK AO2 T01440106","FM-16","7",,,,,,,,,,,,,,,,,,,,,,,,,,,,"2006-02-03"
"72287493134","2020-02-18T07:50:00","FM-16","6",,,"3.89","mi",,,,,,,"PENDING COOP",,,,,,,,,,,,,,,,,,,,,,,,,,,"30.00","52","57",,"HZ:7 ||HZ",,,"82",,"OVC:08 10","29.80","3.00","54","000",,"0",,,,,,,,,,,,,,,,,,,,,,,,,,,,,,,,,,,,,"MET08302/18/20 07:50:02 SPECI KCQT 181550Z 00000KT 3SM HZ OVC010 14/11 A3000 RMK AO2 FIBI","FM-16","6",,,,,,,,,,,,,,,,,,,,,,,,,,,,"2006-02-03"
"72287493134","2020-02-18T07:52:00","FM-15","7",,,"3.89","mi",,,,,,,"PENDING COOP",,,,,,,,,,,,,,,,,,,,,,,,,,,"30.00","51","58","0.00","HZ:7 |FU |HZ",,,"78","30.00","OVC:08 10","29.80","3.00","54","000",,"0",,,,,,,,,,,,,,,,,,,,,,,,,,,,,,,,,,,,,"MET09502/18/20 07:52:02 METAR KCQT 181552Z 00000KT 3SM HZ OVC010 14/11 A3000 RMK AO2 SLP158 T01440106","FM-15","7",,,,,,,,,,,,,,,,,,,,,,,,,,,,"2006-02-03"
"72287493134","2020-02-18T08:50:00","FM-16","6",,,"3.89","mi",,,,,,,"PENDING COOP",,,,,,,,,,,,,,,,,,,,,,,,,,,"30.01","52","59",,"HZ:7 ||HZ",,,"77",,"OVC:08 10","29.81","2.50","55","090",,"3",,,,,,,,,,,,,,,,,,,,,,,,,,,,,,,,,,,,,"MET08702/18/20 08:50:02 SPECI KCQT 181650Z 09003KT 2 1/2SM HZ OVC010 15/11 A3001 RMK AO2 FIBI","FM-16","6",,,,,,,,,,,,,,,,,,,,,,,,,,,,"2006-02-03"
"72287493134","2020-02-18T08:52:00","FM-15","7",,,"3.89","mi",,,,,,,"PENDING COOP",,,,,,,,,,,,,,,,,,,,,,,,,,,"30.01","50","59","0.00","HZ:7 |FU |HZ",,,"72","30.01","OVC:08 10","29.81","2.50","54","VRB",,"3",,,,,,,,,,,,,,,,,,,,,,,,,,,,,,,,,,,,,"MET09902/18/20 08:52:02 METAR KCQT 181652Z VRB03KT 2 1/2SM HZ OVC010 15/10 A3001 RMK AO2 SLP162 T01500100","FM-15","7",,,,,,,,,,,,,,,,,,,,,,,,,,,,"2006-02-03"
"72287493134","2020-02-18T09:02:00","FM-16","7",,,"3.89","mi",,,,,,,"PENDING COOP",,,,,,,,,,,,,,,,,,,,,,,,,,,"30.01","51","59",,"HZ:7 |FU |HZ",,,"75",,"BKN:07 10","29.81","3.00","55","000",,"0",,,,,,,,,,,,,,,,,,,,,,,,,,,,,,,,,,,,,"MET08802/18/20 09:02:02 SPECI KCQT 181702Z 00000KT 3SM HZ BKN010 15/11 A3001 RMK AO2 T01500106","FM-16","7",,,,,,,,,,,,,,,,,,,,,,,,,,,,"2006-02-03"
"72287493134","2020-02-18T09:19:00","FM-16","7",,,"3.89","mi",,,,,,,"PENDING COOP",,,,,,,,,,,,,,,,,,,,,,,,,,,"30.01","50","60",,"HZ:7 |FU |HZ",,,"70",,"SCT:04 11","29.81","4.00","55","000",,"0",,,,,,,,,,,,,,,,,,,,,,,,,,,,,,,,,,,,,"MET08802/18/20 09:19:02 SPECI KCQT 181719Z 00000KT 4SM HZ SCT011 16/10 A3001 RMK AO2 T01560100","FM-16","7",,,,,,,,,,,,,,,,,,,,,,,,,,,,"2006-02-03"
"72287493134","2020-02-18T09:52:00","FM-15","7",,,"3.89","mi",,,,,,,"PENDING COOP",,,,,,,,,,,,,,,,,,,,,,,,,,,"30.01","50","62","0.00","HZ:7 |FU |HZ","-0.01","0","65","30.00","CLR:00","29.81","4.00","55","000",,"0",,,,,,,,,,,,,,,,,,,,,,,,,,,,,,,,,,,,,"MET11002/18/20 09:52:02 METAR KCQT 181752Z 00000KT 4SM HZ CLR 17/10 A3001 RMK AO2 SLP160 T01670100 10167 20133 50003","FM-15","7",,,,,,,,,,,,,,,,,,,,,,,,,,,,"2006-02-03"
"72287493134","2020-02-18T10:52:00","FM-15","7",,,"3.89","mi",,,,,,,"PENDING COOP",,,,,,,,,,,,,,,,,,,,,,,,,,,"29.99","49","66","0.00","HZ:7 |FU |HZ",,,"54","29.99","CLR:00","29.79","5.00","57","000",,"0",,,,,,,,,,,,,,,,,,,,,,,,,,,,,,,,,,,,,"MET09202/18/20 10:52:02 METAR KCQT 181852Z 00000KT 5SM HZ CLR 19/09 A2999 RMK AO2 SLP155 T01890094","FM-15","7",,,,,,,,,,,,,,,,,,,,,,,,,,,,"2006-02-03"
"72287493134","2020-02-18T11:52:00","FM-15","7",,,"3.89","mi",,,,,,,"PENDING COOP",,,,,,,,,,,,,,,,,,,,,,,,,,,"29.97","48","69","0.00","HZ:7 |FU |HZ",,,"47","29.96","CLR:00","29.77","5.00","57","260",,"3",,,,,,,,,,,,,,,,,,,,,,,,,,,,,,,,,,,,,"MET09202/18/20 11:52:02 METAR KCQT 181952Z 26003KT 5SM HZ CLR 21/09 A2997 RMK AO2 SLP146 T02060089","FM-15","7",,,,,,,,,,,,,,,,,,,,,,,,,,,,"2006-02-03"
"72287493134","2020-02-18T12:52:00","FM-15","7",,,"3.89","mi",,,,,,,"PENDING COOP",,,,,,,,,,,,,,,,,,,,,,,,,,,"29.95","47","72","0.00",,"+0.06","8","41","29.94","CLR:00","29.75","7.00","58","VRB",,"3",,,,,,,,,,,,,,,,,,,,,,,,,,,,,,,,,,,,,"MET09502/18/20 12:52:02 METAR KCQT 182052Z VRB03KT 7SM CLR 22/08 A2995 RMK AO2 SLP140 T02220083 58020","FM-15","7",,,,,,,,,,,,,,,,,,,,,,,,,,,,"2006-02-03"
"72287493134","2020-02-18T13:52:00","FM-15","7",,,"3.89","mi",,,,,,,"PENDING COOP",,,,,,,,,,,,,,,,,,,,,,,,,,,"29.95","53","68","0.00","HZ:7 |FU |HZ",,,"59","29.94","CLR:00","29.75","6.00","59","260",,"5",,,,,,,,,,,,,,,,,,,,,,,,,,,,,,,,,,,,,"MET09202/18/20 13:52:02 METAR KCQT 182152Z 26004KT 6SM HZ CLR 20/12 A2995 RMK AO2 SLP139 T02000117","FM-15","7",,,,,,,,,,,,,,,,,,,,,,,,,,,,"2006-02-03"
"72287493134","2020-02-18T14:52:00","FM-15","7",,,"3.89","mi",,,,,,,"PENDING COOP",,,,,,,,,,,,,,,,,,,,,,,,,,,"29.93","52","69","0.00",,,,"55","29.93","CLR:00","29.73","7.00","59","000",,"0",,,,,,,,,,,,,,,,,,,,,,,,,,,,,,,,,,,,,"MET08902/18/20 14:52:02 METAR KCQT 182252Z 00000KT 7SM CLR 21/11 A2993 RMK AO2 SLP134 T02060111","FM-15","7",,,,,,,,,,,,,,,,,,,,,,,,,,,,"2006-02-03"
"72287493134","2020-02-18T15:52:00","FM-15","7",,,"3.89","mi",,,,,,,"PENDING COOP",,,,,,,,,,,,,,,,,,,,,,,,,,,"29.94","52","67","0.00",,"+0.01","5","59","29.93","CLR:00","29.74","7.00","59","000",,"0",,,,,,,,,,,,,,,,,,,,,,,,,,,,,,,,,,,,,"MET11102/18/20 15:52:02 METAR KCQT 182352Z 00000KT 7SM CLR 19/11 A2994 RMK AO2 SLP137 T01940111 10222 20167 55003 RTX","FM-15","7",,,,,,,,,,,,,,,,,,,,,,,,,,,,"2006-02-03"
"72287493134","2020-02-18T16:52:00","FM-15","7",,,"3.89","mi",,,,,,,"PENDING COOP",,,,,,,,,,,,,,,,,,,,,,,,,,,"29.94","53","65","0.00",,,,"66","29.93","CLR:00","29.74","7.00","58","000",,"0",,,,,,,,,,,,,,,,,,,,,,,,,,,,,,,,,,,,,"MET08902/18/20 16:52:01 METAR KCQT 190052Z 00000KT 7SM CLR 18/12 A2994 RMK AO2 SLP136 T01830117","FM-15","7",,,,,,,,,,,,,,,,,,,,,,,,,,,,"2006-02-03"
"72287493134","2020-02-18T17:52:00","FM-15","7",,,"3.89","mi",,,,,,,"PENDING COOP",,,,,,,,,,,,,,,,,,,,,,,,,,,"29.96","53","63","0.00",,,,"70","29.95","CLR:00","29.76","10.00","57","000",,"0",,,,,,,,,,,,,,,,,,,,,,,,,,,,,,,,,,,,,"MET09002/18/20 17:52:01 METAR KCQT 190152Z 00000KT 10SM CLR 17/12 A2996 RMK AO2 SLP143 T01720117","FM-15","7",,,,,,,,,,,,,,,,,,,,,,,,,,,,"2006-02-03"
"72287493134","2020-02-18T18:39:00","FM-16","7",,,"3.89","mi",,,,,,,"PENDING COOP",,,,,,,,,,,,,,,,,,,,,,,,,,,"29.97","53","62",,,,,"73",,"BKN:07 10","29.77","9.00","57","000",,"0",,,,,,,,,,,,,,,,,,,,,,,,,,,,,,,,,,,,,"MET08502/18/20 18:39:01 SPECI KCQT 190239Z 00000KT 9SM BKN010 17/12 A2997 RMK AO2 T01670117","FM-16","7",,,,,,,,,,,,,,,,,,,,,,,,,,,,"2006-02-03"
"72287493134","2020-02-18T18:52:00","FM-15","7",,,"3.89","mi",,,,,,,"PENDING COOP",,,,,,,,,,,,,,,,,,,,,,,,,,,"29.97","54","62","0.00",,"-0.03","3","75","29.97","OVC:08 10","29.77","9.00","58","VRB",,"3",,,,,,,,,,,,,,,,,,,,,,,,,,,,,,,,,,,,,"MET09802/18/20 18:52:01 METAR KCQT 190252Z VRB03KT 9SM OVC010 17/12 A2997 RMK AO2 SLP148 T01670122 53010","FM-15","7",,,,,,,,,,,,,,,,,,,,,,,,,,,,"2006-02-03"
"72287493134","2020-02-18T19:17:00","FM-16","7",,,"3.89","mi",,,,,,,"PENDING COOP",,,,,,,,,,,,,,,,,,,,,,,,,,,"29.97","54","61",,,,,"78",,"OVC:08 9","29.77","8.00","57","000",,"0",,,,,,,,,,,,,,,,,,,,,,,,,,,,,,,,,,,,,"MET08502/18/20 19:17:02 SPECI KCQT 190317Z 00000KT 8SM OVC009 16/12 A2997 RMK AO2 T01610122","FM-16","7",,,,,,,,,,,,,,,,,,,,,,,,,,,,"2006-02-03"
"72287493134","2020-02-18T19:52:00","FM-15","7",,,"3.89","mi",,,,,,,"PENDING COOP",,,,,,,,,,,,,,,,,,,,,,,,,,,"29.97","54","61","0.00","HZ:7 |FU |HZ",,,"78","29.97","OVC:08 9","29.77","6.00","57","000",,"0",,,,,,,,,,,,,,,,,,,,,,,,,,,,,,,,,,,,,"MET09502/18/20 19:52:02 METAR KCQT 190352Z 00000KT 6SM HZ OVC009 16/12 A2997 RMK AO2 SLP149 T01610122","FM-15","7",,,,,,,,,,,,,,,,,,,,,,,,,,,,"2006-02-03"
"72287493134","2020-02-18T20:52:00","FM-15","7",,,"3.89","mi",,,,,,,"PENDING COOP",,,,,,,,,,,,,,,,,,,,,,,,,,,"30.01","54","61","0.00","HZ:7 |FU |HZ",,,"78","30.01","OVC:08 8","29.81","5.00","57","000",,"0",,,,,,,,,,,,,,,,,,,,,,,,,,,,,,,,,,,,,"MET09502/18/20 20:52:02 METAR KCQT 190452Z 00000KT 5SM HZ OVC008 16/12 A3001 RMK AO2 SLP161 T01610122","FM-15","7",,,,,,,,,,,,,,,,,,,,,,,,,,,,"2006-02-03"
"72287493134","2020-02-18T21:52:00","FM-15","7",,,"3.89","mi",,,,,,,"PENDING COOP",,,,,,,,,,,,,,,,,,,,,,,,,,,"30.02","53","61","0.00",,"-0.05","3","75","30.01","OVC:08 9","29.82","7.00","57","000",,"0",,,,,,,,,,,,,,,,,,,,,,,,,,,,,,,,,,,,,"MET11002/18/20 21:52:02 METAR KCQT 190552Z 00000KT 7SM OVC009 16/12 A3002 RMK AO2 SLP164 T01610117 10194 20161 53017","FM-15","7",,,,,,,,,,,,,,,,,,,,,,,,,,,,"2006-02-03"
"72287493134","2020-02-18T22:08:00","FM-16","7",,,"3.89","mi",,,,,,,"PENDING COOP",,,,,,,,,,,,,,,,,,,,,,,,,,,"30.02","54","61",,,,,"78",,"OVC:08 10","29.82","7.00","57","000",,"0",,,,,,,,,,,,,,,,,,,,,,,,,,,,,,,,,,,,,"MET08502/18/20 22:08:02 SPECI KCQT 190608Z 00000KT 7SM OVC010 16/12 A3002 RMK AO2 T01610122","FM-16","7",,,,,,,,,,,,,,,,,,,,,,,,,,,,"2006-02-03"
"72287493134","2020-02-18T22:52:00","FM-15","7",,,"3.89","mi",,,,,,,"PENDING COOP",,,,,,,,,,,,,,,,,,,,,,,,,,,"30.02","52","61","0.00",,,,"72","30.02","OVC:08 13","29.82","9.00","56","000",,"0",,,,,,,,,,,,,,,,,,,,,,,,,,,,,,,,,,,,,"MET09202/18/20 22:52:02 METAR KCQT 190652Z 00000KT 9SM OVC013 16/11 A3002 RMK AO2 SLP165 T01610111","FM-15","7",,,,,,,,,,,,,,,,,,,,,,,,,,,,"2006-02-03"
"72287493134","2020-02-18T23:52:00","FM-15","7",,,"3.89","mi",,,,,,,"PENDING COOP",,,,,,,,,,,,,,,,,,,,,,,,,,,"30.02","52","61","0.00",,,,"72","30.01","OVC:08 13","29.82","9.00","56","000",,"0",,,,,,,,,,,,,,,,,,,,,,,,,,,,,,,,,,,,,"MET10202/18/20 23:52:02 METAR KCQT 190752Z 00000KT 9SM OVC013 16/11 A3002 RMK AO2 SLP163 T01610111 402220133","FM-15","7",,,,,,,,,,,,,,,,,,,,,,,,,,,,"2006-02-03"
"72287493134","2020-02-18T23:59:00","SOD  ","6",,,"3.89","mi",,,,,,,"PENDING COOP",,,,"52","64","70","29.97","29.78","56","1.2","0","4.9","1","72","56","270","14","0.00",,,"260","8","BR HZ",,,,,,,,,,,,,,,,,,,,,,,,,,,,,,,,,,,,,,,,,,,,,,,,,,,,,,,,"SOD75724 HR PRECIPITATION (IN): 0.00 SNOW DEPTH (IN):0     24 HR SNOWFALL (IN):0.0  WEATHER(CODE):18  24 HR MAX TEMP (F): 7224 HR MIN TEMP (F): 56AVERAGE STATION PRESSURE:29.775 MINIMUM SEA LEVEL PRESSURE:29.92 TIME OF OCCURRENCE:1447 PEAK WIND SPEED (MPH): 14 PEAK WIND DIR (DEG):270 PEAK WIND TIME (LST):      FASTEST 2MIN SPEED (MPH):  8FASTEST 2MIN DIR (DEG):260 FASTEST 2MIN TIME (LST):     AVERAGE WIND SPEED (MPH): 1.2 24 HR AVG TEMP (F): 64DEPART FROM NORMAL:  5  HEATING DEGREE DAYS:  1 COOLING DEGREE DAYS:  0 LATEST DAY MAX TEMP (0700-1900 LST):72  LATEST NIGHT MIN TEMP(1900-0800 LST):56 HOURLY INCREMENTAL PRECIPITATION VALUES (IN):.00 0.00 0.00 0.00 0.00 0.00 0.00 0.00 0.00 0.00 0.00 0.00 0.00 0.00 0.00 0.00 0.00 0.00 0.00 0.00 0.00 0.00 0.00 0.00","SOD  ","6",,,,,,,,,,,,,,,,,,,,,,,,,"0635","1740",,"2006-02-03"
"72287493134","2020-02-19T00:52:00","FM-15","7",,,"3.89","mi",,,,,,,"PENDING COOP",,,,,,,,,,,,,,,,,,,,,,,,,,,"30.00","52","61","0.00",,"+0.01","8","72","30.00","OVC:08 14","29.80","8.00","56","000",,"0",,,,,,,,,,,,,,,,,,,,,,,,,,,,,,,,,,,,,"MET09802/19/20 00:52:02 METAR KCQT 190852Z 00000KT 8SM OVC014 16/11 A3000 RMK AO2 SLP159 T01610111 58005","FM-15","7",,,,,,,,,,,,,,,,,,,,,,,,,,,,"2006-02-03"
"72287493134","2020-02-19T01:28:00","FM-16","7",,,"3.89","mi",,,,,,,"PENDING COOP",,,,,,,,,,,,,,,,,,,,,,,,,,,"30.02","52","61",,,,,"72",,"OVC:08 15","29.82","7.00","56","000",,"0",,,,,,,,,,,,,,,,,,,,,,,,,,,,,,,,,,,,,"MET08502/19/20 01:28:02 SPECI KCQT 190928Z 00000KT 7SM OVC015 16/11 A3002 RMK AO2 T01610111","FM-16","7",,,,,,,,,,,,,,,,,,,,,,,,,,,,"2006-02-03"
"72287493134","2020-02-19T01:52:00","FM-15","7",,,"3.89","mi",,,,,,,"PENDING COOP",,,,,,,,,,,,,,,,,,,,,,,,,,,"30.02","51","61","0.00","HZ:7 |FU |HZ",,,"70","30.01","OVC:08 15","29.82","6.00","56","000",,"0",,,,,,,,,,,,,,,,,,,,,,,,,,,,,,,,,,,,,"MET09502/19/20 01:52:02 METAR KCQT 190952Z 00000KT 6SM HZ OVC015 16/11 A3002 RMK AO2 SLP164 T01610106","FM-15","7",,,,,,,,,,,,,,,,,,,,,,,,,,,,"2006-02-03"
"72287493134","2020-02-19T02:52:00","FM-15","7",,,"3.89","mi",,,,,,,"PENDING COOP",,,,,,,,,,,,,,,,,,,,,,,,,,,"30.02","50","61","0.00",,,,"67","30.01","OVC:08 20","29.82","7.00","55","000",,"0",,,,,,,,,,,,,,,,,,,,,,,,,,,,,,,,,,,,,"MET09202/19/20 02:52:02 METAR KCQT 191052Z 00000KT 7SM OVC020 16/10 A3002 RMK AO2 SLP163 T01610100","FM-15","7",,,,,,,,,,,,,,,,,,,,,,,,,,,,"2006-02-03"
"72287493134","2020-02-19T03:52:00","FM-15","7",,,"3.89","mi",,,,,,,"PENDING COOP",,,,,,,,,,,,,,,,,,,,,,,,,,,"30.01","49","61","0.00",,"-0.01","0","65","30.01","OVC:08 21","29.81","8.00","55","000",,"0",,,,,,,,,,,,,,,,,,,,,,,,,,,,,,,,,,,,,"MET11002/19/20 03:52:02 METAR KCQT 191152Z 00000KT 8SM OVC021 16/09 A3001 RMK AO2 SLP161 T01610094 10167 20161 50002","FM-15","7",,,,,,,,,,,,,,,,,,,,,,,,,,,,"2006-02-03"
"72287493134","2020-02-19T04:52:00","FM-15","7",,,"3.89","mi",,,,,,,"PENDING COOP",,,,,,,,,,,,,,,,,,,,,,,,,,,"30.02","50","61","0.00",,,,"67","30.01","OVC:08 20","29.82","7.00","55","000",,"0",,,,,,,,,,,,,,,,,,,,,,,,,,,,,,,,,,,,,"MET09202/19/20 04:52:02 METAR KCQT 191252Z 00000KT 7SM OVC020 16/10 A3002 RMK AO2 SLP163 T01610100","FM-15","7",,,,,,,,,,,,,,,,,,,,,,,,,,,,"2006-02-03"
"72287493134","2020-02-19T05:52:00","FM-15","7",,,"3.89","mi",,,,,,,"PENDING COOP",,,,,,,,,,,,,,,,,,,,,,,,,,,"30.02","50","61","0.00","HZ:7 |FU |HZ",,,"67","30.01","OVC:08 19","29.82","6.00","55","000",,"0",,,,,,,,,,,,,,,,,,,,,,,,,,,,,,,,,,,,,"MET09902/19/20 05:52:02 METAR KCQT 191352Z 00000KT 6SM HZ OVC019 16/10 A3002 RMK AO2 SLP164 T01610100 RTX","FM-15","7",,,,,,,,,,,,,,,,,,,,,,,,,,,,"2006-02-03"
"72287493134","2020-02-19T06:52:00","FM-15","7",,,"3.89","mi",,,,,,,"PENDING COOP",,,,,,,,,,,,,,,,,,,,,,,,,,,"30.04","49","61","0.00","HZ:7 |FU |HZ","-0.03","3","65","30.03","OVC:08 20","29.84","4.00","55","000",,"0",,,,,,,,,,,,,,,,,,,,,,,,,,,,,,,,,,,,,"MET10102/19/20 06:52:02 METAR KCQT 191452Z 00000KT 4SM HZ OVC020 16/09 A3004 RMK AO2 SLP171 T01610094 53010","FM-15","7",,,,,,,,,,,,,,,,,,,,,,,,,,,,"2006-02-03"
"72287493134","2020-02-19T07:52:00","FM-15","7",,,"3.89","mi",,,,,,,"PENDING COOP",,,,,,,,,,,,,,,,,,,,,,,,,,,"30.06","49","61","0.00","HZ:7 |FU |HZ",,,"65","30.05","OVC:08 19","29.86","4.00","55","VRB",,"3",,,,,,,,,,,,,,,,,,,,,,,,,,,,,,,,,,,,,"MET09502/19/20 07:52:02 METAR KCQT 191552Z VRB03KT 4SM HZ OVC019 16/09 A3006 RMK AO2 SLP177 T01610094","FM-15","7",,,,,,,,,,,,,,,,,,,,,,,,,,,,"2006-02-03"
"72287493134","2020-02-19T08:20:00","FM-16","7",,,"3.89","mi",,,,,,,"PENDING COOP",,,,,,,,,,,,,,,,,,,,,,,,,,,"30.07","49","62",,"HZ:7 |FU |HZ",,,"62",,"SCT:04 19","29.87","3.00","55","000",,"0",,,,,,,,,,,,,,,,,,,,,,,,,,,,,,,,,,,,,"MET08802/19/20 08:20:02 SPECI KCQT 191620Z 00000KT 3SM HZ SCT019 17/09 A3007 RMK AO2 T01670094","FM-16","7",,,,,,,,,,,,,,,,,,,,,,,,,,,,"2006-02-03"
"72287493134","2020-02-19T08:52:00","FM-15","7",,,"3.89","mi",,,,,,,"PENDING COOP",,,,,,,,,,,,,,,,,,,,,,,,,,,"30.07","49","63","0.00","HZ:7 |FU |HZ",,,"60","30.06","CLR:00","29.87","4.00","55","000",,"0",,,,,,,,,,,,,,,,,,,,,,,,,,,,,,,,,,,,,"MET09202/19/20 08:52:02 METAR KCQT 191652Z 00000KT 4SM HZ CLR 17/09 A3007 RMK AO2 SLP181 T01720094","FM-15","7",,,,,,,,,,,,,,,,,,,,,,,,,,,,"2006-02-03"
"72287493134","2020-02-19T09:52:00","FM-15","7",,,"3.89","mi",,,,,,,"PENDING COOP",,,,,,,,,,,,,,,,,,,,,,,,,,,"30.08","49","66","0.00","HZ:7 |FU |HZ","-0.04","1","54","30.07","CLR:00","29.88","4.00","57","000",,"0",,,,,,,,,,,,,,,,,,,,,,,,,,,,,,,,,,,,,"MET11002/19/20 09:52:02 METAR KCQT 191752Z 00000KT 4SM HZ CLR 19/09 A3008 RMK AO2 SLP184 T01890094 10194 20156 51013","FM-15","7",,,,,,,,,,,,,,,,,,,,,,,,,,,,"2006-02-03"
"72287493134","2020-02-19T10:52:00","FM-15","7",,,"3.89","mi",,,,,,,"PENDING COOP",,,,,,,,,,,,,,,,,,,,,,,,,,,"30.07","49","68","0.00","HZ:7 |FU |HZ",,,"51","30.06","CLR:00","29.87","4.00","58","000",,"0",,,,,,,,,,,,,,,,,,,,,,,,,,,,,,,,,,,,,"MET09202/19/20 10:52:02 METAR KCQT 191852Z 00000KT 4SM HZ CLR 20/09 A3007 RMK AO2 SLP181 T02000094","FM-15","7",,,,,,,,,,,,,,,,,,,,,,,,,,,,"2006-02-03"
"72287493134","2020-02-19T11:52:00","FM-15","7",,,"3.89","mi",,,,,,,"PENDING COOP",,,,,,,,,,,,,,,,,,,,,,,,,,,"30.06","50","70","0.00","HZ:7 |FU |HZ",,,"49","30.05","CLR:00","29.86","4.00","59","000",,"0",,,,,,,,,,,,,,,,,,,,,,,,,,,,,,,,,,,,,"MET09202/19/20 11:52:02 METAR KCQT 191952Z 00000KT 4SM HZ CLR 21/10 A3006 RMK AO2 SLP176 T02110100","FM-15","7",,,,,,,,,,,,,,,,,,,,,,,,,,,,"2006-02-03"
"72287493134","2020-02-19T12:52:00","FM-15","7",,,"3.89","mi",,,,,,,"PENDING COOP",,,,,,,,,,,,,,,,,,,,,,,,,,,"30.04","51","68","0.00","HZ:7 |FU |HZ","+0.04","8","55","30.03","CLR:00","29.84","5.00","58","VRB",,"3",,,,,,,,,,,,,,,,,,,,,,,,,,,,,,,,,,,,,"MET09802/19/20 12:52:02 METAR KCQT 192052Z VRB03KT 5SM HZ CLR 20/11 A3004 RMK AO2 SLP170 T02000106 58014","FM-15","7",,,,,,,,,,,,,,,,,,,,,,,,,,,,"2006-02-03"
"72287493134","2020-02-19T13:52:00","FM-15","6",,,"3.89","mi",,,,,,,"PENDING COOP",,,,,,,,,,,,,,,,,,,,,,,,,,,"30.02","51","69","0.00","HZ:7 ||HZ",,,"53","30.01","CLR:00","29.82","6.00","59","240",,"3",,,,,,,,,,,,,,,,,,,,,,,,,,,,,,,,,,,,,"MET09602/19/20 13:52:02 METAR KCQT 192152Z 24003KT 6SM HZ CLR 21/11 A3002 RMK AO2 SLP164 T02060106 RTX","FM-15","6",,,,,,,,,,,,,,,,,,,,,,,,,,,,"2006-02-03"
"72287493134","2020-02-19T14:52:00","FM-15","7",,,"3.89","mi",,,,,,,"PENDING COOP",,,,,,,,,,,,,,,,,,,,,,,,,,,"30.01","51","68","0.00",,,,"55","30.01","CLR:00","29.81","8.00","58","VRB",,"5",,,,,,,,,,,,,,,,,,,,,,,,,,,,,,,,,,,,,"MET08902/19/20 14:52:02 METAR KCQT 192252Z VRB04KT 8SM CLR 20/11 A3001 RMK AO2 SLP162 T02000106","FM-15","7",,,,,,,,,,,,,,,,,,,,,,,,,,,,"2006-02-03"
"72287493134","2020-02-19T15:52:00","FM-15","7",,,"3.89","mi",,,,,,,"PENDING COOP",,,,,,,,,,,,,,,,,,,,,,,,,,,"30.01","51","66","0.00",,"+0.03","6","59","30.00","CLR:00","29.81","8.00","58","VRB",,"5",,,,,,,,,,,,,,,,,,,,,,,,,,,,,,,,,,,,,"MET10702/19/20 15:52:02 METAR KCQT 192352Z VRB04KT 8SM CLR 19/11 A3001 RMK AO2 SLP160 T01890106 10211 20183 56009","FM-15","7",,,,,,,,,,,,,,,,,,,,,,,,,,,,"2006-02-03"
"72287493134","2020-02-19T16:52:00","FM-15","7",,,"3.89","mi",,,,,,,"PENDING COOP",,,,,,,,,,,,,,,,,,,,,,,,,,,"30.01","51","65","0.00",,,,"61","30.00","CLR:00","29.81","8.00","57","260",,"6",,,,,,,,,,,,,,,,,,,,,,,,,,,,,,,,,,,,,"MET08902/19/20 16:52:01 METAR KCQT 200052Z 26005KT 8SM CLR 18/11 A3001 RMK AO2 SLP160 T01830106","FM-15","7",,,,,,,,,,,,,,,,,,,,,,,,,,,,"2006-02-03"
"72287493134","2020-02-19T17:52:00","FM-15","7",,,"3.89","mi",,,,,,,"PENDING COOP",,,,,,,,,,,,,,,,,,,,,,,,,,,"30.02","52","63","0.00",,,,"68","30.02","CLR:00","29.82","9.00","57","260",,"5",,,,,,,,,,,,,,,,,,,,,,,,,,,,,,,,,,,,,"MET08902/19/20 17:52:01 METAR KCQT 200152Z 26004KT 9SM CLR 17/11 A3002 RMK AO2 SLP165 T01720111","FM-15","7",,,,,,,,,,,,,,,,,,,,,,,,,,,,"2006-02-03"
"72287493134","2020-02-19T18:52:00","FM-15","7",,,"3.89","mi",,,,,,,"PENDING COOP",,,,,,,,,,,,,,,,,,,,,,,,,,,"30.03","52","62","0.00",,"-0.02","3","70","30.03","CLR:00","29.83","10.00","56","250",,"5",,,,,,,,,,,,,,,,,,,,,,,,,,,,,,,,,,,,,"MET09602/19/20 18:52:01 METAR KCQT 200252Z 25004KT 10SM CLR 17/11 A3003 RMK AO2 SLP168 T01670111 53007","FM-15","7",,,,,,,,,,,,,,,,,,,,,,,,,,,,"2006-02-03"
"72287493134","2020-02-19T19:52:00","FM-15","7",,,"3.89","mi",,,,,,,"PENDING COOP",,,,,,,,,,,,,,,,,,,,,,,,,,,"30.04","52","61","0.00",,,,"72","30.03","CLR:00","29.84","9.00","56","000",,"0",,,,,,,,,,,,,,,,,,,,,,,,,,,,,,,,,,,,,"MET08902/19/20 19:52:01 METAR KCQT 200352Z 00000KT 9SM CLR 16/11 A3004 RMK AO2 SLP171 T01610111","FM-15","7",,,,,,,,,,,,,,,,,,,,,,,,,,,,"2006-02-03"
"72287493134","2020-02-19T20:52:00","FM-15","7",,,"3.89","mi",,,,,,,"PENDING COOP",,,,,,,,,,,,,,,,,,,,,,,,,,,"30.06","52","60","0.00",,,,"75","30.06","CLR:00","29.86","9.00","56","000",,"0",,,,,,,,,,,,,,,,,,,,,,,,,,,,,,,,,,,,,"MET08902/19/20 20:52:02 METAR KCQT 200452Z 00000KT 9SM CLR 16/11 A3006 RMK AO2 SLP178 T01560111","FM-15","7",,,,,,,,,,,,,,,,,,,,,,,,,,,,"2006-02-03"
"72287493134","2020-02-19T21:52:00","FM-15","7",,,"3.89","mi",,,,,,,"PENDING COOP",,,,,,,,,,,,,,,,,,,,,,,,,,,"30.07","53","59","0.00","HZ:7 |FU |HZ","-0.04","2","81","30.07","CLR:00","29.87","6.00","56","000",,"0",,,,,,,,,,,,,,,,,,,,,,,,,,,,,,,,,,,,,"MET11002/19/20 21:52:02 METAR KCQT 200552Z 00000KT 6SM HZ CLR 15/12 A3007 RMK AO2 SLP182 T01500117 10194 20150 52014","FM-15","7",,,,,,,,,,,,,,,,,,,,,,,,,,,,"2006-02-03"
"72287493134","2020-02-19T22:52:00","FM-15","7",,,"3.89","mi",,,,,,,"PENDING COOP",,,,,,,,,,,,,,,,,,,,,,,,,,,"30.08","53","58","0.00","HZ:7 |FU |HZ",,,"84","30.07","CLR:00","29.88","4.00","55","000",,"0",,,,,,,,,,,,,,,,,,,,,,,,,,,,,,,,,,,,,"MET09202/19/20 22:52:02 METAR KCQT 200652Z 00000KT 4SM HZ CLR 14/12 A3008 RMK AO2 SLP183 T01440117","FM-15","7",,,,,,,,,,,,,,,,,,,,,,,,,,,,"2006-02-03"
"72287493134","2020-02-19T23:52:00","FM-15","7",,,"3.89","mi",,,,,,,"PENDING COOP",,,,,,,,,,,,,,,,,,,,,,,,,,,"30.08","52","57","0.00","HZ:7 |FU |HZ",,,"83","30.08","CLR:00","29.88","5.00","54","000",,"0",,,,,,,,,,,,,,,,,,,,,,,,,,,,,,,,,,,,,"MET10202/19/20 23:52:02 METAR KCQT 200752Z 00000KT 5SM HZ CLR 14/11 A3008 RMK AO2 SLP185 T01390111 402110139","FM-15","7",,,,,,,,,,,,,,,,,,,,,,,,,,,,"2006-02-03"
"72287493134","2020-02-19T23:59:00","SOD  ","6",,,"3.89","mi",,,,,,,"PENDING COOP",,,,"51","64","65","30.03","29.84","56","1.4","0","4.8","1","70","57","260","13","0.00",,,"250","7","HZ",,,,,,,,,,,,,,,,,,,,,,,,,,,,,,,,,,,,,,,,,,,,,,,,,,,,,,,,"SOD75624 HR PRECIPITATION (IN): 0.00 SNOW DEPTH (IN):0     24 HR SNOWFALL (IN):0.0  WEATHER(CODE):8  24 HR MAX TEMP (F): 7024 HR MIN TEMP (F): 57AVERAGE STATION PRESSURE:29.840 MINIMUM SEA LEVEL PRESSURE:30.00 TIME OF OCCURRENCE:1715 PEAK WIND SPEED (MPH): 13 PEAK WIND DIR (DEG):260 PEAK WIND TIME (LST):      FASTEST 2MIN SPEED (MPH):  7FASTEST 2MIN DIR (DEG):250 FASTEST 2MIN TIME (LST):     AVERAGE WIND SPEED (MPH): 1.4 24 HR AVG TEMP (F): 64DEPART FROM NORMAL:  5  HEATING DEGREE DAYS:  1 COOLING DEGREE DAYS:  0 LATEST DAY MAX TEMP (0700-1900 LST):70  LATEST NIGHT MIN TEMP(1900-0800 LST):60 HOURLY INCREMENTAL PRECIPITATION VALUES (IN):.00 0.00 0.00 0.00 0.00 0.00 0.00 0.00 0.00 0.00 0.00 0.00 0.00 0.00 0.00 0.00 0.00 0.00 0.00 0.00 0.00 0.00 0.00 0.00","SOD  ","6",,,,,,,,,,,,,,,,,,,,,,,,,"0634","1741",,"2006-02-03"
"72287493134","2020-02-20T00:52:00","FM-15","7",,,"3.89","mi",,,,,,,"PENDING COOP",,,,,,,,,,,,,,,,,,,,,,,,,,,"30.07","51","57","0.00","HZ:7 |FU |HZ","+0.00","8","81","30.07","CLR:00","29.87","5.00","54","000",,"0",,,,,,,,,,,,,,,,,,,,,,,,,,,,,,,,,,,,,"MET09802/20/20 00:52:02 METAR KCQT 200852Z 00000KT 5SM HZ CLR 14/11 A3007 RMK AO2 SLP182 T01390106 58000","FM-15","7",,,,,,,,,,,,,,,,,,,,,,,,,,,,"2006-02-03"
"72287493134","2020-02-20T01:52:00","FM-15","7",,,"3.89","mi",,,,,,,"PENDING COOP",,,,,,,,,,,,,,,,,,,,,,,,,,,"30.07","51","56","0.00","HZ:7 |FU |HZ",,,"84","30.06","CLR:00","29.87","4.00","53","000",,"0",,,,,,,,,,,,,,,,,,,,,,,,,,,,,,,,,,,,,"MET09202/20/20 01:52:02 METAR KCQT 200952Z 00000KT 4SM HZ CLR 13/11 A3007 RMK AO2 SLP179 T01330106","FM-15","7",,,,,,,,,,,,,,,,,,,,,,,,,,,,"2006-02-03"
"72287493134","2020-02-20T02:52:00","FM-15","7",,,"3.89","mi",,,,,,,"PENDING COOP",,,,,,,,,,,,,,,,,,,,,,,,,,,"30.06","50","55","0.00","HZ:7 |FU |HZ",,,"83","30.05","CLR:00","29.86","4.00","52","000",,"0",,,,,,,,,,,,,,,,,,,,,,,,,,,,,,,,,,,,,"MET09202/20/20 02:52:02 METAR KCQT 201052Z 00000KT 4SM HZ CLR 13/10 A3006 RMK AO2 SLP177 T01280100","FM-15","7",,,,,,,,,,,,,,,,,,,,,,,,,,,,"2006-02-03"
"72287493134","2020-02-20T03:52:00","FM-15","7",,,"3.89","mi",,,,,,,"PENDING COOP",,,,,,,,,,,,,,,,,,,,,,,,,,,"30.05","50","55","0.00","HZ:7 |FU |HZ","+0.03","8","83","30.04","CLR:00","29.85","4.00","52","000",,"0",,,,,,,,,,,,,,,,,,,,,,,,,,,,,,,,,,,,,"MET11002/20/20 03:52:02 METAR KCQT 201152Z 00000KT 4SM HZ CLR 13/10 A3005 RMK AO2 SLP173 T01280100 10150 20128 58009","FM-15","7",,,,,,,,,,,,,,,,,,,,,,,,,,,,"2006-02-03"
"72287493134","2020-02-20T04:52:00","FM-15","7",,,"3.89","mi",,,,,,,"PENDING COOP",,,,,,,,,,,,,,,,,,,,,,,,,,,"30.05","48","53","0.00","HZ:7 |FU |HZ",,,"83","30.05","CLR:00","29.85","5.00","50","000",,"0",,,,,,,,,,,,,,,,,,,,,,,,,,,,,,,,,,,,,"MET09202/20/20 04:52:02 METAR KCQT 201252Z 00000KT 5SM HZ CLR 12/09 A3005 RMK AO2 SLP176 T01170089","FM-15","7",,,,,,,,,,,,,,,,,,,,,,,,,,,,"2006-02-03"
"72287493134","2020-02-20T05:52:00","FM-15","7",,,"3.89","mi",,,,,,,"PENDING COOP",,,,,,,,,,,,,,,,,,,,,,,,,,,"30.06","47","53","0.00","HZ:7 |FU |HZ",,,"80","30.06","CLR:00","29.86","5.00","50","000",,"0",,,,,,,,,,,,,,,,,,,,,,,,,,,,,,,,,,,,,"MET09202/20/20 05:52:02 METAR KCQT 201352Z 00000KT 5SM HZ CLR 12/08 A3006 RMK AO2 SLP180 T01170083","FM-15","7",,,,,,,,,,,,,,,,,,,,,,,,,,,,"2006-02-03"
"72287493134","2020-02-20T06:52:00","FM-15","7",,,"3.89","mi",,,,,,,"PENDING COOP",,,,,,,,,,,,,,,,,,,,,,,,,,,"30.08","46","54","0.00","HZ:7 |FU |HZ","-0.03","3","75","30.08","CLR:00","29.88","5.00","50","020",,"3",,,,,,,,,,,,,,,,,,,,,,,,,,,,,,,,,,,,,"MET09802/20/20 06:52:02 METAR KCQT 201452Z 02003KT 5SM HZ CLR 12/08 A3008 RMK AO2 SLP185 T01220078 53011","FM-15","7",,,,,,,,,,,,,,,,,,,,,,,,,,,,"2006-02-03"
"72287493134","2020-02-20T07:52:00","FM-15","7",,,"3.89","mi",,,,,,,"PENDING COOP",,,,,,,,,,,,,,,,,,,,,,,,,,,"30.10","45","59","0.00",,,,"60","30.09","CLR:00","29.90","7.00","52","000",,"0",,,,,,,,,,,,,,,,,,,,,,,,,,,,,,,,,,,,,"MET08902/20/20 07:52:02 METAR KCQT 201552Z 00000KT 7SM CLR 15/07 A3010 RMK AO2 SLP191 T01500072","FM-15","7",,,,,,,,,,,,,,,,,,,,,,,,,,,,"2006-02-03"
"72287493134","2020-02-20T08:52:00","FM-15","7",,,"3.89","mi",,,,,,,"PENDING COOP",,,,,,,,,,,,,,,,,,,,,,,,,,,"30.11","44","65","0.00",,,,"47","30.11","CLR:00","29.91","8.00","54","000",,"0",,,,,,,,,,,,,,,,,,,,,,,,,,,,,,,,,,,,,"MET08902/20/20 08:52:02 METAR KCQT 201652Z 00000KT 8SM CLR 18/07 A3011 RMK AO2 SLP195 T01830067","FM-15","7",,,,,,,,,,,,,,,,,,,,,,,,,,,,"2006-02-03"
"72287493134","2020-02-20T09:52:00","FM-15","7",,,"3.89","mi",,,,,,,"PENDING COOP",,,,,,,,,,,,,,,,,,,,,,,,,,,"30.11","42","71","0.00",,"-0.03","0","35","30.11","CLR:00","29.91","8.00","56","000",,"0",,,,,,,,,,,,,,,,,,,,,,,,,,,,,,,,,,,,,"MET10702/20/20 09:52:02 METAR KCQT 201752Z 00000KT 8SM CLR 22/06 A3011 RMK AO2 SLP195 T02170056 10217 20111 50010","FM-15","7",,,,,,,,,,,,,,,,,,,,,,,,,,,,"2006-02-03"
"72287493134","2020-02-20T10:52:00","FM-15","7",,,"3.89","mi",,,,,,,"PENDING COOP",,,,,,,,,,,,,,,,,,,,,,,,,,,"30.10","37","75","0.00",,,,"25","30.10","CLR:00","29.90","10.00","56","VRB",,"3",,,,,,,,,,,,,,,,,,,,,,,,,,,,,,,,,,,,,"MET09002/20/20 10:52:02 METAR KCQT 201852Z VRB03KT 10SM CLR 24/03 A3010 RMK AO2 SLP192 T02390028","FM-15","7",,,,,,,,,,,,,,,,,,,,,,,,,,,,"2006-02-03"
"72287493134","2020-02-20T11:52:00","FM-15","7",,,"3.89","mi",,,,,,,"PENDING COOP",,,,,,,,,,,,,,,,,,,,,,,,,,,"30.08","36","77","0.00",,,,"23","30.07","CLR:00","29.88","10.00","56","090",,"3",,,,,,,,,,,,,,,,,,,,,,,,,,,,,,,,,,,,,"MET09002/20/20 11:52:02 METAR KCQT 201952Z 09003KT 10SM CLR 25/02 A3008 RMK AO2 SLP184 T02500022","FM-15","7",,,,,,,,,,,,,,,,,,,,,,,,,,,,"2006-02-03"
"72287493134","2020-02-20T12:52:00","FM-15","7",,,"3.89","mi",,,,,,,"PENDING COOP",,,,,,,,,,,,,,,,,,,,,,,,,,,"30.05","35","79","0.00",,"+0.06","8","20","30.04","CLR:00","29.85","10.00","56","VRB",,"3",,,,,,,,,,,,,,,,,,,,,,,,,,,,,,,,,,,,,"MET09602/20/20 12:52:02 METAR KCQT 202052Z VRB03KT 10SM CLR 26/02 A3005 RMK AO2 SLP174 T02610017 58021","FM-15","7",,,,,,,,,,,,,,,,,,,,,,,,,,,,"2006-02-03"
"72287493134","2020-02-20T13:52:00","FM-15","7",,,"3.89","mi",,,,,,,"PENDING COOP",,,,,,,,,,,,,,,,,,,,,,,,,,,"30.02","32","80","0.00",,,,"17","30.01","CLR:00","29.82","10.00","56","120",,"5",,,,,,,,,,,,,,,,,,,,,,,,,,,,,,,,,,,,,"MET09002/20/20 13:52:02 METAR KCQT 202152Z 12004KT 10SM CLR 27/00 A3002 RMK AO2 SLP163 T02670000","FM-15","7",,,,,,,,,,,,,,,,,,,,,,,,,,,,"2006-02-03"
"72287493134","2020-02-20T14:52:00","FM-15","7",,,"3.89","mi",,,,,,,"PENDING COOP",,,,,,,,,,,,,,,,,,,,,,,,,,,"30.00","33","81","0.00",,,,"18","30.00","CLR:00","29.80","10.00","57","000",,"0",,,,,,,,,,,,,,,,,,,,,,,,,,,,,,,,,,,,,"MET09002/20/20 14:52:02 METAR KCQT 202252Z 00000KT 10SM CLR 27/01 A3000 RMK AO2 SLP159 T02720006","FM-15","7",,,,,,,,,,,,,,,,,,,,,,,,,,,,"2006-02-03"
"72287493134","2020-02-20T15:52:00","FM-15","7",,,"3.89","mi",,,,,,,"PENDING COOP",,,,,,,,,,,,,,,,,,,,,,,,,,,"30.01","48","75","0.00",,"+0.04","5","39","30.00","CLR:00","29.81","9.00","60","VRB",,"3",,,,,,,,,,,,,,,,,,,,,,,,,,,,,,,,,,,,,"MET10702/20/20 15:52:02 METAR KCQT 202352Z VRB03KT 9SM CLR 24/09 A3001 RMK AO2 SLP160 T02390089 10272 20217 55014","FM-15","7",,,,,,,,,,,,,,,,,,,,,,,,,,,,"2006-02-03"
"72287493134","2020-02-20T16:52:00","FM-15","7",,,"3.89","mi",,,,,,,"PENDING COOP",,,,,,,,,,,,,,,,,,,,,,,,,,,"30.01","49","72","0.00",,,,"44","30.01","CLR:00","29.81","9.00","59","260",,"5",,,,,,,,,,,,,,,,,,,,,,,,,,,,,,,,,,,,,"MET08902/20/20 16:52:01 METAR KCQT 210052Z 26004KT 9SM CLR 22/09 A3001 RMK AO2 SLP161 T02220094","FM-15","7",,,,,,,,,,,,,,,,,,,,,,,,,,,,"2006-02-03"
"72287493134","2020-02-20T17:52:00","FM-15","7",,,"3.89","mi",,,,,,,"PENDING COOP",,,,,,,,,,,,,,,,,,,,,,,,,,,"30.01","48","68","0.00",,,,"49","30.00","CLR:00","29.81","8.00","57","270",,"3",,,,,,,,,,,,,,,,,,,,,,,,,,,,,,,,,,,,,"MET08902/20/20 17:52:01 METAR KCQT 210152Z 27003KT 8SM CLR 20/09 A3001 RMK AO2 SLP160 T02000089","FM-15","7",,,,,,,,,,,,,,,,,,,,,,,,,,,,"2006-02-03"
"72287493134","2020-02-20T18:52:00","FM-15","7",,,"3.89","mi",,,,,,,"PENDING COOP",,,,,,,,,,,,,,,,,,,,,,,,,,,"30.02","49","66","0.00",,"-0.01","3","54","30.01","CLR:00","29.82","9.00","57","000",,"0",,,,,,,,,,,,,,,,,,,,,,,,,,,,,,,,,,,,,"MET09502/20/20 18:52:01 METAR KCQT 210252Z 00000KT 9SM CLR 19/09 A3002 RMK AO2 SLP164 T01890094 53002","FM-15","7",,,,,,,,,,,,,,,,,,,,,,,,,,,,"2006-02-03"
"72287493134","2020-02-20T19:52:00","FM-15","7",,,"3.89","mi",,,,,,,"PENDING COOP",,,,,,,,,,,,,,,,,,,,,,,,,,,"30.02","48","64","0.00",,,,"56","30.02","CLR:00","29.82","9.00","55","000",,"0",,,,,,,,,,,,,,,,,,,,,,,,,,,,,,,,,,,,,"MET08902/20/20 19:52:01 METAR KCQT 210352Z 00000KT 9SM CLR 18/09 A3002 RMK AO2 SLP165 T01780089","FM-15","7",,,,,,,,,,,,,,,,,,,,,,,,,,,,"2006-02-03"
"72287493134","2020-02-20T20:52:00","FM-15","7",,,"3.89","mi",,,,,,,"PENDING COOP",,,,,,,,,,,,,,,,,,,,,,,,,,,"30.04","48","63","0.00",,,,"58","30.03","CLR:00","29.84","8.00","55","000",,"0",,,,,,,,,,,,,,,,,,,,,,,,,,,,,,,,,,,,,"MET08902/20/20 20:52:02 METAR KCQT 210452Z 00000KT 8SM CLR 17/09 A3004 RMK AO2 SLP171 T01720089","FM-15","7",,,,,,,,,,,,,,,,,,,,,,,,,,,,"2006-02-03"
"72287493134","2020-02-20T21:52:00","FM-15","7",,,"3.89","mi",,,,,,,"PENDING COOP",,,,,,,,,,,,,,,,,,,,,,,,,,,"30.06","49","62","0.00",,"-0.04","3","62","30.06","CLR:00","29.86","8.00","55","000",,"0",,,,,,,,,,,,,,,,,,,,,,,,,,,,,,,,,,,,,"MET10702/20/20 21:52:02 METAR KCQT 210552Z 00000KT 8SM CLR 17/09 A3006 RMK AO2 SLP178 T01670094 10239 20167 53015","FM-15","7",,,,,,,,,,,,,,,,,,,,,,,,,,,,"2006-02-03"
"72287493134","2020-02-20T22:52:00","FM-15","7",,,"3.89","mi",,,,,,,"PENDING COOP",,,,,,,,,,,,,,,,,,,,,,,,,,,"30.05","51","61","0.00",,,,"70","30.05","CLR:00","29.85","8.00","56","000",,"0",,,,,,,,,,,,,,,,,,,,,,,,,,,,,,,,,,,,,"MET08902/20/20 22:52:02 METAR KCQT 210652Z 00000KT 8SM CLR 16/11 A3005 RMK AO2 SLP175 T01610106","FM-15","7",,,,,,,,,,,,,,,,,,,,,,,,,,,,"2006-02-03"
"72287493134","2020-02-20T23:52:00","FM-15","7",,,"3.89","mi",,,,,,,"PENDING COOP",,,,,,,,,,,,,,,,,,,,,,,,,,,"30.04","50","62","0.00",,,,"65","30.03","CLR:00","29.84","8.00","55","000",,"0",,,,,,,,,,,,,,,,,,,,,,,,,,,,,,,,,,,,,"MET09902/20/20 23:52:02 METAR KCQT 210752Z 00000KT 8SM CLR 17/10 A3004 RMK AO2 SLP170 T01670100 402720111","FM-15","7",,,,,,,,,,,,,,,,,,,,,,,,,,,,"2006-02-03"
"72287493134","2020-02-20T23:59:00","SOD  ","6",,,"3.89","mi",,,,,,,"PENDING COOP",,,,"45","67","53","30.05","29.85","55","1.2","2","7.8","0","81","52","260","19","0.00",,,"260","9","HZ",,,,,,,,,,,,,,,,,,,,,,,,,,,,,,,,,,,,,,,,,,,,,,,,,,,,,,,,"SOD75724 HR PRECIPITATION (IN): 0.00 SNOW DEPTH (IN):0     24 HR SNOWFALL (IN):0.0  WEATHER(CODE):18  24 HR MAX TEMP (F): 8124 HR MIN TEMP (F): 52AVERAGE STATION PRESSURE:29.850 MINIMUM SEA LEVEL PRESSURE:29.99 TIME OF OCCURRENCE:1535 PEAK WIND SPEED (MPH): 19 PEAK WIND DIR (DEG):260 PEAK WIND TIME (LST):      FASTEST 2MIN SPEED (MPH):  9FASTEST 2MIN DIR (DEG):260 FASTEST 2MIN TIME (LST):     AVERAGE WIND SPEED (MPH): 1.2 24 HR AVG TEMP (F): 67DEPART FROM NORMAL:  8  HEATING DEGREE DAYS:  0 COOLING DEGREE DAYS:  2 LATEST DAY MAX TEMP (0700-1900 LST):81  LATEST NIGHT MIN TEMP(1900-0800 LST):52 HOURLY INCREMENTAL PRECIPITATION VALUES (IN):.00 0.00 0.00 0.00 0.00 0.00 0.00 0.00 0.00 0.00 0.00 0.00 0.00 0.00 0.00 0.00 0.00 0.00 0.00 0.00 0.00 0.00 0.00 0.00","SOD  ","6",,,,,,,,,,,,,,,,,,,,,,,,,"0633","1742",,"2006-02-03"
"72287493134","2020-02-21T00:52:00","FM-15","7",,,"3.89","mi",,,,,,,"PENDING COOP",,,,,,,,,,,,,,,,,,,,,,,,,,,"30.02","48","60","0.00",,"+0.04","8","65","30.01","CLR:00","29.82","8.00","54","000",,"0",,,,,,,,,,,,,,,,,,,,,,,,,,,,,,,,,,,,,"MET09502/21/20 00:52:02 METAR KCQT 210852Z 00000KT 8SM CLR 16/09 A3002 RMK AO2 SLP164 T01560089 58012","FM-15","7",,,,,,,,,,,,,,,,,,,,,,,,,,,,"2006-02-03"
"72287493134","2020-02-21T01:52:00","FM-15","7",,,"3.89","mi",,,,,,,"PENDING COOP",,,,,,,,,,,,,,,,,,,,,,,,,,,"30.03","46","59","0.00",,,,"62","30.02","CLR:00","29.83","9.00","52","000",,"0",,,,,,,,,,,,,,,,,,,,,,,,,,,,,,,,,,,,,"MET08902/21/20 01:52:02 METAR KCQT 210952Z 00000KT 9SM CLR 15/08 A3003 RMK AO2 SLP166 T01500078","FM-15","7",,,,,,,,,,,,,,,,,,,,,,,,,,,,"2006-02-03"
"72287493134","2020-02-21T02:52:00","FM-15","7",,,"3.89","mi",,,,,,,"PENDING COOP",,,,,,,,,,,,,,,,,,,,,,,,,,,"30.00","41","62","0.00",,,,"46","29.99","CLR:00","29.80","10.00","51","020",,"3",,,,,,,,,,,,,,,,,,,,,,,,,,,,,,,,,,,,,"MET09002/21/20 02:52:02 METAR KCQT 211052Z 02003KT 10SM CLR 17/05 A3000 RMK AO2 SLP155 T01670050","FM-15","7",,,,,,,,,,,,,,,,,,,,,,,,,,,,"2006-02-03"
"72287493134","2020-02-21T03:52:00","FM-15","7",,,"3.89","mi",,,,,,,"PENDING COOP",,,,,,,,,,,,,,,,,,,,,,,,,,,"29.99","37","61","0.00",,"+0.03","8","41","29.98","CLR:00","29.79","10.00","49","030",,"3",,,,,,,,,,,,,,,,,,,,,,,,,,,,,,,,,,,,,"MET10802/21/20 03:52:02 METAR KCQT 211152Z 03003KT 10SM CLR 16/03 A2999 RMK AO2 SLP154 T01610028 10167 20150 58011","FM-15","7",,,,,,,,,,,,,,,,,,,,,,,,,,,,"2006-02-03"
"72287493134","2020-02-21T04:52:00","FM-15","7",,,"3.89","mi",,,,,,,"PENDING COOP",,,,,,,,,,,,,,,,,,,,,,,,,,,"29.98","38","58","0.00",,,,"48","29.98","CLR:00","29.78","10.00","48","000",,"0",,,,,,,,,,,,,,,,,,,,,,,,,,,,,,,,,,,,,"MET09002/21/20 04:52:02 METAR KCQT 211252Z 00000KT 10SM CLR 14/03 A2998 RMK AO2 SLP151 T01440033","FM-15","7",,,,,,,,,,,,,,,,,,,,,,,,,,,,"2006-02-03"
"72287493134","2020-02-21T05:52:00","FM-15","7",,,"3.89","mi",,,,,,,"PENDING COOP",,,,,,,,,,,,,,,,,,,,,,,,,,,"29.99","38","59","0.00",,,,"46","29.98","CLR:00","29.79","10.00","49","360",,"3",,,,,,,,,,,,,,,,,,,,,,,,,,,,,,,,,,,,,"MET09002/21/20 05:52:02 METAR KCQT 211352Z 36003KT 10SM CLR 15/03 A2999 RMK AO2 SLP153 T01500033","FM-15","7",,,,,,,,,,,,,,,,,,,,,,,,,,,,"2006-02-03"
"72287493134","2020-02-21T06:52:00","FM-15","7",,,"3.89","mi",,,,,,,"PENDING COOP",,,,,,,,,,,,,,,,,,,,,,,,,,,"30.00","38","58","0.00",,"-0.01","3","48","30.00","CLR:00","29.80","10.00","48","000",,"0",,,,,,,,,,,,,,,,,,,,,,,,,,,,,,,,,,,,,"MET09602/21/20 06:52:02 METAR KCQT 211452Z 00000KT 10SM CLR 14/03 A3000 RMK AO2 SLP158 T01440033 53004","FM-15","7",,,,,,,,,,,,,,,,,,,,,,,,,,,,"2006-02-03"
"72287493134","2020-02-21T07:52:00","FM-15","7",,,"3.89","mi",,,,,,,"PENDING COOP",,,,,,,,,,,,,,,,,,,,,,,,,,,"30.02","37","64","0.00",,,,"37","30.01","CLR:00","29.82","10.00","51","000",,"0",,,,,,,,,,,,,,,,,,,,,,,,,,,,,,,,,,,,,"MET09002/21/20 07:52:02 METAR KCQT 211552Z 00000KT 10SM CLR 18/03 A3002 RMK AO2 SLP164 T01780028","FM-15","7",,,,,,,,,,,,,,,,,,,,,,,,,,,,"2006-02-03"
"72287493134","2020-02-21T08:52:00","FM-15","7",,,"3.89","mi",,,,,,,"PENDING COOP",,,,,,,,,,,,,,,,,,,,,,,,,,,"30.02","32","70","0.00",,,,"25","30.02","CLR:00","29.82","10.00","52","080",,"3",,,,,,,,,,,,,,,,,,,,,,,,,,,,,,,,,,,,,"MET09002/21/20 08:52:02 METAR KCQT 211652Z 08003KT 10SM CLR 21/00 A3002 RMK AO2 SLP165 T02110000","FM-15","7",,,,,,,,,,,,,,,,,,,,,,,,,,,,"2006-02-03"
"72287493134","2020-02-21T09:52:00","FM-15","7",,,"3.89","mi",,,,,,,"PENDING COOP",,,,,,,,,,,,,,,,,,,,,,,,,,,"30.02","31","73","0.00",,"-0.02","0","21","30.01","CLR:00","29.82","10.00","53","080",,"3",,,,,,,,,,,,,,,,,,,,,,,,,,,,,,,,,,,,,"MET10902/21/20 09:52:02 METAR KCQT 211752Z 08003KT 10SM CLR 23/M01 A3002 RMK AO2 SLP164 T02281006 10228 20144 50006","FM-15","7",,,,,,,,,,,,,,,,,,,,,,,,,,,,"2006-02-03"
"72287493134","2020-02-21T10:52:00","FM-15","7",,,"3.89","mi",,,,,,,"PENDING COOP",,,,,,,,,,,,,,,,,,,,,,,,,,,"30.02","32","76","0.00",,,,"20","30.01","CLR:00","29.82","10.00","54","130",,"5",,,,,,,,,,,,,,,,,,,,,,,,,,,,,,,,,,,,,"MET09002/21/20 10:52:02 METAR KCQT 211852Z 13004KT 10SM CLR 24/00 A3002 RMK AO2 SLP163 T02440000","FM-15","7",,,,,,,,,,,,,,,,,,,,,,,,,,,,"2006-02-03"
"72287493134","2020-02-21T11:52:00","FM-15","7",,,"3.89","mi",,,,,,,"PENDING COOP",,,,,,,,,,,,,,,,,,,,,,,,,,,"30.00","36","78","0.00",,,,"22","29.99","CLR:00","29.80","10.00","56","000",,"0",,,,,,,,,,,,,,,,,,,,,,,,,,,,,,,,,,,,,"MET09002/21/20 11:52:02 METAR KCQT 211952Z 00000KT 10SM CLR 26/02 A3000 RMK AO2 SLP156 T02560022","FM-15","7",,,,,,,,,,,,,,,,,,,,,,,,,,,,"2006-02-03"
"72287493134","2020-02-21T12:52:00","FM-15","7",,,"3.89","mi",,,,,,,"PENDING COOP",,,,,,,,,,,,,,,,,,,,,,,,,,,"29.96","36","79","0.00",,"+0.06","8","21","29.95","SCT:04 110","29.76","10.00","57","VRB",,"5",,,,,,,,,,,,,,,,,,,,,,,,,,,,,,,,,,,,,"MET09902/21/20 12:52:02 METAR KCQT 212052Z VRB04KT 10SM SCT110 26/02 A2996 RMK AO2 SLP143 T02610022 58019","FM-15","7",,,,,,,,,,,,,,,,,,,,,,,,,,,,"2006-02-03"
"72287493134","2020-02-21T13:52:00","FM-15","7",,,"3.89","mi",,,,,,,"PENDING COOP",,,,,,,,,,,,,,,,,,,,,,,,,,,"29.94","37","79","0.00",,,,"22","29.93","SCT:04 120","29.74","10.00","57","000",,"0",,,,,,,,,,,,,,,,,,,,,,,,,,,,,,,,,,,,,"MET09302/21/20 13:52:02 METAR KCQT 212152Z 00000KT 10SM SCT120 26/03 A2994 RMK AO2 SLP137 T02610028","FM-15","7",,,,,,,,,,,,,,,,,,,,,,,,,,,,"2006-02-03"
"72287493134","2020-02-21T14:52:00","FM-15","7",,,"3.89","mi",,,,,,,"PENDING COOP",,,,,,,,,,,,,,,,,,,,,,,,,,,"29.94","37","78","0.00",,,,"23","29.93","SCT:04 120","29.74","10.00","57","VRB",,"3",,,,,,,,,,,,,,,,,,,,,,,,,,,,,,,,,,,,,"MET09302/21/20 14:52:02 METAR KCQT 212252Z VRB03KT 10SM SCT120 26/03 A2994 RMK AO2 SLP136 T02560028","FM-15","7",,,,,,,,,,,,,,,,,,,,,,,,,,,,"2006-02-03"
"72287493134","2020-02-21T15:52:00","FM-15","7",,,"3.89","mi",,,,,,,"PENDING COOP",,,,,,,,,,,,,,,,,,,,,,,,,,,"29.93","42","76","0.00",,"+0.04","6","30","29.92","SCT:04 110","29.73","10.00","58","VRB",,"3",,,,,,,,,,,,,,,,,,,,,,,,,,,,,,,,,,,,,"MET11102/21/20 15:52:02 METAR KCQT 212352Z VRB03KT 10SM SCT110 24/06 A2993 RMK AO2 SLP131 T02440056 10267 20228 56012","FM-15","7",,,,,,,,,,,,,,,,,,,,,,,,,,,,"2006-02-03"
"72287493134","2020-02-21T16:52:00","FM-15","7",,,"3.89","mi",,,,,,,"PENDING COOP",,,,,,,,,,,,,,,,,,,,,,,,,,,"29.94","52","71","0.00",,,,"51","29.93","FEW:02 110","29.74","8.00","60","000",,"0",,,,,,,,,,,,,,,,,,,,,,,,,,,,,,,,,,,,,"MET09202/21/20 16:52:01 METAR KCQT 220052Z 00000KT 8SM FEW110 22/11 A2994 RMK AO2 SLP136 T02170111","FM-15","7",,,,,,,,,,,,,,,,,,,,,,,,,,,,"2006-02-03"
"72287493134","2020-02-21T17:52:00","FM-15","7",,,"3.89","mi",,,,,,,"PENDING COOP",,,,,,,,,,,,,,,,,,,,,,,,,,,"29.98","55","67","0.00","HZ:7 |FU |HZ",,,"66","29.97","BKN:07 100","29.78","6.00","60","VRB",,"3",,,,,,,,,,,,,,,,,,,,,,,,,,,,,,,,,,,,,"MET09502/21/20 17:52:01 METAR KCQT 220152Z VRB03KT 6SM HZ BKN100 19/13 A2998 RMK AO2 SLP149 T01940128","FM-15","7",,,,,,,,,,,,,,,,,,,,,,,,,,,,"2006-02-03"
"72287493134","2020-02-21T18:29:00","FM-16","7",,,"3.89","mi",,,,,,,"PENDING COOP",,,,,,,,,,,,,,,,,,,,,,,,,,,"29.99","56","65",,,,,"73",,"SCT:04 13 BKN:07 19 BKN:07 110","29.79","7.00","60","260",,"5",,,,,,,,,,,,,,,,,,,,,,,,,,,,,,,,,,,,,"MET09902/21/20 18:29:01 SPECI KCQT 220229Z 26004KT 7SM SCT013 BKN019 BKN110 18/13 A2999 RMK AO2 T01830133","FM-16","7",,,,,,,,,,,,,,,,,,,,,,,,,,,,"2006-02-03"
"72287493134","2020-02-21T18:36:00","FM-16","7",,,"3.89","mi",,,,,,,"PENDING COOP",,,,,,,,,,,,,,,,,,,,,,,,,,,"29.99","55","65",,,,,"70",,"BKN:07 13 BKN:07 19","29.79","7.00","59","260",,"6",,,,,,,,,,,,,,,,,,,,,,,,,,,,,,,,,,,,,"MET09202/21/20 18:36:01 SPECI KCQT 220236Z 26005KT 7SM BKN013 BKN019 18/13 A2999 RMK AO2 T01830128","FM-16","7",,,,,,,,,,,,,,,,,,,,,,,,,,,,"2006-02-03"
"72287493134","2020-02-21T18:50:00","FM-16","6",,,"3.89","mi",,,,,,,"PENDING COOP",,,,,,,,,,,,,,,,,,,,,,,,,,,"30.00","55","64",,"HZ:7 ||HZ",,,"73",,"SCT:04 13 BKN:07 20 BKN:07 120","29.80","6.00","59","VRB",,"3",,,,,,,,,,,,,,,,,,,,,,,,,,,,,,,,,,,,,"MET09702/21/20 18:50:03 SPECI KCQT 220250Z VRB03KT 6SM HZ SCT013 BKN020 BKN120 18/13 A3000 RMK AO2 FIBI","FM-16","6",,,,,,,,,,,,,,,,,,,,,,,,,,,,"2006-02-03"
"72287493134","2020-02-21T18:52:00","FM-15","7",,,"3.89","mi",,,,,,,"PENDING COOP",,,,,,,,,,,,,,,,,,,,,,,,,,,"30.01","55","65","0.00","HZ:7 |FU |HZ","-0.07","1","70","30.00","SCT:04 13 SCT:04 41 BKN:07 120","29.81","6.00","59","250",,"3",,,,,,,,,,,,,,,,,,,,,,,,,,,,,,,,,,,,,"MET11502/21/20 18:52:01 METAR KCQT 220252Z 25003KT 6SM HZ SCT013 SCT041 BKN120 18/13 A3001 RMK AO2 SLP159 T01830128 51024","FM-15","7",,,,,,,,,,,,,,,,,,,,,,,,,,,,"2006-02-03"
"72287493134","2020-02-21T19:14:00","FM-16","7",,,"3.89","mi",,,,,,,"PENDING COOP",,,,,,,,,,,,,,,,,,,,,,,,,,,"30.02","54","64",,,,,"70",,"BKN:07 16 BKN:07 49 BKN:07 95","29.82","7.00","58","000",,"0",,,,,,,,,,,,,,,,,,,,,,,,,,,,,,,,,,,,,"MET09902/21/20 19:14:01 SPECI KCQT 220314Z 00000KT 7SM BKN016 BKN049 BKN095 18/12 A3002 RMK AO2 T01780122","FM-16","7",,,,,,,,,,,,,,,,,,,,,,,,,,,,"2006-02-03"
"72287493134","2020-02-21T19:45:00","FM-16","7",,,"3.89","mi",,,,,,,"PENDING COOP",,,,,,,,,,,,,,,,,,,,,,,,,,,"30.02","53","64",,,,,"68",,"SCT:04 20 OVC:08 100","29.82","10.00","58","000",,"0",,,,,,,,,,,,,,,,,,,,,,,,,,,,,,,,,,,,,"MET09302/21/20 19:45:01 SPECI KCQT 220345Z 00000KT 10SM SCT020 OVC100 18/12 A3002 RMK AO2 T01780117","FM-16","7",,,,,,,,,,,,,,,,,,,,,,,,,,,,"2006-02-03"
"72287493134","2020-02-21T19:52:00","FM-15","7",,,"3.89","mi",,,,,,,"PENDING COOP",,,,,,,,,,,,,,,,,,,,,,,,,,,"30.02","53","64","0.00",,,,"68","30.01","FEW:02 20 OVC:08 100","29.82","10.00","58","000",,"0",,,,,,,,,,,,,,,,,,,,,,,,,,,,,,,,,,,,,"MET10002/21/20 19:52:01 METAR KCQT 220352Z 00000KT 10SM FEW020 OVC100 18/12 A3002 RMK AO2 SLP164 T01780117","FM-15","7",,,,,,,,,,,,,,,,,,,,,,,,,,,,"2006-02-03"
"72287493134","2020-02-21T20:52:00","FM-15","7",,,"3.89","mi",,,,,,,"PENDING COOP",,,,,,,,,,,,,,,,,,,,,,,,,,,"30.02","53","64","0.00",,,,"68","30.01","OVC:08 110","29.82","10.00","58","000",,"0",,,,,,,,,,,,,,,,,,,,,,,,,,,,,,,,,,,,,"MET09302/21/20 20:52:02 METAR KCQT 220452Z 00000KT 10SM OVC110 18/12 A3002 RMK AO2 SLP164 T01780117","FM-15","7",,,,,,,,,,,,,,,,,,,,,,,,,,,,"2006-02-03"
"72287493134","2020-02-21T21:52:00","FM-15","7",,,"3.89","mi",,,,,,,"PENDING COOP",,,,,,,,,,,,,,,,,,,,,,,,,,,"30.03","53","63","0.00",,"-0.02","1","70","30.02","FEW:02 17 OVC:08 100","29.83","10.00","57","130",,"5",,,,,,,,,,,,,,,,,,,,,,,,,,,,,,,,,,,,,"MET11802/21/20 21:52:02 METAR KCQT 220552Z 13004KT 10SM FEW017 OVC100 17/12 A3003 RMK AO2 SLP166 T01720117 10250 20172 51007","FM-15","7",,,,,,,,,,,,,,,,,,,,,,,,,,,,"2006-02-03"
"72287493134","2020-02-21T22:52:00","FM-15","7",,,"3.89","mi",,,,,,,"PENDING COOP",,,,,,,,,,,,,,,,,,,,,,,,,,,"30.01","52","63","0.00",,,,"68","30.00","FEW:02 19 OVC:08 110","29.81","10.00","57","VRB",,"6",,,,,,,,,,,,,,,,,,,,,,,,,,,,,,,,,,,,,"MET10002/21/20 22:52:02 METAR KCQT 220652Z VRB05KT 10SM FEW019 OVC110 17/11 A3001 RMK AO2 SLP160 T01720111","FM-15","7",,,,,,,,,,,,,,,,,,,,,,,,,,,,"2006-02-03"
"72287493134","2020-02-21T23:06:00","FM-16","7",,,"3.89","mi",,,,,,,"PENDING COOP",,,,,,,,,,,,,,,,,,,,,,,,,,,"30.01","53","63",,,,,"70",,"BKN:07 21 OVC:08 100","29.81","10.00","57","120",,"6",,,,,,,,,,,,,,,,,,,,,,,,,,,,,,,,,,,,,"MET09302/21/20 23:06:02 SPECI KCQT 220706Z 12005KT 10SM BKN021 OVC100 17/12 A3001 RMK AO2 T01720117","FM-16","7",,,,,,,,,,,,,,,,,,,,,,,,,,,,"2006-02-03"
"72287493134","2020-02-21T23:10:00","FM-16","7",,,"3.89","mi",,,,,,,"PENDING COOP",,,,,,,,,,,,,,,,,,,,,,,,,,,"30.00","53","63",,,,,"70",,"FEW:02 18 SCT:04 22 OVC:08 100","29.80","10.00","57","VRB",,"5",,,,,,,,,,,,,,,,,,,,,,,,,,,,,,,,,,,,,"MET10002/21/20 23:10:02 SPECI KCQT 220710Z VRB04KT 10SM FEW018 SCT022 OVC100 17/12 A3000 RMK AO2 T01720117","FM-16","7",,,,,,,,,,,,,,,,,,,,,,,,,,,,"2006-02-03"
"72287493134","2020-02-21T23:52:00","FM-15","7",,,"3.89","mi",,,,,,,"PENDING COOP",,,,,,,,,,,,,,,,,,,,,,,,,,,"30.00","52","62","0.00",,,,"70","29.99","FEW:02 17 SCT:04 22 OVC:08 110","29.80","10.00","56","VRB",,"3",,,,,,,,,,,,,,,,,,,,,,,,,,,,,,,,,,,,,"MET11702/21/20 23:52:02 METAR KCQT 220752Z VRB03KT 10SM FEW017 SCT022 OVC110 17/11 A3000 RMK AO2 SLP156 T01670111 402670144","FM-15","7",,,,,,,,,,,,,,,,,,,,,,,,,,,,"2006-02-03"
"72287493134","2020-02-21T23:59:00","SOD  ","6",,,"3.89","mi",,,,,,,"PENDING COOP",,,,"43","69","45","29.99","29.78","55","2.3","4","9.7","0","80","58","170","12","0.00",,,"130","8","HZ",,,,,,,,,,,,,,,,,,,,,,,,,,,,,,,,,,,,,,,,,,,,,,,,,,,,,,,,"SOD75624 HR PRECIPITATION (IN): 0.00 SNOW DEPTH (IN):0     24 HR SNOWFALL (IN):0.0  WEATHER(CODE):8  24 HR MAX TEMP (F): 8024 HR MIN TEMP (F): 58AVERAGE STATION PRESSURE:29.785 MINIMUM SEA LEVEL PRESSURE:29.91 TIME OF OCCURRENCE:1622 PEAK WIND SPEED (MPH): 12 PEAK WIND DIR (DEG):170 PEAK WIND TIME (LST):      FASTEST 2MIN SPEED (MPH):  8FASTEST 2MIN DIR (DEG):130 FASTEST 2MIN TIME (LST):     AVERAGE WIND SPEED (MPH): 2.3 24 HR AVG TEMP (F): 69DEPART FROM NORMAL: 10  HEATING DEGREE DAYS:  0 COOLING DEGREE DAYS:  4 LATEST DAY MAX TEMP (0700-1900 LST):80  LATEST NIGHT MIN TEMP(1900-0800 LST):58 HOURLY INCREMENTAL PRECIPITATION VALUES (IN):.00 0.00 0.00 0.00 0.00 0.00 0.00 0.00 0.00 0.00 0.00 0.00 0.00 0.00 0.00 0.00 0.00 0.00 0.00 0.00 0.00 0.00 0.00 0.00","SOD  ","6",,,,,,,,,,,,,,,,,,,,,,,,,"0632","1743",,"2006-02-03"
"72287493134","2020-02-22T00:12:00","FM-16","7",,,"3.89","mi",,,,,,,"PENDING COOP",,,,,,,,,,,,,,,,,,,,,,,,,,,"30.00","53","62",,,,,"73",,"SCT:04 16 BKN:07 21 OVC:08 110","29.80","10.00","57","130",,"3",,,,,,,,,,,,,,,,,,,,,,,,,,,,,,,,,,,,,"MET10002/22/20 00:12:02 SPECI KCQT 220812Z 13003KT 10SM SCT016 BKN021 OVC110 17/12 A3000 RMK AO2 T01670117","FM-16","7",,,,,,,,,,,,,,,,,,,,,,,,,,,,"2006-02-03"
"72287493134","2020-02-22T00:52:00","FM-15","7",,,"3.89","mi",,,,,,,"PENDING COOP",,,,,,,,,,,,,,,,,,,,,,,,,,,"30.01","52","62","0.00",,"+0.02","5","70","30.00","FEW:02 17 BKN:07 27 OVC:08 33","29.81","10.00","56","VRB",,"5",,,,,,,,,,,,,,,,,,,,,,,,,,,,,,,,,,,,,"MET11302/22/20 00:52:02 METAR KCQT 220852Z VRB04KT 10SM FEW017 BKN027 OVC033 17/11 A3001 RMK AO2 SLP159 T01670111 55007","FM-15","7",,,,,,,,,,,,,,,,,,,,,,,,,,,,"2006-02-03"
"72287493134","2020-02-22T00:58:00","FM-16","7",,,"3.89","mi",,,,,,,"PENDING COOP",,,,,,,,,,,,,,,,,,,,,,,,,,,"30.01","52","62",,,,,"70",,"FEW:02 15 SCT:04 27 OVC:08 33","29.81","10.00","56","VRB",,"5",,,,,,,,,,,,,,,,,,,,,,,,,,,,,,,,,,,,,"MET10002/22/20 00:58:02 SPECI KCQT 220858Z VRB04KT 10SM FEW015 SCT027 OVC033 17/11 A3001 RMK AO2 T01670111","FM-16","7",,,,,,,,,,,,,,,,,,,,,,,,,,,,"2006-02-03"
"72287493134","2020-02-22T01:50:00","FM-16","6",,,"3.89","mi",,,,,,,"PENDING COOP",,,,,,,,,,,,,,,,,,,,,,,,,,,"30.01","52","63",,,,,"68",,"SCT:04 18 BKN:07 22 OVC:08 100","29.81","10.00","57","130",,"6",,,,,,,,,,,,,,,,,,,,,,,,,,,,,,,,,,,,,"MET09502/22/20 01:50:02 SPECI KCQT 220950Z 13005KT 10SM SCT018 BKN022 OVC100 17/11 A3001 RMK AO2 FIBI","FM-16","6",,,,,,,,,,,,,,,,,,,,,,,,,,,,"2006-02-03"
"72287493134","2020-02-22T01:52:00","FM-15","7",,,"3.89","mi",,,,,,,"PENDING COOP",,,,,,,,,,,,,,,,,,,,,,,,,,,"30.01","52","62","0.00",,,,"70","30.00","SCT:04 18 BKN:07 22 OVC:08 100","29.81","10.00","56","VRB",,"3",,,,,,,,,,,,,,,,,,,,,,,,,,,,,,,,,,,,,"MET10702/22/20 01:52:02 METAR KCQT 220952Z VRB03KT 10SM SCT018 BKN022 OVC100 17/11 A3001 RMK AO2 SLP159 T01670111","FM-15","7",,,,,,,,,,,,,,,,,,,,,,,,,,,,"2006-02-03"
"72287493134","2020-02-22T02:46:00","FM-16","7",,,"3.89","mi",,,,,,,"PENDING COOP",,,,,,,,,,,,,,,,,,,,,,,,,,,"30.00","51","61",,,,,"70",,"FEW:02 18 SCT:04 24 BKN:07 110","29.80","10.00","56","000",,"0",,,,,,,,,,,,,,,,,,,,,,,,,,,,,,,,,,,,,"MET10002/22/20 02:46:02 SPECI KCQT 221046Z 00000KT 10SM FEW018 SCT024 BKN110 16/11 A3000 RMK AO2 T01610106","FM-16","7",,,,,,,,,,,,,,,,,,,,,,,,,,,,"2006-02-03"
"72287493134","2020-02-22T02:52:00","FM-15","7",,,"3.89","mi",,,,,,,"PENDING COOP",,,,,,,,,,,,,,,,,,,,,,,,,,,"30.00","50","61","0.00",,,,"67","29.99","FEW:02 18 SCT:04 26 OVC:08 110","29.80","10.00","55","VRB",,"3",,,,,,,,,,,,,,,,,,,,,,,,,,,,,,,,,,,,,"MET10702/22/20 02:52:02 METAR KCQT 221052Z VRB03KT 10SM FEW018 SCT026 OVC110 16/10 A3000 RMK AO2 SLP156 T01610100","FM-15","7",,,,,,,,,,,,,,,,,,,,,,,,,,,,"2006-02-03"
"72287493134","2020-02-22T03:52:00","FM-15","7",,,"3.89","mi",,,,,,,"PENDING COOP",,,,,,,,,,,,,,,,,,,,,,,,,,,"29.99","51","61","0.00",,"+0.02","8","70","29.98","FEW:02 21 FEW:02 31 BKN:07 100","29.79","10.00","56","VRB",,"3",,,,,,,,,,,,,,,,,,,,,,,,,,,,,,,,,,,,,"MET12502/22/20 03:52:02 METAR KCQT 221152Z VRB03KT 10SM FEW021 FEW031 BKN100 16/11 A2999 RMK AO2 SLP152 T01610106 10172 20161 58006","FM-15","7",,,,,,,,,,,,,,,,,,,,,,,,,,,,"2006-02-03"
"72287493134","2020-02-22T04:18:00","FM-16","7",,,"3.89","mi",,,,,,,"PENDING COOP",,,,,,,,,,,,,,,,,,,,,,,,,,,"29.99","50","61",,,,,"67",,"SCT:04 21 BKN:07 29 BKN:07 95","29.79","10.00","55","VRB",,"3",,,,,,,,,,,,,,,,,,,,,,,,,,,,,,,,,,,,,"MET10002/22/20 04:18:02 SPECI KCQT 221218Z VRB03KT 10SM SCT021 BKN029 BKN095 16/10 A2999 RMK AO2 T01610100","FM-16","7",,,,,,,,,,,,,,,,,,,,,,,,,,,,"2006-02-03"
"72287493134","2020-02-22T04:50:00","FM-16","6",,,"3.89","mi",,,,,,,"PENDING COOP",,,,,,,,,,,,,,,,,,,,,,,,,,,"29.99","50","61",,,,,"68",,"SCT:04 20 BKN:07 100","29.79","10.00","55","VRB",,"5",,,,,,,,,,,,,,,,,,,,,,,,,,,,,,,,,,,,,"MET08802/22/20 04:50:02 SPECI KCQT 221250Z VRB04KT 10SM SCT020 BKN100 16/10 A2999 RMK AO2 FIBI","FM-16","6",,,,,,,,,,,,,,,,,,,,,,,,,,,,"2006-02-03"
"72287493134","2020-02-22T04:52:00","FM-15","7",,,"3.89","mi",,,,,,,"PENDING COOP",,,,,,,,,,,,,,,,,,,,,,,,,,,"29.99","50","61","0.00",,,,"67","29.99","SCT:04 20 OVC:08 100","29.79","10.00","55","100",,"6",,,,,,,,,,,,,,,,,,,,,,,,,,,,,,,,,,,,,"MET10002/22/20 04:52:02 METAR KCQT 221252Z 10005KT 10SM SCT020 OVC100 16/10 A2999 RMK AO2 SLP155 T01610100","FM-15","7",,,,,,,,,,,,,,,,,,,,,,,,,,,,"2006-02-03"
"72287493134","2020-02-22T05:52:00","FM-15","7",,,"3.89","mi",,,,,,,"PENDING COOP",,,,,,,,,,,,,,,,,,,,,,,,,,,"30.00","51","60","0.00",,,,"72","29.99","FEW:02 21 SCT:04 45 OVC:08 95","29.80","10.00","55","000",,"0",,,,,,,,,,,,,,,,,,,,,,,,,,,,,,,,,,,,,"MET10702/22/20 05:52:02 METAR KCQT 221352Z 00000KT 10SM FEW021 SCT045 OVC095 16/11 A3000 RMK AO2 SLP156 T01560106","FM-15","7",,,,,,,,,,,,,,,,,,,,,,,,,,,,"2006-02-03"
"72287493134","2020-02-22T06:52:00","FM-15","7",,,"3.89","mi",,,,,,,"PENDING COOP",,,,,,,,,,,,,,,,,,,,,,,,,,,"30.01","51","60","0.00",,"-0.02","3","72","30.00","OVC:08 95","29.81","10.00","55","080",,"3",,,,,,,,,,,,,,,,,,,,,,,,,,,,,,,,,,,,,"MET09902/22/20 06:52:02 METAR KCQT 221452Z 08003KT 10SM OVC095 16/11 A3001 RMK AO2 SLP160 T01560106 53007","FM-15","7",,,,,,,,,,,,,,,,,,,,,,,,,,,,"2006-02-03"
"72287493134","2020-02-22T07:52:00","FM-15","7",,,"3.89","mi",,,,,,,"PENDING COOP",,,,,,,,,,,,,,,,,,,,,,,,,,,"30.03","50","61","0.00",,,,"67","30.03","FEW:02 21 SCT:04 31 BKN:07 85","29.83","10.00","55","090",,"5",,,,,,,,,,,,,,,,,,,,,,,,,,,,,,,,,,,,,"MET10702/22/20 07:52:02 METAR KCQT 221552Z 09004KT 10SM FEW021 SCT031 BKN085 16/10 A3003 RMK AO2 SLP168 T01610100","FM-15","7",,,,,,,,,,,,,,,,,,,,,,,,,,,,"2006-02-03"
"72287493134","2020-02-22T08:52:00","FM-15","7",,,"3.89","mi",,,,,,,"PENDING COOP",,,,,,,,,,,,,,,,,,,,,,,,,,,"30.04","48","62","0.00",,,,"60","30.04","FEW:02 22 BKN:07 34 BKN:07 75","29.84","10.00","55","000",,"0",,,,,,,,,,,,,,,,,,,,,,,,,,,,,,,,,,,,,"MET10702/22/20 08:52:02 METAR KCQT 221652Z 00000KT 10SM FEW022 BKN034 BKN075 17/09 A3004 RMK AO2 SLP172 T01670089","FM-15","7",,,,,,,,,,,,,,,,,,,,,,,,,,,,"2006-02-03"
"72287493134","2020-02-22T09:52:00","FM-15","7",,,"3.89","mi",,,,,,,"PENDING COOP",,,,,,,,,,,,,,,,,,,,,,,,,,,"30.04","46","64","0.00",,"-0.04","1","52","30.04","FEW:02 28 FEW:02 39 OVC:08 80","29.84","10.00","54","000",,"0",,,,,,,,,,,,,,,,,,,,,,,,,,,,,,,,,,,,,"MET12502/22/20 09:52:02 METAR KCQT 221752Z 00000KT 10SM FEW028 FEW039 OVC080 18/08 A3004 RMK AO2 SLP172 T01780078 10183 20156 51012","FM-15","7",,,,,,,,,,,,,,,,,,,,,,,,,,,,"2006-02-03"
"72287493134","2020-02-22T10:52:00","FM-15","7",,,"3.89","mi",,,,,,,"PENDING COOP",,,,,,,,,,,,,,,,,,,,,,,,,,,"30.04","46","65","0.00",,,,"51","30.03","BKN:07 80 OVC:08 95","29.84","10.00","55","000",,"0",,,,,,,,,,,,,,,,,,,,,,,,,,,,,,,,,,,,,"MET10002/22/20 10:52:02 METAR KCQT 221852Z 00000KT 10SM BKN080 OVC095 18/08 A3004 RMK AO2 SLP171 T01830078","FM-15","7",,,,,,,,,,,,,,,,,,,,,,,,,,,,"2006-02-03"
"72287493134","2020-02-22T11:52:00","FM-15","7",,,"3.89","mi",,,,,,,"PENDING COOP",,,,,,,,,,,,,,,,,,,,,,,,,,,"30.03","46","66","0.00",,,,"49","30.03","SCT:04 38 OVC:08 80","29.83","10.00","55","VRB",,"3",,,,,,,,,,,,,,,,,,,,,,,,,,,,,,,,,,,,,"MET10002/22/20 11:52:02 METAR KCQT 221952Z VRB03KT 10SM SCT038 OVC080 19/08 A3003 RMK AO2 SLP168 T01890078","FM-15","7",,,,,,,,,,,,,,,,,,,,,,,,,,,,"2006-02-03"
"72287493134","2020-02-22T12:43:00","FM-16","6",,,"3.89","mi",,,,,,,"PENDING COOP",,,,,,,,,,,,,,,,,,,,,,,,,,,"30.03","50","60",,"RA:02 |RA |RA",,,"70",,"SCT:04 34 SCT:04 46 OVC:08 70","29.83","2.50","55",,,,,,,,,,,,,,,,,,,,,,,,,,,,,,,,,,,,,,,,"MET11802/22/20 12:43:02 SPECI KCQT 222043Z      KT 2 1/2SM RA SCT034 SCT046 OVC070 16/10 A3003 RMK AO2 RAB28 P0003 T01560100","FM-16","6",,,,,,,,,,,,,,,,,,,,,,,,,,,,"2006-02-03"
"72287493134","2020-02-22T12:48:00","FM-16","7",,,"3.89","mi",,,,,,,"PENDING COOP",,,,,,,,,,,,,,,,,,,,,,,,,,,"30.03","51","61","0.04","-RA:02 |RA |RA",,,"70",,"FEW:02 32 BKN:07 50 OVC:08 70","29.83","4.00","56","140",,"9",,,,,,,,,,,,,,,,,,,,,,,,,,,,,,,,,,,,,"MET11502/22/20 12:48:02 SPECI KCQT 222048Z 14008KT 4SM -RA FEW032 BKN050 OVC070 16/11 A3003 RMK AO2 RAB28 P0004 T01610106","FM-16","7",,,,,,,,,,,,,,,,,,,,,,,,,,,,"2006-02-03"
"72287493134","2020-02-22T12:52:00","FM-15","7",,,"3.89","mi",,,,,,,"PENDING COOP",,,,,,,,,,,,,,,,,,,,,,,,,,,"30.03","49","59","0.04","-RA:02 |RA |RA","+0.01","6","69","30.02","FEW:02 34 BKN:07 50 OVC:08 70","29.83","7.00","54","VRB","18","6",,,,,,,,,,,,,,,,,,,,,,,,,,,,,,,,,,,,,"MET13702/22/20 12:52:02 METAR KCQT 222052Z VRB05G16KT 7SM -RA FEW034 BKN050 OVC070 15/09 A3003 RMK AO2 RAB28 SLP167 P0004 60004 T01500094 56005","FM-15","7",,,,,,,,,,,,,,,,,,,,,,,,,,,,"2006-02-03"
"72287493134","2020-02-22T13:52:00","FM-15","7",,,"3.89","mi",,,,,,,"PENDING COOP",,,,,,,,,,,,,,,,,,,,,,,,,,,"30.02","48","63","T",,,,"58","30.01","BKN:07 65","29.82","10.00","55","000",,"0",,,,,,,,,,,,,,,,,,,,,,,,,,,,,,,,,,,,,"MET10502/22/20 13:52:02 METAR KCQT 222152Z 00000KT 10SM BKN065 17/09 A3002 RMK AO2 RAE03 SLP163 P0000 T01720089","FM-15","7",,,,,,,,,,,,,,,,,,,,,,,,,,,,"2006-02-03"
"72287493134","2020-02-22T14:52:00","FM-15","7",,,"3.89","mi",,,,,,,"PENDING COOP",,,,,,,,,,,,,,,,,,,,,,,,,,,"30.01","46","65","0.00",,,,"51","30.01","BKN:07 37 BKN:07 65","29.81","10.00","55","000",,"0",,,,,,,,,,,,,,,,,,,,,,,,,,,,,,,,,,,,,"MET10002/22/20 14:52:02 METAR KCQT 222252Z 00000KT 10SM BKN037 BKN065 18/08 A3001 RMK AO2 SLP162 T01830078","FM-15","7",,,,,,,,,,,,,,,,,,,,,,,,,,,,"2006-02-03"
"72287493134","2020-02-22T15:52:00","FM-15","7",,,"3.89","mi",,,,,,,"PENDING COOP",,,,,,,,,,,,,,,,,,,,,,,,,,,"30.02","47","64","0.00",,"+0.01","5","54","30.01","FEW:02 31","29.82","10.00","55","250",,"7",,,,,,,,,,,,,,,,,,,,,,,,,,,,,,,,,,,,,"MET12102/22/20 15:52:02 METAR KCQT 222352Z 25006KT 10SM FEW031 18/08 A3002 RMK AO2 SLP164 60004 T01780083 10189 20150 55003 RTX","FM-15","7",,,,,,,,,,,,,,,,,,,,,,,,,,,,"2006-02-03"
"72287493134","2020-02-22T16:52:00","FM-15","7",,,"3.89","mi",,,,,,,"PENDING COOP",,,,,,,,,,,,,,,,,,,,,,,,,,,"30.04","47","62","0.00",,,,"58","30.04","FEW:02 27 SCT:04 70 OVC:08 100","29.84","10.00","54","250",,"3",,,,,,,,,,,,,,,,,,,,,,,,,,,,,,,,,,,,,"MET10702/22/20 16:52:01 METAR KCQT 230052Z 25003KT 10SM FEW027 SCT070 OVC100 17/08 A3004 RMK AO2 SLP172 T01670083","FM-15","7",,,,,,,,,,,,,,,,,,,,,,,,,,,,"2006-02-03"
"72287493134","2020-02-22T17:52:00","FM-15","7",,,"3.89","mi",,,,,,,"PENDING COOP",,,,,,,,,,,,,,,,,,,,,,,,,,,"30.06","48","61","0.00",,,,"63","30.06","BKN:07 75 OVC:08 110","29.86","10.00","54","260",,"3",,,,,,,,,,,,,,,,,,,,,,,,,,,,,,,,,,,,,"MET10002/22/20 17:52:01 METAR KCQT 230152Z 26003KT 10SM BKN075 OVC110 16/09 A3006 RMK AO2 SLP178 T01610089","FM-15","7",,,,,,,,,,,,,,,,,,,,,,,,,,,,"2006-02-03"
"72287493134","2020-02-22T18:52:00","FM-15","7",,,"3.89","mi",,,,,,,"PENDING COOP",,,,,,,,,,,,,,,,,,,,,,,,,,,"30.08","50","61","T",,"-0.06","1","67","30.07","OVC:08 90","29.88","10.00","55","260",,"3",,,,,,,,,,,,,,,,,,,,,,,,,,,,,,,,,,,,,"MET12002/22/20 18:52:01 METAR KCQT 230252Z 26003KT 10SM OVC090 16/10 A3008 RMK AO2 RAB10E35 SLP184 P0000 60000 T01610100 51020","FM-15","7",,,,,,,,,,,,,,,,,,,,,,,,,,,,"2006-02-03"
"72287493134","2020-02-22T19:31:00","FM-16","7",,,"3.89","mi",,,,,,,"PENDING COOP",,,,,,,,,,,,,,,,,,,,,,,,,,,"30.09","50","61",,,,,"67",,"FEW:02 21 BKN:07 26 OVC:08 85","29.89","10.00","55","000",,"0",,,,,,,,,,,,,,,,,,,,,,,,,,,,,,,,,,,,,"MET10002/22/20 19:31:01 SPECI KCQT 230331Z 00000KT 10SM FEW021 BKN026 OVC085 16/10 A3009 RMK AO2 T01610100","FM-16","7",,,,,,,,,,,,,,,,,,,,,,,,,,,,"2006-02-03"
"72287493134","2020-02-22T19:35:00","FM-16","7",,,"3.89","mi",,,,,,,"PENDING COOP",,,,,,,,,,,,,,,,,,,,,,,,,,,"30.09","50","61",,,,,"67",,"FEW:02 19 SCT:04 26 OVC:08 85","29.89","10.00","55","250",,"3",,,,,,,,,,,,,,,,,,,,,,,,,,,,,,,,,,,,,"MET10002/22/20 19:35:01 SPECI KCQT 230335Z 25003KT 10SM FEW019 SCT026 OVC085 16/10 A3009 RMK AO2 T01610100","FM-16","7",,,,,,,,,,,,,,,,,,,,,,,,,,,,"2006-02-03"
"72287493134","2020-02-22T19:52:00","FM-15","7",,,"3.89","mi",,,,,,,"PENDING COOP",,,,,,,,,,,,,,,,,,,,,,,,,,,"30.09","50","61","0.00",,,,"67","30.08","SCT:04 24 OVC:08 85","29.89","10.00","55","000",,"0",,,,,,,,,,,,,,,,,,,,,,,,,,,,,,,,,,,,,"MET10002/22/20 19:52:01 METAR KCQT 230352Z 00000KT 10SM SCT024 OVC085 16/10 A3009 RMK AO2 SLP187 T01610100","FM-15","7",,,,,,,,,,,,,,,,,,,,,,,,,,,,"2006-02-03"
"72287493134","2020-02-22T20:52:00","FM-15","7",,,"3.89","mi",,,,,,,"PENDING COOP",,,,,,,,,,,,,,,,,,,,,,,,,,,"30.11","48","60","0.00",,,,"65","30.10","CLR:00","29.91","10.00","54","000",,"0",,,,,,,,,,,,,,,,,,,,,,,,,,,,,,,,,,,,,"MET09002/22/20 20:52:02 METAR KCQT 230452Z 00000KT 10SM CLR 16/09 A3011 RMK AO2 SLP194 T01560089","FM-15","7",,,,,,,,,,,,,,,,,,,,,,,,,,,,"2006-02-03"
"72287493134","2020-02-22T21:52:00","FM-15","7",,,"3.89","mi",,,,,,,"PENDING COOP",,,,,,,,,,,,,,,,,,,,,,,,,,,"30.12","49","60","0.00",,"-0.04","3","67","30.12","BKN:07 42","29.92","10.00","54","000",,"0",,,,,,,,,,,,,,,,,,,,,,,,,,,,,,,,,,,,,"MET11702/22/20 21:52:02 METAR KCQT 230552Z 00000KT 10SM BKN042 16/09 A3012 RMK AO2 SLP199 60000 T01560094 10178 20150 53015","FM-15","7",,,,,,,,,,,,,,,,,,,,,,,,,,,,"2006-02-03"
"72287493134","2020-02-22T22:52:00","FM-15","7",,,"3.89","mi",,,,,,,"PENDING COOP",,,,,,,,,,,,,,,,,,,,,,,,,,,"30.14","49","60","0.00",,,,"67","30.14","FEW:02 34 OVC:08 43","29.94","10.00","54","000",,"0",,,,,,,,,,,,,,,,,,,,,,,,,,,,,,,,,,,,,"MET10002/22/20 22:52:02 METAR KCQT 230652Z 00000KT 10SM FEW034 OVC043 16/09 A3014 RMK AO2 SLP205 T01560094","FM-15","7",,,,,,,,,,,,,,,,,,,,,,,,,,,,"2006-02-03"
"72287493134","2020-02-22T23:52:00","FM-15","7",,,"3.89","mi",,,,,,,"PENDING COOP",,,,,,,,,,,,,,,,,,,,,,,,,,,"30.14","47","61","0.00",,,,"60","30.14","OVC:08 43","29.94","10.00","54","000",,"0",,,,,,,,,,,,,,,,,,,,,,,,,,,,,,,,,,,,,"MET10302/22/20 23:52:02 METAR KCQT 230752Z 00000KT 10SM OVC043 16/08 A3014 RMK AO2 SLP205 T01610083 401890150","FM-15","7",,,,,,,,,,,,,,,,,,,,,,,,,,,,"2006-02-03"
"72287493134","2020-02-22T23:59:00","SOD  ","6",,,"3.89","mi",,,,,,,"PENDING COOP",,,,"49","63","63","30.04","29.84","55","2.3","0","3.6","2","66","59","140","18","0.04",,,"260","10","RA",,,,,,,,,,,,,,,,,,,,,,,,,,,,,,,,,,,,,,,,,,,,,,,,,,,,,,,,"SOD73924 HR PRECIPITATION (IN): 0.04 SNOW DEPTH (IN):0     24 HR SNOWFALL (IN):0.0  24 HR MAX TEMP (F): 6624 HR MIN TEMP (F): 59AVERAGE STATION PRESSURE:29.840 MINIMUM SEA LEVEL PRESSURE:29.97 TIME OF OCCURRENCE:0342 PEAK WIND SPEED (MPH): 18 PEAK WIND DIR (DEG):140 PEAK WIND TIME (LST):      FASTEST 2MIN SPEED (MPH): 10FASTEST 2MIN DIR (DEG):260 FASTEST 2MIN TIME (LST):     AVERAGE WIND SPEED (MPH): 2.3 24 HR AVG TEMP (F): 63DEPART FROM NORMAL:  4  HEATING DEGREE DAYS:  2 COOLING DEGREE DAYS:  0 LATEST DAY MAX TEMP (0700-1900 LST):66  LATEST NIGHT MIN TEMP(1900-0800 LST):60 HOURLY INCREMENTAL PRECIPITATION VALUES (IN):.00 0.00 0.00 0.00 0.00 0.00 0.00 0.00 0.00 0.00 0.00 0.00 0.04 T    0.00 0.00 0.00 0.00 T    0.00 0.00 0.00 0.00 0.00","SOD  ","6",,,,,,,,,,,,,,,,,,,,,,,,,"0630","1743",,"2006-02-03"
"72287493134","2020-02-23T00:52:00","FM-15","7",,,"3.89","mi",,,,,,,"PENDING COOP",,,,,,,,,,,,,,,,,,,,,,,,,,,"30.15","47","60","0.00",,"-0.03","1","62","30.15","SCT:04 34 BKN:07 42","29.95","10.00","53","000",,"0",,,,,,,,,,,,,,,,,,,,,,,,,,,,,,,,,,,,,"MET10602/23/20 00:52:02 METAR KCQT 230852Z 00000KT 10SM SCT034 BKN042 16/08 A3015 RMK AO2 SLP210 T01560083 51010","FM-15","7",,,,,,,,,,,,,,,,,,,,,,,,,,,,"2006-02-03"
"72287493134","2020-02-23T01:52:00","FM-15","7",,,"3.89","mi",,,,,,,"PENDING COOP",,,,,,,,,,,,,,,,,,,,,,,,,,,"30.16","47","58","0.00",,,,"67","30.15","FEW:02 40","29.96","10.00","52","000",,"0",,,,,,,,,,,,,,,,,,,,,,,,,,,,,,,,,,,,,"MET09302/23/20 01:52:02 METAR KCQT 230952Z 00000KT 10SM FEW040 14/08 A3016 RMK AO2 SLP211 T01440083","FM-15","7",,,,,,,,,,,,,,,,,,,,,,,,,,,,"2006-02-03"
"72287493134","2020-02-23T02:52:00","FM-15","7",,,"3.89","mi",,,,,,,"PENDING COOP",,,,,,,,,,,,,,,,,,,,,,,,,,,"30.15","47","57","0.00",,,,"69","30.15","CLR:00","29.95","10.00","52","000",,"0",,,,,,,,,,,,,,,,,,,,,,,,,,,,,,,,,,,,,"MET09002/23/20 02:52:02 METAR KCQT 231052Z 00000KT 10SM CLR 14/08 A3015 RMK AO2 SLP210 T01390083","FM-15","7",,,,,,,,,,,,,,,,,,,,,,,,,,,,"2006-02-03"
"72287493134","2020-02-23T03:52:00","FM-15","7",,,"3.89","mi",,,,,,,"PENDING COOP",,,,,,,,,,,,,,,,,,,,,,,,,,,"30.16","47","56","0.00",,"-0.01","3","72","30.16","CLR:00","29.96","10.00","51","000",,"0",,,,,,,,,,,,,,,,,,,,,,,,,,,,,,,,,,,,,"MET11402/23/20 03:52:02 METAR KCQT 231152Z 00000KT 10SM CLR 13/08 A3016 RMK AO2 SLP214 70004 T01330083 10161 20128 53003","FM-15","7",,,,,,,,,,,,,,,,,,,,,,,,,,,,"2006-02-03"
"72287493134","2020-02-23T04:52:00","FM-15","7",,,"3.89","mi",,,,,,,"PENDING COOP",,,,,,,,,,,,,,,,,,,,,,,,,,,"30.19","47","54","0.00",,,,"77","30.18","CLR:00","29.99","10.00","50","000",,"0",,,,,,,,,,,,,,,,,,,,,,,,,,,,,,,,,,,,,"MET09002/23/20 04:52:02 METAR KCQT 231252Z 00000KT 10SM CLR 12/08 A3019 RMK AO2 SLP221 T01220083","FM-15","7",,,,,,,,,,,,,,,,,,,,,,,,,,,,"2006-02-03"
"72287493134","2020-02-23T05:52:00","FM-15","7",,,"3.89","mi",,,,,,,"PENDING COOP",,,,,,,,,,,,,,,,,,,,,,,,,,,"30.21","46","54","0.00",,,,"75","30.21","CLR:00","30.01","10.00","50","000",,"0",,,,,,,,,,,,,,,,,,,,,,,,,,,,,,,,,,,,,"MET09402/23/20 05:52:02 METAR KCQT 231352Z 00000KT 10SM CLR 12/08 A3021 RMK AO2 SLP231 T01220078 RTX","FM-15","7",,,,,,,,,,,,,,,,,,,,,,,,,,,,"2006-02-03"
"72287493134","2020-02-23T06:52:00","FM-15","7",,,"3.89","mi",,,,,,,"PENDING COOP",,,,,,,,,,,,,,,,,,,,,,,,,,,"30.24","47","54","0.00",,"-0.07","3","77","30.24","CLR:00","30.04","9.00","50","000",,"0",,,,,,,,,,,,,,,,,,,,,,,,,,,,,,,,,,,,,"MET09902/23/20 06:52:02 METAR KCQT 231452Z 00000KT 9SM CLR 12/08 A3024 RMK AO2 SLP239 T01220083 53025 RTX","FM-15","7",,,,,,,,,,,,,,,,,,,,,,,,,,,,"2006-02-03"
"72287493134","2020-02-23T07:52:00","FM-15","7",,,"3.89","mi",,,,,,,"PENDING COOP",,,,,,,,,,,,,,,,,,,,,,,,,,,"30.26","48","58","0.00",,,,"70","30.26","CLR:00","30.06","9.00","53","000",,"0",,,,,,,,,,,,,,,,,,,,,,,,,,,,,,,,,,,,,"MET08902/23/20 07:52:02 METAR KCQT 231552Z 00000KT 9SM CLR 14/09 A3026 RMK AO2 SLP247 T01440089","FM-15","7",,,,,,,,,,,,,,,,,,,,,,,,,,,,"2006-02-03"
"72287493134","2020-02-23T08:52:00","FM-15","7",,,"3.89","mi",,,,,,,"PENDING COOP",,,,,,,,,,,,,,,,,,,,,,,,,,,"30.28","49","61","0.00",,,,"65","30.27","FEW:02 21 SCT:04 29","30.08","10.00","55","000",,"0",,,,,,,,,,,,,,,,,,,,,,,,,,,,,,,,,,,,,"MET10002/23/20 08:52:02 METAR KCQT 231652Z 00000KT 10SM FEW021 SCT029 16/09 A3028 RMK AO2 SLP252 T01610094","FM-15","7",,,,,,,,,,,,,,,,,,,,,,,,,,,,"2006-02-03"
"72287493134","2020-02-23T08:55:00","FM-16","7",,,"3.89","mi",,,,,,,"PENDING COOP",,,,,,,,,,,,,,,,,,,,,,,,,,,"30.28","48","62",,,,,"60",,"FEW:02 21 BKN:07 29","30.08","10.00","55","000",,"0",,,,,,,,,,,,,,,,,,,,,,,,,,,,,,,,,,,,,"MET09302/23/20 08:55:02 SPECI KCQT 231655Z 00000KT 10SM FEW021 BKN029 17/09 A3028 RMK AO2 T01670089","FM-16","7",,,,,,,,,,,,,,,,,,,,,,,,,,,,"2006-02-03"
"72287493134","2020-02-23T09:00:00","FM-16","7",,,"3.89","mi",,,,,,,"PENDING COOP",,,,,,,,,,,,,,,,,,,,,,,,,,,"30.28","48","62",,,,,"60",,"FEW:02 21 BKN:07 31","30.08","10.00","55","000",,"0",,,,,,,,,,,,,,,,,,,,,,,,,,,,,,,,,,,,,"MET09302/23/20 09:00:02 SPECI KCQT 231700Z 00000KT 10SM FEW021 BKN031 17/09 A3028 RMK AO2 T01670089","FM-16","7",,,,,,,,,,,,,,,,,,,,,,,,,,,,"2006-02-03"
"72287493134","2020-02-23T09:15:00","FM-16","7",,,"3.89","mi",,,,,,,"PENDING COOP",,,,,,,,,,,,,,,,,,,,,,,,,,,"30.28","48","63",,,,,"58",,"FEW:02 23 BKN:07 28 BKN:07 33","30.08","10.00","55","000",,"0",,,,,,,,,,,,,,,,,,,,,,,,,,,,,,,,,,,,,"MET10002/23/20 09:15:02 SPECI KCQT 231715Z 00000KT 10SM FEW023 BKN028 BKN033 17/09 A3028 RMK AO2 T01720089","FM-16","7",,,,,,,,,,,,,,,,,,,,,,,,,,,,"2006-02-03"
"72287493134","2020-02-23T09:24:00","FM-16","7",,,"3.89","mi",,,,,,,"PENDING COOP",,,,,,,,,,,,,,,,,,,,,,,,,,,"30.28","48","63",,,,,"58",,"SCT:04 25 BKN:07 31","30.08","10.00","55","000",,"0",,,,,,,,,,,,,,,,,,,,,,,,,,,,,,,,,,,,,"MET09302/23/20 09:24:02 SPECI KCQT 231724Z 00000KT 10SM SCT025 BKN031 17/09 A3028 RMK AO2 T01720089","FM-16","7",,,,,,,,,,,,,,,,,,,,,,,,,,,,"2006-02-03"
"72287493134","2020-02-23T09:28:00","FM-16","7",,,"3.89","mi",,,,,,,"PENDING COOP",,,,,,,,,,,,,,,,,,,,,,,,,,,"30.28","48","64",,,,,"56",,"BKN:07 25","30.08","10.00","55","000",,"0",,,,,,,,,,,,,,,,,,,,,,,,,,,,,,,,,,,,,"MET08602/23/20 09:28:02 SPECI KCQT 231728Z 00000KT 10SM BKN025 18/09 A3028 RMK AO2 T01780089","FM-16","7",,,,,,,,,,,,,,,,,,,,,,,,,,,,"2006-02-03"
"72287493134","2020-02-23T09:52:00","FM-15","7",,,"3.89","mi",,,,,,,"PENDING COOP",,,,,,,,,,,,,,,,,,,,,,,,,,,"30.29","47","63","0.00",,"-0.05","1","56","30.28","OVC:08 26","30.09","10.00","55","000",,"0",,,,,,,,,,,,,,,,,,,,,,,,,,,,,,,,,,,,,"MET11102/23/20 09:52:02 METAR KCQT 231752Z 00000KT 10SM OVC026 17/08 A3029 RMK AO2 SLP255 T01720083 10178 20117 51016","FM-15","7",,,,,,,,,,,,,,,,,,,,,,,,,,,,"2006-02-03"
"72287493134","2020-02-23T10:22:00","FM-16","7",,,"3.89","mi",,,,,,,"PENDING COOP",,,,,,,,,,,,,,,,,,,,,,,,,,,"30.29","47","64",,,,,"54",,"BKN:07 31","30.09","10.00","55","VRB",,"3",,,,,,,,,,,,,,,,,,,,,,,,,,,,,,,,,,,,,"MET08602/23/20 10:22:02 SPECI KCQT 231822Z VRB03KT 10SM BKN031 18/08 A3029 RMK AO2 T01780083","FM-16","7",,,,,,,,,,,,,,,,,,,,,,,,,,,,"2006-02-03"
"72287493134","2020-02-23T10:52:00","FM-15","7",,,"3.89","mi",,,,,,,"PENDING COOP",,,,,,,,,,,,,,,,,,,,,,,,,,,"30.29","47","66","0.00",,,,"50","30.29","OVC:08 33","30.09","10.00","56","VRB",,"5",,,,,,,,,,,,,,,,,,,,,,,,,,,,,,,,,,,,,"MET09302/23/20 10:52:02 METAR KCQT 231852Z VRB04KT 10SM OVC033 19/08 A3029 RMK AO2 SLP256 T01890083","FM-15","7",,,,,,,,,,,,,,,,,,,,,,,,,,,,"2006-02-03"
"72287493134","2020-02-23T11:52:00","FM-15","7",,,"3.89","mi",,,,,,,"PENDING COOP",,,,,,,,,,,,,,,,,,,,,,,,,,,"30.28","48","66","0.00",,,,"52","30.27","SCT:04 35 SCT:04 43","30.08","10.00","56","000",,"0",,,,,,,,,,,,,,,,,,,,,,,,,,,,,,,,,,,,,"MET10002/23/20 11:52:02 METAR KCQT 231952Z 00000KT 10SM SCT035 SCT043 19/09 A3028 RMK AO2 SLP251 T01890089","FM-15","7",,,,,,,,,,,,,,,,,,,,,,,,,,,,"2006-02-03"
"72287493134","2020-02-23T12:52:00","FM-15","7",,,"3.89","mi",,,,,,,"PENDING COOP",,,,,,,,,,,,,,,,,,,,,,,,,,,"30.25","49","67","0.00",,"+0.04","8","53","30.24","BKN:07 40","30.05","10.00","57","250",,"5",,,,,,,,,,,,,,,,,,,,,,,,,,,,,,,,,,,,,"MET09902/23/20 12:52:02 METAR KCQT 232052Z 25004KT 10SM BKN040 19/09 A3025 RMK AO2 SLP242 T01940094 58013","FM-15","7",,,,,,,,,,,,,,,,,,,,,,,,,,,,"2006-02-03"
"72287493134","2020-02-23T13:52:00","FM-15","6",,,"3.89","mi",,,,,,,"PENDING COOP",,,,,,,,,,,,,,,,,,,,,,,,,,,"30.24","49","66","0.00",,,,"54","30.23","BKN:07 31","30.04","10.00","57",,,,,,,,,,,,,,,,,,,,,,,,,,,,,,,,,,,,,,,,"MET09302/23/20 13:52:02 METAR KCQT 232152Z      KT 10SM BKN031 19/09 A3024 RMK AO2 SLP237 T01890094","FM-15","6",,,,,,,,,,,,,,,,,,,,,,,,,,,,"2006-02-03"
"72287493134","2020-02-23T14:52:00","FM-15","6",,,"3.89","mi",,,,,,,"PENDING COOP",,,,,,,,,,,,,,,,,,,,,,,,,,,"30.23","49","67","0.00",,,,"53","30.22","SCT:04 29","30.03","10.00","57","260",,"8",,,,,,,,,,,,,,,,,,,,,,,,,,,,,,,,,,,,,"MET10202/23/20 14:52:02 METAR KCQT 232252Z 26007KT 10SM SCT029 19/09 A3023 RMK AO2 SLP234 T01940094 RTX FIBI","FM-15","6",,,,,,,,,,,,,,,,,,,,,,,,,,,,"2006-02-03"
"72287493134","2020-02-23T15:52:00","FM-15","7",,,"3.89","mi",,,,,,,"PENDING COOP",,,,,,,,,,,,,,,,,,,,,,,,,,,"30.22","49","65","0.00",,"+0.03","6","56","30.22","CLR:00","30.02","10.00","56","000",,"0",,,,,,,,,,,,,,,,,,,,,,,,,,,,,,,,,,,,,"MET10802/23/20 15:52:02 METAR KCQT 232352Z 00000KT 10SM CLR 18/09 A3022 RMK AO2 SLP233 T01830094 10200 20172 56009","FM-15","7",,,,,,,,,,,,,,,,,,,,,,,,,,,,"2006-02-03"
"72287493134","2020-02-23T16:52:00","FM-15","7",,,"3.89","mi",,,,,,,"PENDING COOP",,,,,,,,,,,,,,,,,,,,,,,,,,,"30.21","49","65","0.00",,,,"56","30.21","CLR:00","30.01","10.00","56","VRB",,"3",,,,,,,,,,,,,,,,,,,,,,,,,,,,,,,,,,,,,"MET09002/23/20 16:52:01 METAR KCQT 240052Z VRB03KT 10SM CLR 18/09 A3021 RMK AO2 SLP231 T01830094","FM-15","7",,,,,,,,,,,,,,,,,,,,,,,,,,,,"2006-02-03"
"72287493134","2020-02-23T17:52:00","FM-15","7",,,"3.89","mi",,,,,,,"PENDING COOP",,,,,,,,,,,,,,,,,,,,,,,,,,,"30.22","48","62","0.00",,,,"60","30.22","CLR:00","30.02","10.00","55","250",,"3",,,,,,,,,,,,,,,,,,,,,,,,,,,,,,,,,,,,,"MET09002/23/20 17:52:01 METAR KCQT 240152Z 25003KT 10SM CLR 17/09 A3022 RMK AO2 SLP232 T01670089","FM-15","7",,,,,,,,,,,,,,,,,,,,,,,,,,,,"2006-02-03"
"72287493134","2020-02-23T18:52:00","FM-15","7",,,"3.89","mi",,,,,,,"PENDING COOP",,,,,,,,,,,,,,,,,,,,,,,,,,,"30.24","49","60","0.00",,"-0.01","3","67","30.23","CLR:00","30.04","10.00","54","000",,"0",,,,,,,,,,,,,,,,,,,,,,,,,,,,,,,,,,,,,"MET09602/23/20 18:52:01 METAR KCQT 240252Z 00000KT 10SM CLR 16/09 A3024 RMK AO2 SLP238 T01560094 53004","FM-15","7",,,,,,,,,,,,,,,,,,,,,,,,,,,,"2006-02-03"
"72287493134","2020-02-23T19:52:00","FM-15","7",,,"3.89","mi",,,,,,,"PENDING COOP",,,,,,,,,,,,,,,,,,,,,,,,,,,"30.23","49","59","0.00",,,,"69","30.23","CLR:00","30.03","10.00","54","000",,"0",,,,,,,,,,,,,,,,,,,,,,,,,,,,,,,,,,,,,"MET09002/23/20 19:52:01 METAR KCQT 240352Z 00000KT 10SM CLR 15/09 A3023 RMK AO2 SLP237 T01500094","FM-15","7",,,,,,,,,,,,,,,,,,,,,,,,,,,,"2006-02-03"
"72287493134","2020-02-23T20:52:00","FM-15","7",,,"3.89","mi",,,,,,,"PENDING COOP",,,,,,,,,,,,,,,,,,,,,,,,,,,"30.24","49","58","0.00",,,,"72","30.24","CLR:00","30.04","10.00","53","000",,"0",,,,,,,,,,,,,,,,,,,,,,,,,,,,,,,,,,,,,"MET09002/23/20 20:52:01 METAR KCQT 240452Z 00000KT 10SM CLR 14/09 A3024 RMK AO2 SLP239 T01440094","FM-15","7",,,,,,,,,,,,,,,,,,,,,,,,,,,,"2006-02-03"
"72287493134","2020-02-23T21:52:00","FM-15","7",,,"3.89","mi",,,,,,,"PENDING COOP",,,,,,,,,,,,,,,,,,,,,,,,,,,"30.24","49","58","0.00",,"-0.01","3","72","30.24","CLR:00","30.04","10.00","53","000",,"0",,,,,,,,,,,,,,,,,,,,,,,,,,,,,,,,,,,,,"MET10802/23/20 21:52:01 METAR KCQT 240552Z 00000KT 10SM CLR 14/09 A3024 RMK AO2 SLP239 T01440094 10183 20144 53002","FM-15","7",,,,,,,,,,,,,,,,,,,,,,,,,,,,"2006-02-03"
"72287493134","2020-02-23T22:52:00","FM-15","7",,,"3.89","mi",,,,,,,"PENDING COOP",,,,,,,,,,,,,,,,,,,,,,,,,,,"30.24","49","57","0.00",,,,"74","30.23","CLR:00","30.04","10.00","53","000",,"0",,,,,,,,,,,,,,,,,,,,,,,,,,,,,,,,,,,,,"MET09002/23/20 22:52:01 METAR KCQT 240652Z 00000KT 10SM CLR 14/09 A3024 RMK AO2 SLP238 T01390094","FM-15","7",,,,,,,,,,,,,,,,,,,,,,,,,,,,"2006-02-03"
"72287493134","2020-02-23T23:52:00","FM-15","7",,,"3.89","mi",,,,,,,"PENDING COOP",,,,,,,,,,,,,,,,,,,,,,,,,,,"30.24","49","57","0.00",,,,"74","30.23","CLR:00","30.04","10.00","53","000",,"0",,,,,,,,,,,,,,,,,,,,,,,,,,,,,,,,,,,,,"MET10002/23/20 23:52:01 METAR KCQT 240752Z 00000KT 10SM CLR 14/09 A3024 RMK AO2 SLP238 T01390094 402000117","FM-15","7",,,,,,,,,,,,,,,,,,,,,,,,,,,,"2006-02-03"
"72287493134","2020-02-23T23:59:00","SOD  ","6",,,"3.89","mi",,,,,,,"PENDING COOP",,,,"48","61","65","30.22","30.04","54","1.1","0","1.6","4","68","53","270","12","0.00",,,"260","8",,,,,,,,,,,,,,,,,,,,,,,,,,,,,,,,,,,,,,,,,,,,,,,,,,,,,,,,,"SOD74324 HR PRECIPITATION (IN): 0.00 SNOW DEPTH (IN):0     24 HR SNOWFALL (IN):0.0  24 HR MAX TEMP (F): 6824 HR MIN TEMP (F): 53AVERAGE STATION PRESSURE(D):30.039 MINIMUM SEA LEVEL PRESSURE:30.14 TIME OF OCCURRENCE:0021 PEAK WIND SPEED (MPH): 12 PEAK WIND DIR (DEG):270 PEAK WIND TIME (LST):      FASTEST 2MIN SPEED (MPH):  8FASTEST 2MIN DIR (DEG):260 FASTEST 2MIN TIME (LST):     AVERAGE WIND SPEED (MPH): 1.1 24 HR AVG TEMP (F): 61DEPART FROM NORMAL:  2  HEATING DEGREE DAYS:  4 COOLING DEGREE DAYS:  0 LATEST DAY MAX TEMP (0700-1900 LST): 68 LATEST NIGHT MIN TEMP(1900-0800 LST):53 HOURLY INCREMENTAL PRECIPITATION VALUES (IN):0.00 0.00 0.00 0.00 0.00 0.00 0.00 0.00 0.00 0.00 0.00 0.00 0.00 0.00 0.00 0.00 0.00 0.00 0.00 0.00 0.00 0.00 0.00 0.00","SOD  ","6",,,,,,,,,,,,,,,,,,,,,,,,,"0629","1744",,"2006-02-03"
"72287493134","2020-02-24T00:52:00","FM-15","7",,,"3.89","mi",,,,,,,"PENDING COOP",,,,,,,,,,,,,,,,,,,,,,,,,,,"30.24","48","55","0.00",,"+0.00","5","77","30.24","CLR:00","30.04","9.00","51","000",,"0",,,,,,,,,,,,,,,,,,,,,,,,,,,,,,,,,,,,,"MET09502/24/20 00:52:01 METAR KCQT 240852Z 00000KT 9SM CLR 13/09 A3024 RMK AO2 SLP239 T01280089 55001","FM-15","7",,,,,,,,,,,,,,,,,,,,,,,,,,,,"2006-02-03"
"72287493134","2020-02-24T01:52:00","FM-15","7",,,"3.89","mi",,,,,,,"PENDING COOP",,,,,,,,,,,,,,,,,,,,,,,,,,,"30.23","47","54","0.00",,,,"77","30.23","CLR:00","30.03","9.00","50","000",,"0",,,,,,,,,,,,,,,,,,,,,,,,,,,,,,,,,,,,,"MET08902/24/20 01:52:01 METAR KCQT 240952Z 00000KT 9SM CLR 12/08 A3023 RMK AO2 SLP237 T01220083","FM-15","7",,,,,,,,,,,,,,,,,,,,,,,,,,,,"2006-02-03"
"72287493134","2020-02-24T02:52:00","FM-15","7",,,"3.89","mi",,,,,,,"PENDING COOP",,,,,,,,,,,,,,,,,,,,,,,,,,,"30.22","47","55","0.00",,,,"74","30.22","CLR:00","30.02","9.00","51","000",,"0",,,,,,,,,,,,,,,,,,,,,,,,,,,,,,,,,,,,,"MET08902/24/20 02:52:01 METAR KCQT 241052Z 00000KT 9SM CLR 13/08 A3022 RMK AO2 SLP232 T01280083","FM-15","7",,,,,,,,,,,,,,,,,,,,,,,,,,,,"2006-02-03"
"72287493134","2020-02-24T03:52:00","FM-15","7",,,"3.89","mi",,,,,,,"PENDING COOP",,,,,,,,,,,,,,,,,,,,,,,,,,,"30.21","46","54","0.00",,"+0.03","6","75","30.21","CLR:00","30.01","9.00","50","000",,"0",,,,,,,,,,,,,,,,,,,,,,,,,,,,,,,,,,,,,"MET10702/24/20 03:52:02 METAR KCQT 241152Z 00000KT 9SM CLR 12/08 A3021 RMK AO2 SLP230 T01220078 10144 20122 56009","FM-15","7",,,,,,,,,,,,,,,,,,,,,,,,,,,,"2006-02-03"
"72287493134","2020-02-24T04:52:00","FM-15","7",,,"3.89","mi",,,,,,,"PENDING COOP",,,,,,,,,,,,,,,,,,,,,,,,,,,"30.22","45","52","0.00",,,,"77","30.22","CLR:00","30.02","8.00","49","000",,"0",,,,,,,,,,,,,,,,,,,,,,,,,,,,,,,,,,,,,"MET08902/24/20 04:52:02 METAR KCQT 241252Z 00000KT 8SM CLR 11/07 A3022 RMK AO2 SLP234 T01110072","FM-15","7",,,,,,,,,,,,,,,,,,,,,,,,,,,,"2006-02-03"
"72287493134","2020-02-24T05:52:00","FM-15","7",,,"3.89","mi",,,,,,,"PENDING COOP",,,,,,,,,,,,,,,,,,,,,,,,,,,"30.23","45","52","0.00",,,,"77","30.22","CLR:00","30.03","8.00","49","000",,"0",,,,,,,,,,,,,,,,,,,,,,,,,,,,,,,,,,,,,"MET08902/24/20 05:52:02 METAR KCQT 241352Z 00000KT 8SM CLR 11/07 A3023 RMK AO2 SLP235 T01110072","FM-15","7",,,,,,,,,,,,,,,,,,,,,,,,,,,,"2006-02-03"
"72287493134","2020-02-24T06:52:00","FM-15","7",,,"3.89","mi",,,,,,,"PENDING COOP",,,,,,,,,,,,,,,,,,,,,,,,,,,"30.23","45","53","0.00",,"-0.01","1","74","30.22","CLR:00","30.03","7.00","49","000",,"0",,,,,,,,,,,,,,,,,,,,,,,,,,,,,,,,,,,,,"MET09502/24/20 06:52:02 METAR KCQT 241452Z 00000KT 7SM CLR 12/07 A3023 RMK AO2 SLP235 T01170072 51005","FM-15","7",,,,,,,,,,,,,,,,,,,,,,,,,,,,"2006-02-03"
"72287493134","2020-02-24T07:52:00","FM-15","7",,,"3.89","mi",,,,,,,"PENDING COOP",,,,,,,,,,,,,,,,,,,,,,,,,,,"30.23","46","57","0.00",,,,"67","30.23","CLR:00","30.03","7.00","51","000",,"0",,,,,,,,,,,,,,,,,,,,,,,,,,,,,,,,,,,,,"MET08902/24/20 07:52:02 METAR KCQT 241552Z 00000KT 7SM CLR 14/08 A3023 RMK AO2 SLP236 T01390078","FM-15","7",,,,,,,,,,,,,,,,,,,,,,,,,,,,"2006-02-03"
"72287493134","2020-02-24T08:52:00","FM-15","7",,,"3.89","mi",,,,,,,"PENDING COOP",,,,,,,,,,,,,,,,,,,,,,,,,,,"30.23","47","62","0.00",,,,"58","30.23","CLR:00","30.03","7.00","54","000",,"0",,,,,,,,,,,,,,,,,,,,,,,,,,,,,,,,,,,,,"MET08902/24/20 08:52:02 METAR KCQT 241652Z 00000KT 7SM CLR 17/08 A3023 RMK AO2 SLP236 T01670083","FM-15","7",,,,,,,,,,,,,,,,,,,,,,,,,,,,"2006-02-03"
"72287493134","2020-02-24T09:52:00","FM-15","7",,,"3.89","mi",,,,,,,"PENDING COOP",,,,,,,,,,,,,,,,,,,,,,,,,,,"30.22","48","66","0.00",,"+0.01","8","52","30.21","CLR:00","30.02","8.00","56","VRB",,"3",,,,,,,,,,,,,,,,,,,,,,,,,,,,,,,,,,,,,"MET10702/24/20 09:52:02 METAR KCQT 241752Z VRB03KT 8SM CLR 19/09 A3022 RMK AO2 SLP230 T01890089 10189 20111 58003","FM-15","7",,,,,,,,,,,,,,,,,,,,,,,,,,,,"2006-02-03"
"72287493134","2020-02-24T10:52:00","FM-15","7",,,"3.89","mi",,,,,,,"PENDING COOP",,,,,,,,,,,,,,,,,,,,,,,,,,,"30.20","47","68","0.00",,,,"47","30.19","CLR:00","30.00","9.00","57","000",,"0",,,,,,,,,,,,,,,,,,,,,,,,,,,,,,,,,,,,,"MET08902/24/20 10:52:02 METAR KCQT 241852Z 00000KT 9SM CLR 20/08 A3020 RMK AO2 SLP224 T02000083","FM-15","7",,,,,,,,,,,,,,,,,,,,,,,,,,,,"2006-02-03"
"72287493134","2020-02-24T11:52:00","FM-15","7",,,"3.89","mi",,,,,,,"PENDING COOP",,,,,,,,,,,,,,,,,,,,,,,,,,,"30.17","48","71","0.00",,,,"44","30.16","CLR:00","29.97","9.00","58","000",,"0",,,,,,,,,,,,,,,,,,,,,,,,,,,,,,,,,,,,,"MET08902/24/20 11:52:02 METAR KCQT 241952Z 00000KT 9SM CLR 22/09 A3017 RMK AO2 SLP215 T02170089","FM-15","7",,,,,,,,,,,,,,,,,,,,,,,,,,,,"2006-02-03"
"72287493134","2020-02-24T12:52:00","FM-15","7",,,"3.89","mi",,,,,,,"PENDING COOP",,,,,,,,,,,,,,,,,,,,,,,,,,,"30.14","50","69","0.00",,"+0.07","8","51","30.14","CLR:00","29.94","10.00","58","000",,"0",,,,,,,,,,,,,,,,,,,,,,,,,,,,,,,,,,,,,"MET09602/24/20 12:52:02 METAR KCQT 242052Z 00000KT 10SM CLR 21/10 A3014 RMK AO2 SLP206 T02060100 58024","FM-15","7",,,,,,,,,,,,,,,,,,,,,,,,,,,,"2006-02-03"
"72287493134","2020-02-24T13:52:00","FM-15","7",,,"3.89","mi",,,,,,,"PENDING COOP",,,,,,,,,,,,,,,,,,,,,,,,,,,"30.12","50","67","0.00",,,,"55","30.12","CLR:00","29.92","10.00","58","000",,"0",,,,,,,,,,,,,,,,,,,,,,,,,,,,,,,,,,,,,"MET09002/24/20 13:52:02 METAR KCQT 242152Z 00000KT 10SM CLR 19/10 A3012 RMK AO2 SLP199 T01940100","FM-15","7",,,,,,,,,,,,,,,,,,,,,,,,,,,,"2006-02-03"
"72287493134","2020-02-24T14:52:00","FM-15","7",,,"3.89","mi",,,,,,,"PENDING COOP",,,,,,,,,,,,,,,,,,,,,,,,,,,"30.11","52","68","0.00",,,,"57","30.11","CLR:00","29.91","10.00","59","VRB",,"3",,,,,,,,,,,,,,,,,,,,,,,,,,,,,,,,,,,,,"MET09002/24/20 14:52:02 METAR KCQT 242252Z VRB03KT 10SM CLR 20/11 A3011 RMK AO2 SLP195 T02000111","FM-15","7",,,,,,,,,,,,,,,,,,,,,,,,,,,,"2006-02-03"
"72287493134","2020-02-24T15:52:00","FM-15","7",,,"3.89","mi",,,,,,,"PENDING COOP",,,,,,,,,,,,,,,,,,,,,,,,,,,"30.10","52","67","0.00",,"+0.05","6","59","30.09","CLR:00","29.90","10.00","59","240",,"3",,,,,,,,,,,,,,,,,,,,,,,,,,,,,,,,,,,,,"MET10802/24/20 15:52:02 METAR KCQT 242352Z 24003KT 10SM CLR 19/11 A3010 RMK AO2 SLP190 T01940111 10217 20189 56016","FM-15","7",,,,,,,,,,,,,,,,,,,,,,,,,,,,"2006-02-03"
"72287493134","2020-02-24T16:52:00","FM-15","7",,,"3.89","mi",,,,,,,"PENDING COOP",,,,,,,,,,,,,,,,,,,,,,,,,,,"30.09","52","66","0.00",,,,"61","30.09","CLR:00","29.89","10.00","58","VRB",,"3",,,,,,,,,,,,,,,,,,,,,,,,,,,,,,,,,,,,,"MET09002/24/20 16:52:01 METAR KCQT 250052Z VRB03KT 10SM CLR 19/11 A3009 RMK AO2 SLP189 T01890111","FM-15","7",,,,,,,,,,,,,,,,,,,,,,,,,,,,"2006-02-03"
"72287493134","2020-02-24T17:52:00","FM-15","7",,,"3.89","mi",,,,,,,"PENDING COOP",,,,,,,,,,,,,,,,,,,,,,,,,,,"30.10","53","63","0.00",,,,"70","30.10","CLR:00","29.90","10.00","57","000",,"0",,,,,,,,,,,,,,,,,,,,,,,,,,,,,,,,,,,,,"MET09002/24/20 17:52:01 METAR KCQT 250152Z 00000KT 10SM CLR 17/12 A3010 RMK AO2 SLP192 T01720117","FM-15","7",,,,,,,,,,,,,,,,,,,,,,,,,,,,"2006-02-03"
"72287493134","2020-02-24T18:52:00","FM-15","7",,,"3.89","mi",,,,,,,"PENDING COOP",,,,,,,,,,,,,,,,,,,,,,,,,,,"30.11","53","62","0.00",,"-0.01","3","73","30.11","CLR:00","29.91","10.00","57","000",,"0",,,,,,,,,,,,,,,,,,,,,,,,,,,,,,,,,,,,,"MET09602/24/20 18:52:01 METAR KCQT 250252Z 00000KT 10SM CLR 17/12 A3011 RMK AO2 SLP195 T01670117 53004","FM-15","7",,,,,,,,,,,,,,,,,,,,,,,,,,,,"2006-02-03"
"72287493134","2020-02-24T19:52:00","FM-15","7",,,"3.89","mi",,,,,,,"PENDING COOP",,,,,,,,,,,,,,,,,,,,,,,,,,,"30.11","53","61","0.00",,,,"75","30.11","CLR:00","29.91","10.00","57","000",,"0",,,,,,,,,,,,,,,,,,,,,,,,,,,,,,,,,,,,,"MET09002/24/20 19:52:01 METAR KCQT 250352Z 00000KT 10SM CLR 16/12 A3011 RMK AO2 SLP196 T01610117","FM-15","7",,,,,,,,,,,,,,,,,,,,,,,,,,,,"2006-02-03"
"72287493134","2020-02-24T20:52:00","FM-15","7",,,"3.89","mi",,,,,,,"PENDING COOP",,,,,,,,,,,,,,,,,,,,,,,,,,,"30.12","53","60","0.00",,,,"78","30.11","CLR:00","29.92","9.00","56","000",,"0",,,,,,,,,,,,,,,,,,,,,,,,,,,,,,,,,,,,,"MET08902/24/20 20:52:01 METAR KCQT 250452Z 00000KT 9SM CLR 16/12 A3012 RMK AO2 SLP197 T01560117","FM-15","7",,,,,,,,,,,,,,,,,,,,,,,,,,,,"2006-02-03"
"72287493134","2020-02-24T21:52:00","FM-15","7",,,"3.89","mi",,,,,,,"PENDING COOP",,,,,,,,,,,,,,,,,,,,,,,,,,,"30.12","52","59","0.00",,"-0.01","3","78","30.12","CLR:00","29.92","8.00","55","000",,"0",,,,,,,,,,,,,,,,,,,,,,,,,,,,,,,,,,,,,"MET10702/24/20 21:52:01 METAR KCQT 250552Z 00000KT 8SM CLR 15/11 A3012 RMK AO2 SLP199 T01500111 10194 20150 53005","FM-15","7",,,,,,,,,,,,,,,,,,,,,,,,,,,,"2006-02-03"
"72287493134","2020-02-24T22:52:00","FM-15","7",,,"3.89","mi",,,,,,,"PENDING COOP",,,,,,,,,,,,,,,,,,,,,,,,,,,"30.12","52","58","0.00",,,,"81","30.11","CLR:00","29.92","8.00","55","000",,"0",,,,,,,,,,,,,,,,,,,,,,,,,,,,,,,,,,,,,"MET08902/24/20 22:52:01 METAR KCQT 250652Z 00000KT 8SM CLR 14/11 A3012 RMK AO2 SLP198 T01440111","FM-15","7",,,,,,,,,,,,,,,,,,,,,,,,,,,,"2006-02-03"
"72287493134","2020-02-24T23:52:00","FM-15","7",,,"3.89","mi",,,,,,,"PENDING COOP",,,,,,,,,,,,,,,,,,,,,,,,,,,"30.13","51","57","0.00",,,,"81","30.12","CLR:00","29.93","7.00","54","000",,"0",,,,,,,,,,,,,,,,,,,,,,,,,,,,,,,,,,,,,"MET09902/24/20 23:52:01 METAR KCQT 250752Z 00000KT 7SM CLR 14/11 A3013 RMK AO2 SLP200 T01390106 402170111","FM-15","7",,,,,,,,,,,,,,,,,,,,,,,,,,,,"2006-02-03"
"72287493134","2020-02-24T23:59:00","SOD  ","6",,,"3.89","mi",,,,,,,"PENDING COOP",,,,"49","62","67","30.16","29.97","55","0.6","0","2.5","3","71","52","260","14","0.00",,,"270","9",,,,,,,,,,,,,,,,,,,,,,,,,,,,,,,,,,,,,,,,,,,,,,,,,,,,,,,,,"SOD76024 HR PRECIPITATION (IN): 0.00 SNOW DEPTH (IN):0     24 HR SNOWFALL (IN):0.0  WEATHER(CODE):8  24 HR MAX TEMP (F): 7124 HR MIN TEMP (F): 52AVERAGE STATION PRESSURE(D):29.968 MINIMUM SEA LEVEL PRESSURE:30.08 TIME OF OCCURRENCE:1630 PEAK WIND SPEED (MPH): 14 PEAK WIND DIR (DEG):260 PEAK WIND TIME (LST):      FASTEST 2MIN SPEED (MPH):  9FASTEST 2MIN DIR (DEG):270 FASTEST 2MIN TIME (LST):     AVERAGE WIND SPEED (MPH): 0.6 24 HR AVG TEMP (F): 62DEPART FROM NORMAL:  2  HEATING DEGREE DAYS:  3 COOLING DEGREE DAYS:  0 LATEST DAY MAX TEMP (0700-1900 LST): 71 LATEST NIGHT MIN TEMP(1900-0800 LST):52 HOURLY INCREMENTAL PRECIPITATION VALUES (IN):0.00 0.00 0.00 0.00 0.00 0.00 0.00 0.00 0.00 0.00 0.00 0.00 0.00 0.00 0.00 0.00 0.00 0.00 0.00 0.00 0.00 0.00 0.00 0.00","SOD  ","6",,,,,,,,,,,,,,,,,,,,,,,,,"0628","1745",,"2006-02-03"
"72287493134","2020-02-25T00:52:00","FM-15","7",,,"3.89","mi",,,,,,,"PENDING COOP",,,,,,,,,,,,,,,,,,,,,,,,,,,"30.13","51","57","0.00",,"-0.01","3","81","30.12","CLR:00","29.93","8.00","54","000",,"0",,,,,,,,,,,,,,,,,,,,,,,,,,,,,,,,,,,,,"MET09502/25/20 00:52:01 METAR KCQT 250852Z 00000KT 8SM CLR 14/11 A3013 RMK AO2 SLP201 T01390106 53002","FM-15","7",,,,,,,,,,,,,,,,,,,,,,,,,,,,"2006-02-03"
"72287493134","2020-02-25T01:52:00","FM-15","7",,,"3.89","mi",,,,,,,"PENDING COOP",,,,,,,,,,,,,,,,,,,,,,,,,,,"30.13","50","56","0.00",,,,"81","30.12","CLR:00","29.93","8.00","53","000",,"0",,,,,,,,,,,,,,,,,,,,,,,,,,,,,,,,,,,,,"MET08902/25/20 01:52:01 METAR KCQT 250952Z 00000KT 8SM CLR 13/10 A3013 RMK AO2 SLP201 T01330100","FM-15","7",,,,,,,,,,,,,,,,,,,,,,,,,,,,"2006-02-03"
"72287493134","2020-02-25T02:52:00","FM-15","7",,,"3.89","mi",,,,,,,"PENDING COOP",,,,,,,,,,,,,,,,,,,,,,,,,,,"30.12","49","54","0.00",,,,"83","30.12","CLR:00","29.92","7.00","51","000",,"0",,,,,,,,,,,,,,,,,,,,,,,,,,,,,,,,,,,,,"MET08902/25/20 02:52:01 METAR KCQT 251052Z 00000KT 7SM CLR 12/09 A3012 RMK AO2 SLP199 T01220094","FM-15","7",,,,,,,,,,,,,,,,,,,,,,,,,,,,"2006-02-03"
"72287493134","2020-02-25T03:52:00","FM-15","7",,,"3.89","mi",,,,,,,"PENDING COOP",,,,,,,,,,,,,,,,,,,,,,,,,,,"30.13","48","54","0.00",,"+0.00","5","80","30.12","CLR:00","29.93","7.00","51","000",,"0",,,,,,,,,,,,,,,,,,,,,,,,,,,,,,,,,,,,,"MET10702/25/20 03:52:02 METAR KCQT 251152Z 00000KT 7SM CLR 12/09 A3013 RMK AO2 SLP200 T01220089 10150 20122 55001","FM-15","7",,,,,,,,,,,,,,,,,,,,,,,,,,,,"2006-02-03"
"72287493134","2020-02-25T04:52:00","FM-15","7",,,"3.89","mi",,,,,,,"PENDING COOP",,,,,,,,,,,,,,,,,,,,,,,,,,,"30.13","47","54","0.00",,,,"77","30.13","CLR:00","29.93","9.00","50","000",,"0",,,,,,,,,,,,,,,,,,,,,,,,,,,,,,,,,,,,,"MET08902/25/20 04:52:02 METAR KCQT 251252Z 00000KT 9SM CLR 12/08 A3013 RMK AO2 SLP203 T01220083","FM-15","7",,,,,,,,,,,,,,,,,,,,,,,,,,,,"2006-02-03"
"72287493134","2020-02-25T05:52:00","FM-15","7",,,"3.89","mi",,,,,,,"PENDING COOP",,,,,,,,,,,,,,,,,,,,,,,,,,,"30.15","46","53","0.00",,,,"77","30.15","CLR:00","29.95","8.00","49","000",,"0",,,,,,,,,,,,,,,,,,,,,,,,,,,,,,,,,,,,,"MET08902/25/20 05:52:02 METAR KCQT 251352Z 00000KT 8SM CLR 12/08 A3015 RMK AO2 SLP209 T01170078","FM-15","7",,,,,,,,,,,,,,,,,,,,,,,,,,,,"2006-02-03"
"72287493134","2020-02-25T06:52:00","FM-15","7",,,"3.89","mi",,,,,,,"PENDING COOP",,,,,,,,,,,,,,,,,,,,,,,,,,,"30.16","45","53","0.00","HZ:7 |FU |HZ","-0.04","3","74","30.16","CLR:00","29.96","6.00","49","000",,"0",,,,,,,,,,,,,,,,,,,,,,,,,,,,,,,,,,,,,"MET09802/25/20 06:52:02 METAR KCQT 251452Z 00000KT 6SM HZ CLR 12/07 A3016 RMK AO2 SLP213 T01170072 53012","FM-15","7",,,,,,,,,,,,,,,,,,,,,,,,,,,,"2006-02-03"
"72287493134","2020-02-25T07:52:00","FM-15","7",,,"3.89","mi",,,,,,,"PENDING COOP",,,,,,,,,,,,,,,,,,,,,,,,,,,"30.18","47","58","0.00",,,,"67","30.18","CLR:00","29.98","7.00","52","000",,"0",,,,,,,,,,,,,,,,,,,,,,,,,,,,,,,,,,,,,"MET08902/25/20 07:52:02 METAR KCQT 251552Z 00000KT 7SM CLR 14/08 A3018 RMK AO2 SLP219 T01440083","FM-15","7",,,,,,,,,,,,,,,,,,,,,,,,,,,,"2006-02-03"
"72287493134","2020-02-25T08:52:00","FM-15","7",,,"3.89","mi",,,,,,,"PENDING COOP",,,,,,,,,,,,,,,,,,,,,,,,,,,"30.18","46","67","0.00",,,,"47","30.18","CLR:00","29.98","9.00","56","000",,"0",,,,,,,,,,,,,,,,,,,,,,,,,,,,,,,,,,,,,"MET08902/25/20 08:52:02 METAR KCQT 251652Z 00000KT 9SM CLR 19/08 A3018 RMK AO2 SLP220 T01940078","FM-15","7",,,,,,,,,,,,,,,,,,,,,,,,,,,,"2006-02-03"
"72287493134","2020-02-25T09:52:00","FM-15","7",,,"3.89","mi",,,,,,,"PENDING COOP",,,,,,,,,,,,,,,,,,,,,,,,,,,"30.19","39","75","0.00",,"-0.03","1","27","30.18","CLR:00","29.99","10.00","56","000",,"0",,,,,,,,,,,,,,,,,,,,,,,,,,,,,,,,,,,,,"MET10802/25/20 09:52:02 METAR KCQT 251752Z 00000KT 10SM CLR 24/04 A3019 RMK AO2 SLP221 T02390039 10239 20111 51009","FM-15","7",,,,,,,,,,,,,,,,,,,,,,,,,,,,"2006-02-03"
"72287493134","2020-02-25T10:52:00","FM-15","7",,,"3.89","mi",,,,,,,"PENDING COOP",,,,,,,,,,,,,,,,,,,,,,,,,,,"30.19","32","80","0.00",,,,"17","30.18","CLR:00","29.99","10.00","56","000",,"0",,,,,,,,,,,,,,,,,,,,,,,,,,,,,,,,,,,,,"MET09002/25/20 10:52:02 METAR KCQT 251852Z 00000KT 10SM CLR 27/00 A3019 RMK AO2 SLP220 T02670000","FM-15","7",,,,,,,,,,,,,,,,,,,,,,,,,,,,"2006-02-03"
"72287493134","2020-02-25T11:52:00","FM-15","7",,,"3.89","mi",,,,,,,"PENDING COOP",,,,,,,,,,,,,,,,,,,,,,,,,,,"30.17","30","82","0.00",,,,"15","30.16","CLR:00","29.97","10.00","56","000",,"0",,,,,,,,,,,,,,,,,,,,,,,,,,,,,,,,,,,,,"MET09102/25/20 11:52:02 METAR KCQT 251952Z 00000KT 10SM CLR 28/M01 A3017 RMK AO2 SLP215 T02781011","FM-15","7",,,,,,,,,,,,,,,,,,,,,,,,,,,,"2006-02-03"
"72287493134","2020-02-25T12:52:00","FM-15","7",,,"3.89","mi",,,,,,,"PENDING COOP",,,,,,,,,,,,,,,,,,,,,,,,,,,"30.16","35","82","0.00",,"+0.03","8","18","30.15","CLR:00","29.96","10.00","58","000",,"0",,,,,,,,,,,,,,,,,,,,,,,,,,,,,,,,,,,,,"MET09602/25/20 12:52:02 METAR KCQT 252052Z 00000KT 10SM CLR 28/02 A3016 RMK AO2 SLP210 T02780017 58010","FM-15","7",,,,,,,,,,,,,,,,,,,,,,,,,,,,"2006-02-03"
"72287493134","2020-02-25T13:52:00","FM-15","7",,,"3.89","mi",,,,,,,"PENDING COOP",,,,,,,,,,,,,,,,,,,,,,,,,,,"30.15","42","81","0.00",,,,"25","30.14","CLR:00","29.95","10.00","60","000",,"0",,,,,,,,,,,,,,,,,,,,,,,,,,,,,,,,,,,,,"MET09002/25/20 13:52:02 METAR KCQT 252152Z 00000KT 10SM CLR 27/06 A3015 RMK AO2 SLP205 T02720056","FM-15","7",,,,,,,,,,,,,,,,,,,,,,,,,,,,"2006-02-03"
"72287493134","2020-02-25T14:52:00","FM-15","7",,,"3.89","mi",,,,,,,"PENDING COOP",,,,,,,,,,,,,,,,,,,,,,,,,,,"30.13","36","82","0.00",,,,"19","30.13","CLR:00","29.93","10.00","58","280",,"6",,,,,,,,,,,,,,,,,,,,,,,,,,,,,,,,,,,,,"MET09002/25/20 14:52:02 METAR KCQT 252252Z 28005KT 10SM CLR 28/02 A3013 RMK AO2 SLP203 T02780022","FM-15","7",,,,,,,,,,,,,,,,,,,,,,,,,,,,"2006-02-03"
"72287493134","2020-02-25T15:52:00","FM-15","7",,,"3.89","mi",,,,,,,"PENDING COOP",,,,,,,,,,,,,,,,,,,,,,,,,,,"30.14","36","81","0.00",,"+0.02","5","20","30.13","CLR:00","29.94","10.00","58","270",,"6",,,,,,,,,,,,,,,,,,,,,,,,,,,,,,,,,,,,,"MET10802/25/20 15:52:02 METAR KCQT 252352Z 27005KT 10SM CLR 27/02 A3014 RMK AO2 SLP204 T02720022 10283 20239 55007","FM-15","7",,,,,,,,,,,,,,,,,,,,,,,,,,,,"2006-02-03"
"72287493134","2020-02-25T16:52:00","FM-15","7",,,"3.89","mi",,,,,,,"PENDING COOP",,,,,,,,,,,,,,,,,,,,,,,,,,,"30.14","32","79","0.00",,,,"18","30.14","CLR:00","29.94","10.00","56","VRB",,"5",,,,,,,,,,,,,,,,,,,,,,,,,,,,,,,,,,,,,"MET09002/25/20 16:52:01 METAR KCQT 260052Z VRB04KT 10SM CLR 26/00 A3014 RMK AO2 SLP205 T02610000","FM-15","7",,,,,,,,,,,,,,,,,,,,,,,,,,,,"2006-02-03"
"72287493134","2020-02-25T17:52:00","FM-15","7",,,"3.89","mi",,,,,,,"PENDING COOP",,,,,,,,,,,,,,,,,,,,,,,,,,,"30.15","32","75","0.00",,,,"21","30.15","CLR:00","29.95","10.00","54","000",,"0",,,,,,,,,,,,,,,,,,,,,,,,,,,,,,,,,,,,,"MET09002/25/20 17:52:01 METAR KCQT 260152Z 00000KT 10SM CLR 24/00 A3015 RMK AO2 SLP209 T02390000","FM-15","7",,,,,,,,,,,,,,,,,,,,,,,,,,,,"2006-02-03"
"72287493134","2020-02-25T18:52:00","FM-15","7",,,"3.89","mi",,,,,,,"PENDING COOP",,,,,,,,,,,,,,,,,,,,,,,,,,,"30.17","32","72","0.00",,"-0.04","3","23","30.17","CLR:00","29.97","10.00","53","000",,"0",,,,,,,,,,,,,,,,,,,,,,,,,,,,,,,,,,,,,"MET09602/25/20 18:52:01 METAR KCQT 260252Z 00000KT 10SM CLR 22/00 A3017 RMK AO2 SLP216 T02220000 53012","FM-15","7",,,,,,,,,,,,,,,,,,,,,,,,,,,,"2006-02-03"
"72287493134","2020-02-25T19:52:00","FM-15","7",,,"3.89","mi",,,,,,,"PENDING COOP",,,,,,,,,,,,,,,,,,,,,,,,,,,"30.19","33","68","0.00",,,,"27","30.19","CLR:00","29.99","10.00","51","000",,"0",,,,,,,,,,,,,,,,,,,,,,,,,,,,,,,,,,,,,"MET09002/25/20 19:52:01 METAR KCQT 260352Z 00000KT 10SM CLR 20/01 A3019 RMK AO2 SLP222 T02000006","FM-15","7",,,,,,,,,,,,,,,,,,,,,,,,,,,,"2006-02-03"
"72287493134","2020-02-25T20:52:00","FM-15","7",,,"3.89","mi",,,,,,,"PENDING COOP",,,,,,,,,,,,,,,,,,,,,,,,,,,"30.21","34","67","0.00",,,,"30","30.21","CLR:00","30.01","10.00","51","000",,"0",,,,,,,,,,,,,,,,,,,,,,,,,,,,,,,,,,,,,"MET09002/25/20 20:52:01 METAR KCQT 260452Z 00000KT 10SM CLR 19/01 A3021 RMK AO2 SLP230 T01940011","FM-15","7",,,,,,,,,,,,,,,,,,,,,,,,,,,,"2006-02-03"
"72287493134","2020-02-25T21:52:00","FM-15","7",,,"3.89","mi",,,,,,,"PENDING COOP",,,,,,,,,,,,,,,,,,,,,,,,,,,"30.24","34","68","0.00",,"-0.06","3","28","30.23","CLR:00","30.04","10.00","52","000",,"0",,,,,,,,,,,,,,,,,,,,,,,,,,,,,,,,,,,,,"MET10802/25/20 21:52:01 METAR KCQT 260552Z 00000KT 10SM CLR 20/01 A3024 RMK AO2 SLP238 T02000011 10267 20189 53022","FM-15","7",,,,,,,,,,,,,,,,,,,,,,,,,,,,"2006-02-03"
"72287493134","2020-02-25T22:52:00","FM-15","7",,,"3.89","mi",,,,,,,"PENDING COOP",,,,,,,,,,,,,,,,,,,,,,,,,,,"30.25","36","63","0.00",,,,"37","30.24","CLR:00","30.05","10.00","50","000",,"0",,,,,,,,,,,,,,,,,,,,,,,,,,,,,,,,,,,,,"MET09002/25/20 22:52:01 METAR KCQT 260652Z 00000KT 10SM CLR 17/02 A3025 RMK AO2 SLP239 T01720022","FM-15","7",,,,,,,,,,,,,,,,,,,,,,,,,,,,"2006-02-03"
"72287493134","2020-02-25T23:52:00","FM-15","7",,,"3.89","mi",,,,,,,"PENDING COOP",,,,,,,,,,,,,,,,,,,,,,,,,,,"30.25","36","61","0.00",,,,"39","30.24","CLR:00","30.05","10.00","49","000",,"0",,,,,,,,,,,,,,,,,,,,,,,,,,,,,,,,,,,,,"MET10002/25/20 23:52:01 METAR KCQT 260752Z 00000KT 10SM CLR 16/02 A3025 RMK AO2 SLP241 T01610022 402830111","FM-15","7",,,,,,,,,,,,,,,,,,,,,,,,,,,,"2006-02-03"
"72287493134","2020-02-25T23:59:00","SOD  ","6",,,"3.89","mi",,,,,,,"PENDING COOP",,,,"40","68","41","30.16","29.97","53","0.7","3","8.4","0","83","52","260","13","0.00",,,"270","8","HZ",,,,,,,,,,,,,,,,,,,,,,,,,,,,,,,,,,,,,,,,,,,,,,,,,,,,,,,,"SOD76024 HR PRECIPITATION (IN): 0.00 SNOW DEPTH (IN):0     24 HR SNOWFALL (IN):0.0  WEATHER(CODE):8  24 HR MAX TEMP (F): 8324 HR MIN TEMP (F): 52AVERAGE STATION PRESSURE(D):29.969 MINIMUM SEA LEVEL PRESSURE:30.11 TIME OF OCCURRENCE:0323 PEAK WIND SPEED (MPH): 13 PEAK WIND DIR (DEG):260 PEAK WIND TIME (LST):      FASTEST 2MIN SPEED (MPH):  8FASTEST 2MIN DIR (DEG):270 FASTEST 2MIN TIME (LST):     AVERAGE WIND SPEED (MPH): 0.7 24 HR AVG TEMP (F): 68DEPART FROM NORMAL:  8  HEATING DEGREE DAYS:  0 COOLING DEGREE DAYS:  3 LATEST DAY MAX TEMP (0700-1900 LST): 83 LATEST NIGHT MIN TEMP(1900-0800 LST):52 HOURLY INCREMENTAL PRECIPITATION VALUES (IN):0.00 0.00 0.00 0.00 0.00 0.00 0.00 0.00 0.00 0.00 0.00 0.00 0.00 0.00 0.00 0.00 0.00 0.00 0.00 0.00 0.00 0.00 0.00 0.00","SOD  ","6",,,,,,,,,,,,,,,,,,,,,,,,,"0627","1746",,"2006-02-03"
"72287493134","2020-02-26T00:52:00","FM-15","7",,,"3.89","mi",,,,,,,"PENDING COOP",,,,,,,,,,,,,,,,,,,,,,,,,,,"30.26","37","60","0.00",,"-0.02","3","42","30.25","CLR:00","30.06","10.00","49","000",,"0",,,,,,,,,,,,,,,,,,,,,,,,,,,,,,,,,,,,,"MET09602/26/20 00:52:01 METAR KCQT 260852Z 00000KT 10SM CLR 16/03 A3026 RMK AO2 SLP244 T01560028 53006","FM-15","7",,,,,,,,,,,,,,,,,,,,,,,,,,,,"2006-02-03"
"72287493134","2020-02-26T01:52:00","FM-15","7",,,"3.89","mi",,,,,,,"PENDING COOP",,,,,,,,,,,,,,,,,,,,,,,,,,,"30.26","36","59","0.00",,,,"42","30.25","CLR:00","30.06","10.00","48","000",,"0",,,,,,,,,,,,,,,,,,,,,,,,,,,,,,,,,,,,,"MET09002/26/20 01:52:01 METAR KCQT 260952Z 00000KT 10SM CLR 15/02 A3026 RMK AO2 SLP243 T01500022","FM-15","7",,,,,,,,,,,,,,,,,,,,,,,,,,,,"2006-02-03"
"72287493134","2020-02-26T02:52:00","FM-15","7",,,"3.89","mi",,,,,,,"PENDING COOP",,,,,,,,,,,,,,,,,,,,,,,,,,,"30.25","36","56","0.00",,,,"47","30.24","CLR:00","30.05","10.00","47","000",,"0",,,,,,,,,,,,,,,,,,,,,,,,,,,,,,,,,,,,,"MET09002/26/20 02:52:01 METAR KCQT 261052Z 00000KT 10SM CLR 13/02 A3025 RMK AO2 SLP241 T01330022","FM-15","7",,,,,,,,,,,,,,,,,,,,,,,,,,,,"2006-02-03"
"72287493134","2020-02-26T03:52:00","FM-15","7",,,"3.89","mi",,,,,,,"PENDING COOP",,,,,,,,,,,,,,,,,,,,,,,,,,,"30.26","33","56","0.00",,"+0.00","5","42","30.25","CLR:00","30.06","10.00","46","000",,"0",,,,,,,,,,,,,,,,,,,,,,,,,,,,,,,,,,,,,"MET10802/26/20 03:52:01 METAR KCQT 261152Z 00000KT 10SM CLR 13/01 A3026 RMK AO2 SLP243 T01330006 10194 20133 55000","FM-15","7",,,,,,,,,,,,,,,,,,,,,,,,,,,,"2006-02-03"
"72287493134","2020-02-26T04:52:00","FM-15","7",,,"3.89","mi",,,,,,,"PENDING COOP",,,,,,,,,,,,,,,,,,,,,,,,,,,"30.28","31","55","0.00",,,,"40","30.27","CLR:00","30.08","10.00","44","000",,"0",,,,,,,,,,,,,,,,,,,,,,,,,,,,,,,,,,,,,"MET09102/26/20 04:52:02 METAR KCQT 261252Z 00000KT 10SM CLR 13/M01 A3028 RMK AO2 SLP251 T01281006","FM-15","7",,,,,,,,,,,,,,,,,,,,,,,,,,,,"2006-02-03"
"72287493134","2020-02-26T05:52:00","FM-15","7",,,"3.89","mi",,,,,,,"PENDING COOP",,,,,,,,,,,,,,,,,,,,,,,,,,,"30.28","33","54","0.00",,,,"45","30.28","CLR:00","30.08","10.00","45","000",,"0",,,,,,,,,,,,,,,,,,,,,,,,,,,,,,,,,,,,,"MET09002/26/20 05:52:02 METAR KCQT 261352Z 00000KT 10SM CLR 12/01 A3028 RMK AO2 SLP253 T01220006","FM-15","7",,,,,,,,,,,,,,,,,,,,,,,,,,,,"2006-02-03"
"72287493134","2020-02-26T06:52:00","FM-15","7",,,"3.89","mi",,,,,,,"PENDING COOP",,,,,,,,,,,,,,,,,,,,,,,,,,,"30.29","34","54","0.00",,"-0.04","1","47","30.29","CLR:00","30.09","10.00","45","000",,"0",,,,,,,,,,,,,,,,,,,,,,,,,,,,,,,,,,,,,"MET09602/26/20 06:52:01 METAR KCQT 261452Z 00000KT 10SM CLR 12/01 A3029 RMK AO2 SLP257 T01220011 51013","FM-15","7",,,,,,,,,,,,,,,,,,,,,,,,,,,,"2006-02-03"
"72287493134","2020-02-26T07:52:00","FM-15","7",,,"3.89","mi",,,,,,,"PENDING COOP",,,,,,,,,,,,,,,,,,,,,,,,,,,"30.31","34","60","0.00",,,,"38","30.31","CLR:00","30.11","10.00","48","000",,"0",,,,,,,,,,,,,,,,,,,,,,,,,,,,,,,,,,,,,"MET09002/26/20 07:52:01 METAR KCQT 261552Z 00000KT 10SM CLR 16/01 A3031 RMK AO2 SLP263 T01560011","FM-15","7",,,,,,,,,,,,,,,,,,,,,,,,,,,,"2006-02-03"
"72287493134","2020-02-26T08:52:00","FM-15","7",,,"3.89","mi",,,,,,,"PENDING COOP",,,,,,,,,,,,,,,,,,,,,,,,,,,"30.31","20","69","0.00",,,,"15","30.31","CLR:00","30.11","10.00","48","000",,"0",,,,,,,,,,,,,,,,,,,,,,,,,,,,,,,,,,,,,"MET09102/26/20 08:52:01 METAR KCQT 261652Z 00000KT 10SM CLR 21/M07 A3031 RMK AO2 SLP263 T02061067","FM-15","7",,,,,,,,,,,,,,,,,,,,,,,,,,,,"2006-02-03"
"72287493134","2020-02-26T09:52:00","FM-15","7",,,"3.89","mi",,,,,,,"PENDING COOP",,,,,,,,,,,,,,,,,,,,,,,,,,,"30.30","16","73","0.00",,"-0.01","0","11","30.29","CLR:00","30.10","10.00","49","000",,"0",,,,,,,,,,,,,,,,,,,,,,,,,,,,,,,,,,,,,"MET10902/26/20 09:52:02 METAR KCQT 261752Z 00000KT 10SM CLR 23/M09 A3030 RMK AO2 SLP259 T02281089 10228 20117 50003","FM-15","7",,,,,,,,,,,,,,,,,,,,,,,,,,,,"2006-02-03"
"72287493134","2020-02-26T10:52:00","FM-15","7",,,"3.89","mi",,,,,,,"PENDING COOP",,,,,,,,,,,,,,,,,,,,,,,,,,,"30.29","15","76","0.00",,,,"10","30.28","CLR:00","30.09","9.00","50","000",,"0",,,,,,,,,,,,,,,,,,,,,,,,,,,,,,,,,,,,,"MET09002/26/20 10:52:02 METAR KCQT 261852Z 00000KT 9SM CLR 24/M09 A3029 RMK AO2 SLP253 T02441094","FM-15","7",,,,,,,,,,,,,,,,,,,,,,,,,,,,"2006-02-03"
"72287493134","2020-02-26T11:52:00","FM-15","7",,,"3.89","mi",,,,,,,"PENDING COOP",,,,,,,,,,,,,,,,,,,,,,,,,,,"30.26","21","78","0.00",,,,"12","30.25","CLR:00","30.06","10.00","52","000",,"0",,,,,,,,,,,,,,,,,,,,,,,,,,,,,,,,,,,,,"MET09102/26/20 11:52:02 METAR KCQT 261952Z 00000KT 10SM CLR 26/M06 A3026 RMK AO2 SLP243 T02561061","FM-15","7",,,,,,,,,,,,,,,,,,,,,,,,,,,,"2006-02-03"
"72287493134","2020-02-26T12:52:00","FM-15","7",,,"3.89","mi",,,,,,,"PENDING COOP",,,,,,,,,,,,,,,,,,,,,,,,,,,"30.22","18","79","0.00",,"+0.08","8","10","30.22","CLR:00","30.02","10.00","52","000",,"0",,,,,,,,,,,,,,,,,,,,,,,,,,,,,,,,,,,,,"MET09702/26/20 12:52:02 METAR KCQT 262052Z 00000KT 10SM CLR 26/M08 A3022 RMK AO2 SLP232 T02611078 58027","FM-15","7",,,,,,,,,,,,,,,,,,,,,,,,,,,,"2006-02-03"
"72287493134","2020-02-26T13:52:00","FM-15","7",,,"3.89","mi",,,,,,,"PENDING COOP",,,,,,,,,,,,,,,,,,,,,,,,,,,"30.20","20","80","0.00",,,,"10","30.19","CLR:00","30.00","10.00","53","270",,"3",,,,,,,,,,,,,,,,,,,,,,,,,,,,,,,,,,,,,"MET09102/26/20 13:52:02 METAR KCQT 262152Z 27003KT 10SM CLR 27/M07 A3020 RMK AO2 SLP223 T02671067","FM-15","7",,,,,,,,,,,,,,,,,,,,,,,,,,,,"2006-02-03"
"72287493134","2020-02-26T14:52:00","FM-15","7",,,"3.89","mi",,,,,,,"PENDING COOP",,,,,,,,,,,,,,,,,,,,,,,,,,,"30.18","23","80","0.00",,,,"12","30.18","CLR:00","29.98","10.00","54","250",,"5",,,,,,,,,,,,,,,,,,,,,,,,,,,,,,,,,,,,,"MET09102/26/20 14:52:02 METAR KCQT 262252Z 25004KT 10SM CLR 27/M05 A3018 RMK AO2 SLP219 T02671050","FM-15","7",,,,,,,,,,,,,,,,,,,,,,,,,,,,"2006-02-03"
"72287493134","2020-02-26T15:52:00","FM-15","7",,,"3.89","mi",,,,,,,"PENDING COOP",,,,,,,,,,,,,,,,,,,,,,,,,,,"30.18","21","77","0.00",,"+0.05","6","12","30.17","CLR:00","29.98","10.00","52","VRB",,"5",,,,,,,,,,,,,,,,,,,,,,,,,,,,,,,,,,,,,"MET10902/26/20 15:52:02 METAR KCQT 262352Z VRB04KT 10SM CLR 25/M06 A3018 RMK AO2 SLP217 T02501061 10272 20228 56016","FM-15","7",,,,,,,,,,,,,,,,,,,,,,,,,,,,"2006-02-03"
"72287493134","2020-02-26T16:52:00","FM-15","7",,,"3.89","mi",,,,,,,"PENDING COOP",,,,,,,,,,,,,,,,,,,,,,,,,,,"30.17","19","75","0.00",,,,"12","30.17","CLR:00","29.97","10.00","51","260",,"5",,,,,,,,,,,,,,,,,,,,,,,,,,,,,,,,,,,,,"MET09102/26/20 16:52:01 METAR KCQT 270052Z 26004KT 10SM CLR 24/M07 A3017 RMK AO2 SLP216 T02391072","FM-15","7",,,,,,,,,,,,,,,,,,,,,,,,,,,,"2006-02-03"
"72287493134","2020-02-26T17:52:00","FM-15","7",,,"3.89","mi",,,,,,,"PENDING COOP",,,,,,,,,,,,,,,,,,,,,,,,,,,"30.17","15","72","0.00",,,,"11","30.17","CLR:00","29.97","10.00","48","270",,"3",,,,,,,,,,,,,,,,,,,,,,,,,,,,,,,,,,,,,"MET09102/26/20 17:52:01 METAR KCQT 270152Z 27003KT 10SM CLR 22/M09 A3017 RMK AO2 SLP216 T02221094","FM-15","7",,,,,,,,,,,,,,,,,,,,,,,,,,,,"2006-02-03"
"72287493134","2020-02-26T18:52:00","FM-15","7",,,"3.89","mi",,,,,,,"PENDING COOP",,,,,,,,,,,,,,,,,,,,,,,,,,,"30.17","18","69","0.00",,"+0.01","8","14","30.16","CLR:00","29.97","10.00","48","000",,"0",,,,,,,,,,,,,,,,,,,,,,,,,,,,,,,,,,,,,"MET09702/26/20 18:52:01 METAR KCQT 270252Z 00000KT 10SM CLR 21/M08 A3017 RMK AO2 SLP213 T02061078 58004","FM-15","7",,,,,,,,,,,,,,,,,,,,,,,,,,,,"2006-02-03"
"72287493134","2020-02-26T19:52:00","FM-15","7",,,"3.89","mi",,,,,,,"PENDING COOP",,,,,,,,,,,,,,,,,,,,,,,,,,,"30.16","24","66","0.00",,,,"20","30.16","CLR:00","29.96","10.00","48","000",,"0",,,,,,,,,,,,,,,,,,,,,,,,,,,,,,,,,,,,,"MET09102/26/20 19:52:01 METAR KCQT 270352Z 00000KT 10SM CLR 19/M04 A3016 RMK AO2 SLP212 T01891044","FM-15","7",,,,,,,,,,,,,,,,,,,,,,,,,,,,"2006-02-03"
"72287493134","2020-02-26T20:52:00","FM-15","7",,,"3.89","mi",,,,,,,"PENDING COOP",,,,,,,,,,,,,,,,,,,,,,,,,,,"30.18","27","64","0.00",,,,"25","30.17","CLR:00","29.98","10.00","48","000",,"0",,,,,,,,,,,,,,,,,,,,,,,,,,,,,,,,,,,,,"MET09102/26/20 20:52:01 METAR KCQT 270452Z 00000KT 10SM CLR 18/M03 A3018 RMK AO2 SLP218 T01781028","FM-15","7",,,,,,,,,,,,,,,,,,,,,,,,,,,,"2006-02-03"
"72287493134","2020-02-26T21:52:00","FM-15","7",,,"3.89","mi",,,,,,,"PENDING COOP",,,,,,,,,,,,,,,,,,,,,,,,,,,"30.19","31","63","0.00",,"-0.02","3","30","30.18","CLR:00","29.99","10.00","48","000",,"0",,,,,,,,,,,,,,,,,,,,,,,,,,,,,,,,,,,,,"MET10902/26/20 21:52:01 METAR KCQT 270552Z 00000KT 10SM CLR 17/M01 A3019 RMK AO2 SLP220 T01721006 10250 20172 53007","FM-15","7",,,,,,,,,,,,,,,,,,,,,,,,,,,,"2006-02-03"
"72287493134","2020-02-26T22:52:00","FM-15","7",,,"3.89","mi",,,,,,,"PENDING COOP",,,,,,,,,,,,,,,,,,,,,,,,,,,"30.19","33","62","0.00",,,,"34","30.18","CLR:00","29.99","10.00","48","000",,"0",,,,,,,,,,,,,,,,,,,,,,,,,,,,,,,,,,,,,"MET09002/26/20 22:52:01 METAR KCQT 270652Z 00000KT 10SM CLR 17/01 A3019 RMK AO2 SLP220 T01670006","FM-15","7",,,,,,,,,,,,,,,,,,,,,,,,,,,,"2006-02-03"
"72287493134","2020-02-26T23:52:00","FM-15","7",,,"3.89","mi",,,,,,,"PENDING COOP",,,,,,,,,,,,,,,,,,,,,,,,,,,"30.19","35","60","0.00",,,,"39","30.18","CLR:00","29.99","10.00","48","000",,"0",,,,,,,,,,,,,,,,,,,,,,,,,,,,,,,,,,,,,"MET10002/26/20 23:52:01 METAR KCQT 270752Z 00000KT 10SM CLR 16/02 A3019 RMK AO2 SLP221 T01560017 402720117","FM-15","7",,,,,,,,,,,,,,,,,,,,,,,,,,,,"2006-02-03"
"72287493134","2020-02-26T23:59:00","SOD  ","6",,,"3.89","mi",,,,,,,"PENDING COOP",,,,"26","67","25","30.22","30.03","49","0.9","2","7.4","0","81","53","260","13","0.00",,,"260","9",,,,,,,,,,,,,,,,,,,,,,,,,,,,,,,,,,,,,,,,,,,,,,,,,,,,,,,,,"SOD74324 HR PRECIPITATION (IN): 0.00 SNOW DEPTH (IN):0     24 HR SNOWFALL (IN):0.0  24 HR MAX TEMP (F): 8124 HR MIN TEMP (F): 53AVERAGE STATION PRESSURE(D):30.032 MINIMUM SEA LEVEL PRESSURE:30.15 TIME OF OCCURRENCE:1953 PEAK WIND SPEED (MPH): 13 PEAK WIND DIR (DEG):260 PEAK WIND TIME (LST):      FASTEST 2MIN SPEED (MPH):  9FASTEST 2MIN DIR (DEG):260 FASTEST 2MIN TIME (LST):     AVERAGE WIND SPEED (MPH): 0.9 24 HR AVG TEMP (F): 67DEPART FROM NORMAL:  7  HEATING DEGREE DAYS:  0 COOLING DEGREE DAYS:  2 LATEST DAY MAX TEMP (0700-1900 LST): 81 LATEST NIGHT MIN TEMP(1900-0800 LST):53 HOURLY INCREMENTAL PRECIPITATION VALUES (IN):0.00 0.00 0.00 0.00 0.00 0.00 0.00 0.00 0.00 0.00 0.00 0.00 0.00 0.00 0.00 0.00 0.00 0.00 0.00 0.00 0.00 0.00 0.00 0.00","SOD  ","6",,,,,,,,,,,,,,,,,,,,,,,,,"0626","1747",,"2006-02-03"
"72287493134","2020-02-27T00:52:00","FM-15","7",,,"3.89","mi",,,,,,,"PENDING COOP",,,,,,,,,,,,,,,,,,,,,,,,,,,"30.19","35","58","0.00",,"+0.00","8","42","30.18","CLR:00","29.99","10.00","47","000",,"0",,,,,,,,,,,,,,,,,,,,,,,,,,,,,,,,,,,,,"MET09602/27/20 00:52:01 METAR KCQT 270852Z 00000KT 10SM CLR 14/02 A3019 RMK AO2 SLP219 T01440017 58000","FM-15","7",,,,,,,,,,,,,,,,,,,,,,,,,,,,"2006-02-03"
"72287493134","2020-02-27T01:52:00","FM-15","7",,,"3.89","mi",,,,,,,"PENDING COOP",,,,,,,,,,,,,,,,,,,,,,,,,,,"30.18","32","58","0.00",,,,"38","30.17","CLR:00","29.98","10.00","46","000",,"0",,,,,,,,,,,,,,,,,,,,,,,,,,,,,,,,,,,,,"MET09002/27/20 01:52:01 METAR KCQT 270952Z 00000KT 10SM CLR 14/00 A3018 RMK AO2 SLP216 T01440000","FM-15","7",,,,,,,,,,,,,,,,,,,,,,,,,,,,"2006-02-03"
"72287493134","2020-02-27T02:52:00","FM-15","7",,,"3.89","mi",,,,,,,"PENDING COOP",,,,,,,,,,,,,,,,,,,,,,,,,,,"30.17","27","62","0.00",,,,"26","30.16","CLR:00","29.97","10.00","47","360",,"3",,,,,,,,,,,,,,,,,,,,,,,,,,,,,,,,,,,,,"MET09102/27/20 02:52:01 METAR KCQT 271052Z 36003KT 10SM CLR 17/M03 A3017 RMK AO2 SLP212 T01671028","FM-15","7",,,,,,,,,,,,,,,,,,,,,,,,,,,,"2006-02-03"
"72287493134","2020-02-27T03:52:00","FM-15","7",,,"3.89","mi",,,,,,,"PENDING COOP",,,,,,,,,,,,,,,,,,,,,,,,,,,"30.15","28","60","0.00",,"+0.03","8","30","30.14","CLR:00","29.95","10.00","46","010",,"3",,,,,,,,,,,,,,,,,,,,,,,,,,,,,,,,,,,,,"MET10902/27/20 03:52:01 METAR KCQT 271152Z 01003KT 10SM CLR 16/M02 A3015 RMK AO2 SLP208 T01561022 10172 20144 58010","FM-15","7",,,,,,,,,,,,,,,,,,,,,,,,,,,,"2006-02-03"
"72287493134","2020-02-27T04:52:00","FM-15","7",,,"3.89","mi",,,,,,,"PENDING COOP",,,,,,,,,,,,,,,,,,,,,,,,,,,"30.15","27","60","0.00",,,,"28","30.14","CLR:00","29.95","10.00","46","030",,"3",,,,,,,,,,,,,,,,,,,,,,,,,,,,,,,,,,,,,"MET09102/27/20 04:52:01 METAR KCQT 271252Z 03003KT 10SM CLR 16/M03 A3015 RMK AO2 SLP207 T01561028","FM-15","7",,,,,,,,,,,,,,,,,,,,,,,,,,,,"2006-02-03"
"72287493134","2020-02-27T05:52:00","FM-15","7",,,"3.89","mi",,,,,,,"PENDING COOP",,,,,,,,,,,,,,,,,,,,,,,,,,,"30.15","28","59","0.00",,,,"31","30.15","CLR:00","29.95","10.00","45","000",,"0",,,,,,,,,,,,,,,,,,,,,,,,,,,,,,,,,,,,,"MET09102/27/20 05:52:01 METAR KCQT 271352Z 00000KT 10SM CLR 15/M02 A3015 RMK AO2 SLP209 T01501022","FM-15","7",,,,,,,,,,,,,,,,,,,,,,,,,,,,"2006-02-03"
"72287493134","2020-02-27T06:52:00","FM-15","7",,,"3.89","mi",,,,,,,"PENDING COOP",,,,,,,,,,,,,,,,,,,,,,,,,,,"30.17","28","60","0.00","HZ:7 |FU |HZ","-0.01","3","30","30.16","CLR:00","29.97","6.00","46","010",,"3",,,,,,,,,,,,,,,,,,,,,,,,,,,,,,,,,,,,,"MET09902/27/20 06:52:01 METAR KCQT 271452Z 01003KT 6SM HZ CLR 16/M02 A3017 RMK AO2 SLP215 T01561022 53005","FM-15","7",,,,,,,,,,,,,,,,,,,,,,,,,,,,"2006-02-03"
"72287493134","2020-02-27T07:52:00","FM-15","7",,,"3.89","mi",,,,,,,"PENDING COOP",,,,,,,,,,,,,,,,,,,,,,,,,,,"30.17","26","66","0.00",,,,"22","30.16","CLR:00","29.97","10.00","48","010",,"3",,,,,,,,,,,,,,,,,,,,,,,,,,,,,,,,,,,,,"MET09102/27/20 07:52:01 METAR KCQT 271552Z 01003KT 10SM CLR 19/M03 A3017 RMK AO2 SLP215 T01891033","FM-15","7",,,,,,,,,,,,,,,,,,,,,,,,,,,,"2006-02-03"
"72287493134","2020-02-27T08:52:00","FM-15","7",,,"3.89","mi",,,,,,,"PENDING COOP",,,,,,,,,,,,,,,,,,,,,,,,,,,"30.16","28","74","0.00",,,,"18","30.15","CLR:00","29.96","10.00","52","000",,"0",,,,,,,,,,,,,,,,,,,,,,,,,,,,,,,,,,,,,"MET09102/27/20 08:52:01 METAR KCQT 271652Z 00000KT 10SM CLR 23/M02 A3016 RMK AO2 SLP211 T02331022","FM-15","7",,,,,,,,,,,,,,,,,,,,,,,,,,,,"2006-02-03"
"72287493134","2020-02-27T09:52:00","FM-15","7",,,"3.89","mi",,,,,,,"PENDING COOP",,,,,,,,,,,,,,,,,,,,,,,,,,,"30.16","27","78","0.00",,"+0.00","5","15","30.16","CLR:00","29.96","10.00","54","000",,"0",,,,,,,,,,,,,,,,,,,,,,,,,,,,,,,,,,,,,"MET10902/27/20 09:52:02 METAR KCQT 271752Z 00000KT 10SM CLR 26/M03 A3016 RMK AO2 SLP212 T02561028 10256 20139 55001","FM-15","7",,,,,,,,,,,,,,,,,,,,,,,,,,,,"2006-02-03"
"72287493134","2020-02-27T10:52:00","FM-15","7",,,"3.89","mi",,,,,,,"PENDING COOP",,,,,,,,,,,,,,,,,,,,,,,,,,,"30.16","25","82","0.00",,,,"12","30.15","CLR:00","29.96","10.00","55","VRB",,"3",,,,,,,,,,,,,,,,,,,,,,,,,,,,,,,,,,,,,"MET09102/27/20 10:52:02 METAR KCQT 271852Z VRB03KT 10SM CLR 28/M04 A3016 RMK AO2 SLP210 T02781039","FM-15","7",,,,,,,,,,,,,,,,,,,,,,,,,,,,"2006-02-03"
"72287493134","2020-02-27T11:52:00","FM-15","7",,,"3.89","mi",,,,,,,"PENDING COOP",,,,,,,,,,,,,,,,,,,,,,,,,,,"30.14","28","83","0.00",,,,"13","30.13","CLR:00","29.94","10.00","56","000",,"0",,,,,,,,,,,,,,,,,,,,,,,,,,,,,,,,,,,,,"MET09102/27/20 11:52:02 METAR KCQT 271952Z 00000KT 10SM CLR 28/M02 A3014 RMK AO2 SLP203 T02831022","FM-15","7",,,,,,,,,,,,,,,,,,,,,,,,,,,,"2006-02-03"
"72287493134","2020-02-27T12:52:00","FM-15","7",,,"3.89","mi",,,,,,,"PENDING COOP",,,,,,,,,,,,,,,,,,,,,,,,,,,"30.11","25","85","0.00",,"+0.05","8","11","30.11","CLR:00","29.91","10.00","56","000",,"0",,,,,,,,,,,,,,,,,,,,,,,,,,,,,,,,,,,,,"MET09702/27/20 12:52:02 METAR KCQT 272052Z 00000KT 10SM CLR 29/M04 A3011 RMK AO2 SLP195 T02941039 58017","FM-15","7",,,,,,,,,,,,,,,,,,,,,,,,,,,,"2006-02-03"
"72287493134","2020-02-27T13:52:00","FM-15","7",,,"3.89","mi",,,,,,,"PENDING COOP",,,,,,,,,,,,,,,,,,,,,,,,,,,"30.10","24","86","0.00",,,,"10","30.09","CLR:00","29.90","10.00","56","000",,"0",,,,,,,,,,,,,,,,,,,,,,,,,,,,,,,,,,,,,"MET09102/27/20 13:52:02 METAR KCQT 272152Z 00000KT 10SM CLR 30/M04 A3010 RMK AO2 SLP190 T03001044","FM-15","7",,,,,,,,,,,,,,,,,,,,,,,,,,,,"2006-02-03"
"72287493134","2020-02-27T14:52:00","FM-15","7",,,"3.89","mi",,,,,,,"PENDING COOP",,,,,,,,,,,,,,,,,,,,,,,,,,,"30.10","26","86","0.00",,,,"11","30.09","CLR:00","29.90","10.00","57","260",,"3",,,,,,,,,,,,,,,,,,,,,,,,,,,,,,,,,,,,,"MET09102/27/20 14:52:02 METAR KCQT 272252Z 26003KT 10SM CLR 30/M03 A3010 RMK AO2 SLP188 T03001033","FM-15","7",,,,,,,,,,,,,,,,,,,,,,,,,,,,"2006-02-03"
"72287493134","2020-02-27T15:52:00","FM-15","7",,,"3.89","mi",,,,,,,"PENDING COOP",,,,,,,,,,,,,,,,,,,,,,,,,,,"30.09","24","83","0.00",,"+0.02","6","11","30.08","CLR:00","29.89","10.00","55","280",,"5",,,,,,,,,,,,,,,,,,,,,,,,,,,,,,,,,,,,,"MET10902/27/20 15:52:02 METAR KCQT 272352Z 28004KT 10SM CLR 28/M04 A3009 RMK AO2 SLP187 T02831044 10300 20256 56008","FM-15","7",,,,,,,,,,,,,,,,,,,,,,,,,,,,"2006-02-03"
"72287493134","2020-02-27T16:52:00","FM-15","7",,,"3.89","mi",,,,,,,"PENDING COOP",,,,,,,,,,,,,,,,,,,,,,,,,,,"30.11","25","81","0.00",,,,"13","30.10","CLR:00","29.91","10.00","55","VRB",,"3",,,,,,,,,,,,,,,,,,,,,,,,,,,,,,,,,,,,,"MET09102/27/20 16:52:01 METAR KCQT 280052Z VRB03KT 10SM CLR 27/M04 A3011 RMK AO2 SLP192 T02721039","FM-15","7",,,,,,,,,,,,,,,,,,,,,,,,,,,,"2006-02-03"
"72287493134","2020-02-27T17:52:00","FM-15","7",,,"3.89","mi",,,,,,,"PENDING COOP",,,,,,,,,,,,,,,,,,,,,,,,,,,"30.11","27","77","0.00",,,,"16","30.10","CLR:00","29.91","10.00","53","000",,"0",,,,,,,,,,,,,,,,,,,,,,,,,,,,,,,,,,,,,"MET09102/27/20 17:52:01 METAR KCQT 280152Z 00000KT 10SM CLR 25/M03 A3011 RMK AO2 SLP194 T02501028","FM-15","7",,,,,,,,,,,,,,,,,,,,,,,,,,,,"2006-02-03"
"72287493134","2020-02-27T18:52:00","FM-15","7",,,"3.89","mi",,,,,,,"PENDING COOP",,,,,,,,,,,,,,,,,,,,,,,,,,,"30.11","32","74","0.00",,"-0.02","1","21","30.11","CLR:00","29.91","10.00","53","000",,"0",,,,,,,,,,,,,,,,,,,,,,,,,,,,,,,,,,,,,"MET09602/27/20 18:52:01 METAR KCQT 280252Z 00000KT 10SM CLR 23/00 A3011 RMK AO2 SLP195 T02330000 51007","FM-15","7",,,,,,,,,,,,,,,,,,,,,,,,,,,,"2006-02-03"
"72287493134","2020-02-27T19:52:00","FM-15","7",,,"3.89","mi",,,,,,,"PENDING COOP",,,,,,,,,,,,,,,,,,,,,,,,,,,"30.12","34","74","0.00",,,,"23","30.11","CLR:00","29.92","10.00","54","000",,"0",,,,,,,,,,,,,,,,,,,,,,,,,,,,,,,,,,,,,"MET09002/27/20 19:52:02 METAR KCQT 280352Z 00000KT 10SM CLR 23/01 A3012 RMK AO2 SLP198 T02330011","FM-15","7",,,,,,,,,,,,,,,,,,,,,,,,,,,,"2006-02-03"
"72287493134","2020-02-27T20:52:00","FM-15","7",,,"3.89","mi",,,,,,,"PENDING COOP",,,,,,,,,,,,,,,,,,,,,,,,,,,"30.12","36","72","0.00",,,,"27","30.11","CLR:00","29.92","10.00","54","000",,"0",,,,,,,,,,,,,,,,,,,,,,,,,,,,,,,,,,,,,"MET09002/27/20 20:52:02 METAR KCQT 280452Z 00000KT 10SM CLR 22/02 A3012 RMK AO2 SLP197 T02220022","FM-15","7",,,,,,,,,,,,,,,,,,,,,,,,,,,,"2006-02-03"
"72287493134","2020-02-27T21:52:00","FM-15","7",,,"3.89","mi",,,,,,,"PENDING COOP",,,,,,,,,,,,,,,,,,,,,,,,,,,"30.12","37","70","0.00",,"-0.01","1","30","30.11","CLR:00","29.92","10.00","53","000",,"0",,,,,,,,,,,,,,,,,,,,,,,,,,,,,,,,,,,,,"MET10802/27/20 21:52:02 METAR KCQT 280552Z 00000KT 10SM CLR 21/03 A3012 RMK AO2 SLP197 T02110028 10283 20211 51003","FM-15","7",,,,,,,,,,,,,,,,,,,,,,,,,,,,"2006-02-03"
"72287493134","2020-02-27T22:52:00","FM-15","7",,,"3.89","mi",,,,,,,"PENDING COOP",,,,,,,,,,,,,,,,,,,,,,,,,,,"30.11","32","72","0.00",,,,"23","30.10","CLR:00","29.91","10.00","53","010",,"3",,,,,,,,,,,,,,,,,,,,,,,,,,,,,,,,,,,,,"MET09002/27/20 22:52:02 METAR KCQT 280652Z 01003KT 10SM CLR 22/00 A3011 RMK AO2 SLP193 T02220000","FM-15","7",,,,,,,,,,,,,,,,,,,,,,,,,,,,"2006-02-03"
"72287493134","2020-02-27T23:52:00","FM-15","7",,,"3.89","mi",,,,,,,"PENDING COOP",,,,,,,,,,,,,,,,,,,,,,,,,,,"30.13","31","70","0.00",,,,"23","30.12","CLR:00","29.93","10.00","51","000",,"0",,,,,,,,,,,,,,,,,,,,,,,,,,,,,,,,,,,,,"MET10102/27/20 23:52:02 METAR KCQT 280752Z 00000KT 10SM CLR 21/M01 A3013 RMK AO2 SLP199 T02111006 403000139","FM-15","7",,,,,,,,,,,,,,,,,,,,,,,,,,,,"2006-02-03"
"72287493134","2020-02-27T23:59:00","SOD  ","6",,,"3.89","mi",,,,,,,"PENDING COOP",,,,"29","72","21","30.13","29.94","52","1.5","7","12.3","0","86","57","260","11","0.00",,,"270","7","HZ",,,,,,,,,,,,,,,,,,,,,,,,,,,,,,,,,,,,,,,,,,,,,,,,,,,,,,,,"SOD76024 HR PRECIPITATION (IN): 0.00 SNOW DEPTH (IN):0     24 HR SNOWFALL (IN):0.0  WEATHER(CODE):8  24 HR MAX TEMP (F): 8624 HR MIN TEMP (F): 57AVERAGE STATION PRESSURE(D):29.938 MINIMUM SEA LEVEL PRESSURE:30.08 TIME OF OCCURRENCE:1559 PEAK WIND SPEED (MPH): 11 PEAK WIND DIR (DEG):260 PEAK WIND TIME (LST):      FASTEST 2MIN SPEED (MPH):  7FASTEST 2MIN DIR (DEG):270 FASTEST 2MIN TIME (LST):     AVERAGE WIND SPEED (MPH): 1.5 24 HR AVG TEMP (F): 72DEPART FROM NORMAL: 12  HEATING DEGREE DAYS:  0 COOLING DEGREE DAYS:  7 LATEST DAY MAX TEMP (0700-1900 LST): 86 LATEST NIGHT MIN TEMP(1900-0800 LST):57 HOURLY INCREMENTAL PRECIPITATION VALUES (IN):0.00 0.00 0.00 0.00 0.00 0.00 0.00 0.00 0.00 0.00 0.00 0.00 0.00 0.00 0.00 0.00 0.00 0.00 0.00 0.00 0.00 0.00 0.00 0.00","SOD  ","6",,,,,,,,,,,,,,,,,,,,,,,,,"0625","1748",,"2006-02-03"
"72287493134","2020-02-28T00:52:00","FM-15","7",,,"3.89","mi",,,,,,,"PENDING COOP",,,,,,,,,,,,,,,,,,,,,,,,,,,"30.12","30","70","0.00",,"+0.00","8","23","30.11","CLR:00","29.92","10.00","51","010",,"5",,,,,,,,,,,,,,,,,,,,,,,,,,,,,,,,,,,,,"MET09702/28/20 00:52:02 METAR KCQT 280852Z 01004KT 10SM CLR 21/M01 A3012 RMK AO2 SLP195 T02111011 58001","FM-15","7",,,,,,,,,,,,,,,,,,,,,,,,,,,,"2006-02-03"
"72287493134","2020-02-28T01:52:00","FM-15","7",,,"3.89","mi",,,,,,,"PENDING COOP",,,,,,,,,,,,,,,,,,,,,,,,,,,"30.10","28","69","0.00",,,,"22","30.09","CLR:00","29.90","10.00","50","000",,"0",,,,,,,,,,,,,,,,,,,,,,,,,,,,,,,,,,,,,"MET09102/28/20 01:52:02 METAR KCQT 280952Z 00000KT 10SM CLR 21/M02 A3010 RMK AO2 SLP189 T02061022","FM-15","7",,,,,,,,,,,,,,,,,,,,,,,,,,,,"2006-02-03"
"72287493134","2020-02-28T02:52:00","FM-15","7",,,"3.89","mi",,,,,,,"PENDING COOP",,,,,,,,,,,,,,,,,,,,,,,,,,,"30.09","28","70","0.00",,,,"21","30.08","CLR:00","29.89","10.00","51","VRB",,"3",,,,,,,,,,,,,,,,,,,,,,,,,,,,,,,,,,,,,"MET09102/28/20 02:52:02 METAR KCQT 281052Z VRB03KT 10SM CLR 21/M02 A3009 RMK AO2 SLP187 T02111022","FM-15","7",,,,,,,,,,,,,,,,,,,,,,,,,,,,"2006-02-03"
"72287493134","2020-02-28T03:52:00","FM-15","7",,,"3.89","mi",,,,,,,"PENDING COOP",,,,,,,,,,,,,,,,,,,,,,,,,,,"30.09","28","68","0.00",,"+0.03","6","22","30.08","CLR:00","29.89","10.00","50","010",,"3",,,,,,,,,,,,,,,,,,,,,,,,,,,,,,,,,,,,,"MET10902/28/20 03:52:02 METAR KCQT 281152Z 01003KT 10SM CLR 20/M02 A3009 RMK AO2 SLP186 T02001022 10222 20194 56010","FM-15","7",,,,,,,,,,,,,,,,,,,,,,,,,,,,"2006-02-03"
"72287493134","2020-02-28T04:52:00","FM-15","7",,,"3.89","mi",,,,,,,"PENDING COOP",,,,,,,,,,,,,,,,,,,,,,,,,,,"30.09","28","67","0.00",,,,"23","30.08","CLR:00","29.89","10.00","49","020",,"3",,,,,,,,,,,,,,,,,,,,,,,,,,,,,,,,,,,,,"MET09102/28/20 04:52:02 METAR KCQT 281252Z 02003KT 10SM CLR 19/M02 A3009 RMK AO2 SLP187 T01941022","FM-15","7",,,,,,,,,,,,,,,,,,,,,,,,,,,,"2006-02-03"
"72287493134","2020-02-28T05:52:00","FM-15","7",,,"3.89","mi",,,,,,,"PENDING COOP",,,,,,,,,,,,,,,,,,,,,,,,,,,"30.09","29","66","0.00",,,,"25","30.09","CLR:00","29.89","10.00","49","030",,"3",,,,,,,,,,,,,,,,,,,,,,,,,,,,,,,,,,,,,"MET09102/28/20 05:52:02 METAR KCQT 281352Z 03003KT 10SM CLR 19/M02 A3009 RMK AO2 SLP188 T01891017","FM-15","7",,,,,,,,,,,,,,,,,,,,,,,,,,,,"2006-02-03"
"72287493134","2020-02-28T06:52:00","FM-15","7",,,"3.89","mi",,,,,,,"PENDING COOP",,,,,,,,,,,,,,,,,,,,,,,,,,,"30.10","28","64","0.00",,"-0.01","3","26","30.09","CLR:00","29.90","10.00","48","000",,"0",,,,,,,,,,,,,,,,,,,,,,,,,,,,,,,,,,,,,"MET09702/28/20 06:52:02 METAR KCQT 281452Z 00000KT 10SM CLR 18/M02 A3010 RMK AO2 SLP191 T01781022 53005","FM-15","7",,,,,,,,,,,,,,,,,,,,,,,,,,,,"2006-02-03"
"72287493134","2020-02-28T07:52:00","FM-15","7",,,"3.89","mi",,,,,,,"PENDING COOP",,,,,,,,,,,,,,,,,,,,,,,,,,,"30.12","27","69","0.00",,,,"21","30.11","CLR:00","29.92","10.00","50","000",,"0",,,,,,,,,,,,,,,,,,,,,,,,,,,,,,,,,,,,,"MET09102/28/20 07:52:02 METAR KCQT 281552Z 00000KT 10SM CLR 21/M03 A3012 RMK AO2 SLP197 T02061028","FM-15","7",,,,,,,,,,,,,,,,,,,,,,,,,,,,"2006-02-03"
"72287493134","2020-02-28T08:52:00","FM-15","7",,,"3.89","mi",,,,,,,"PENDING COOP",,,,,,,,,,,,,,,,,,,,,,,,,,,"30.13","28","74","0.00",,,,"18","30.12","CLR:00","29.93","10.00","52","000",,"0",,,,,,,,,,,,,,,,,,,,,,,,,,,,,,,,,,,,,"MET09102/28/20 08:52:02 METAR KCQT 281652Z 00000KT 10SM CLR 23/M02 A3013 RMK AO2 SLP200 T02331022","FM-15","7",,,,,,,,,,,,,,,,,,,,,,,,,,,,"2006-02-03"
"72287493134","2020-02-28T09:52:00","FM-15","7",,,"3.89","mi",,,,,,,"PENDING COOP",,,,,,,,,,,,,,,,,,,,,,,,,,,"30.12","26","80","0.00",,"-0.01","0","14","30.11","CLR:00","29.92","10.00","54","VRB",,"3",,,,,,,,,,,,,,,,,,,,,,,,,,,,,,,,,,,,,"MET10902/28/20 09:52:02 METAR KCQT 281752Z VRB03KT 10SM CLR 27/M03 A3012 RMK AO2 SLP196 T02671033 10267 20178 50004","FM-15","7",,,,,,,,,,,,,,,,,,,,,,,,,,,,"2006-02-03"
"72287493134","2020-02-28T10:52:00","FM-15","7",,,"3.89","mi",,,,,,,"PENDING COOP",,,,,,,,,,,,,,,,,,,,,,,,,,,"30.11","21","84","0.00",,,,"10","30.09","CLR:00","29.91","10.00","55","100",,"6",,,,,,,,,,,,,,,,,,,,,,,,,,,,,,,,,,,,,"MET09102/28/20 10:52:02 METAR KCQT 281852Z 10005KT 10SM CLR 29/M06 A3011 RMK AO2 SLP191 T02891061","FM-15","7",,,,,,,,,,,,,,,,,,,,,,,,,,,,"2006-02-03"
"72287493134","2020-02-28T11:52:00","FM-15","7",,,"3.89","mi",,,,,,,"PENDING COOP",,,,,,,,,,,,,,,,,,,,,,,,,,,"30.09","21","86","0.00",,,,"9","30.07","CLR:00","29.89","10.00","56","000",,"0",,,,,,,,,,,,,,,,,,,,,,,,,,,,,,,,,,,,,"MET09102/28/20 11:52:02 METAR KCQT 281952Z 00000KT 10SM CLR 30/M06 A3009 RMK AO2 SLP184 T03001061","FM-15","7",,,,,,,,,,,,,,,,,,,,,,,,,,,,"2006-02-03"
"72287493134","2020-02-28T12:52:00","FM-15","7",,,"3.89","mi",,,,,,,"PENDING COOP",,,,,,,,,,,,,,,,,,,,,,,,,,,"30.06","20","88","0.00",,"+0.06","8","8","30.05","CLR:00","29.86","10.00","56","000",,"0",,,,,,,,,,,,,,,,,,,,,,,,,,,,,,,,,,,,,"MET09702/28/20 12:52:02 METAR KCQT 282052Z 00000KT 10SM CLR 31/M07 A3006 RMK AO2 SLP175 T03111067 58020","FM-15","7",,,,,,,,,,,,,,,,,,,,,,,,,,,,"2006-02-03"
"72287493134","2020-02-28T13:52:00","FM-15","7",,,"3.89","mi",,,,,,,"PENDING COOP",,,,,,,,,,,,,,,,,,,,,,,,,,,"30.04","18","87","0.00",,,,"8","30.02","CLR:00","29.84","10.00","56","000",,"0",,,,,,,,,,,,,,,,,,,,,,,,,,,,,,,,,,,,,"MET09102/28/20 13:52:02 METAR KCQT 282152Z 00000KT 10SM CLR 31/M08 A3004 RMK AO2 SLP167 T03061078","FM-15","7",,,,,,,,,,,,,,,,,,,,,,,,,,,,"2006-02-03"
"72287493134","2020-02-28T14:52:00","FM-15","7",,,"3.89","mi",,,,,,,"PENDING COOP",,,,,,,,,,,,,,,,,,,,,,,,,,,"30.02","30","86","0.00",,,,"13","30.01","CLR:00","29.82","10.00","58","250",,"5",,,,,,,,,,,,,,,,,,,,,,,,,,,,,,,,,,,,,"MET09102/28/20 14:52:02 METAR KCQT 282252Z 25004KT 10SM CLR 30/M01 A3002 RMK AO2 SLP163 T03001011","FM-15","7",,,,,,,,,,,,,,,,,,,,,,,,,,,,"2006-02-03"
"72287493134","2020-02-28T15:52:00","FM-15","4",,,"3.89","mi",,,,,,,"PENDING COOP",,,,,,,,,,,,,,,,,,,,,,,,,,,"30.03","33","81",,,,,"18","30.02",,,"10.00",,"250",,"6",,,,,,,,,,,,,,,,,,,,,,,,,,,,,,,,,,,,,"MET096METAR KCQT 282352Z AUTO 25005KT 10SM CLR 27/01 A3003 RMK AO2 SLP167 T02720006 10311 20267 55009=","FM-15","4",,,,,,,,,,,,,,,,,,,,,,,,,,,,"2006-02-03"
"72287493134","2020-02-28T16:52:00","FM-15","7",,,"3.89","mi",,,,,,,"PENDING COOP",,,,,,,,,,,,,,,,,,,,,,,,,,,"30.04","32","77","0.00",,,,"19","30.03","CLR:00","29.84","10.00","55","000",,"0",,,,,,,,,,,,,,,,,,,,,,,,,,,,,,,,,,,,,"MET09002/28/20 16:52:01 METAR KCQT 290052Z 00000KT 10SM CLR 25/00 A3004 RMK AO2 SLP169 T02500000","FM-15","7",,,,,,,,,,,,,,,,,,,,,,,,,,,,"2006-02-03"
"72287493134","2020-02-28T17:52:00","FM-15","7",,,"3.89","mi",,,,,,,"PENDING COOP",,,,,,,,,,,,,,,,,,,,,,,,,,,"30.06","26","76","0.00",,,,"16","30.05","CLR:00","29.86","10.00","53","000",,"0",,,,,,,,,,,,,,,,,,,,,,,,,,,,,,,,,,,,,"MET09102/28/20 17:52:01 METAR KCQT 290152Z 00000KT 10SM CLR 24/M03 A3006 RMK AO2 SLP175 T02441033","FM-15","7",,,,,,,,,,,,,,,,,,,,,,,,,,,,"2006-02-03"
"72287493134","2020-02-28T18:52:00","FM-15","7",,,"3.89","mi",,,,,,,"PENDING COOP",,,,,,,,,,,,,,,,,,,,,,,,,,,"30.07","28","73","0.00",,"-0.04","3","19","30.06","CLR:00","29.87","10.00","52","000",,"0",,,,,,,,,,,,,,,,,,,,,,,,,,,,,,,,,,,,,"MET09702/28/20 18:52:01 METAR KCQT 290252Z 00000KT 10SM CLR 23/M02 A3007 RMK AO2 SLP180 T02281022 53014","FM-15","7",,,,,,,,,,,,,,,,,,,,,,,,,,,,"2006-02-03"
"72287493134","2020-02-28T19:52:00","FM-15","7",,,"3.89","mi",,,,,,,"PENDING COOP",,,,,,,,,,,,,,,,,,,,,,,,,,,"30.09","37","72","0.00",,,,"28","30.08","CLR:00","29.89","10.00","54","000",,"0",,,,,,,,,,,,,,,,,,,,,,,,,,,,,,,,,,,,,"MET09002/28/20 19:52:01 METAR KCQT 290352Z 00000KT 10SM CLR 22/03 A3009 RMK AO2 SLP186 T02220028","FM-15","7",,,,,,,,,,,,,,,,,,,,,,,,,,,,"2006-02-03"
"72287493134","2020-02-28T20:52:00","FM-15","7",,,"3.89","mi",,,,,,,"PENDING COOP",,,,,,,,,,,,,,,,,,,,,,,,,,,"30.10","44","69","0.00",,,,"41","30.09","CLR:00","29.90","10.00","56","VRB",,"6",,,,,,,,,,,,,,,,,,,,,,,,,,,,,,,,,,,,,"MET09002/28/20 20:52:02 METAR KCQT 290452Z VRB05KT 10SM CLR 21/07 A3010 RMK AO2 SLP189 T02060067","FM-15","7",,,,,,,,,,,,,,,,,,,,,,,,,,,,"2006-02-03"
"72287493134","2020-02-28T21:52:00","FM-15","7",,,"3.89","mi",,,,,,,"PENDING COOP",,,,,,,,,,,,,,,,,,,,,,,,,,,"30.10","47","67","0.00",,"-0.02","0","49","30.09","CLR:00","29.90","10.00","56","100",,"5",,,,,,,,,,,,,,,,,,,,,,,,,,,,,,,,,,,,,"MET10802/28/20 21:52:02 METAR KCQT 290552Z 10004KT 10SM CLR 19/08 A3010 RMK AO2 SLP189 T01940083 10272 20194 50008","FM-15","7",,,,,,,,,,,,,,,,,,,,,,,,,,,,"2006-02-03"
"72287493134","2020-02-28T22:52:00","FM-15","7",,,"3.89","mi",,,,,,,"PENDING COOP",,,,,,,,,,,,,,,,,,,,,,,,,,,"30.09","50","66","0.00",,,,"56","30.08","CLR:00","29.89","10.00","57","110",,"5",,,,,,,,,,,,,,,,,,,,,,,,,,,,,,,,,,,,,"MET09002/28/20 22:52:02 METAR KCQT 290652Z 11004KT 10SM CLR 19/10 A3009 RMK AO2 SLP187 T01890100","FM-15","7",,,,,,,,,,,,,,,,,,,,,,,,,,,,"2006-02-03"
"72287493134","2020-02-28T23:52:00","FM-15","7",,,"3.89","mi",,,,,,,"PENDING COOP",,,,,,,,,,,,,,,,,,,,,,,,,,,"30.08","49","65","0.00",,,,"56","30.07","CLR:00","29.88","10.00","56","110",,"5",,,,,,,,,,,,,,,,,,,,,,,,,,,,,,,,,,,,,"MET10002/28/20 23:52:02 METAR KCQT 290752Z 11004KT 10SM CLR 18/09 A3008 RMK AO2 SLP184 T01830094 403110178","FM-15","7",,,,,,,,,,,,,,,,,,,,,,,,,,,,"2006-02-03"
"72287493134","2020-02-28T23:59:00","SOD  ","6",,,"3.89","mi",,,,,,,"PENDING COOP",,,,"31","76","24","30.08","29.89","53","2.4","11","16.2","0","88","64","260","14","0.00",,,"270","8",,,,,,,,,,,,,,,,,,,,,,,,,,,,,,,,,,,,,,,,,,,,,,,,,,,,,,,,,"SOD74324 HR PRECIPITATION (IN): 0.00 SNOW DEPTH (IN):0     24 HR SNOWFALL (IN):0.0  24 HR MAX TEMP (F): 8824 HR MIN TEMP (F): 64AVERAGE STATION PRESSURE(D):29.888 MINIMUM SEA LEVEL PRESSURE:30.01 TIME OF OCCURRENCE:1517 PEAK WIND SPEED (MPH): 14 PEAK WIND DIR (DEG):260 PEAK WIND TIME (LST):      FASTEST 2MIN SPEED (MPH):  8FASTEST 2MIN DIR (DEG):270 FASTEST 2MIN TIME (LST):     AVERAGE WIND SPEED (MPH): 2.4 24 HR AVG TEMP (F): 76DEPART FROM NORMAL: 16  HEATING DEGREE DAYS:  0 COOLING DEGREE DAYS: 11 LATEST DAY MAX TEMP (0700-1900 LST): 88 LATEST NIGHT MIN TEMP(1900-0800 LST):64 HOURLY INCREMENTAL PRECIPITATION VALUES (IN):0.00 0.00 0.00 0.00 0.00 0.00 0.00 0.00 0.00 0.00 0.00 0.00 0.00 0.00 0.00 0.00 0.00 0.00 0.00 0.00 0.00 0.00 0.00 0.00","SOD  ","6",,,,,,,,,,,,,,,,,,,,,,,,,"0623","1749",,"2006-02-03"
"72287493134","2020-02-29T00:52:00","FM-15","7",,,"3.89","mi",,,,,,,"PENDING COOP",,,,,,,,,,,,,,,,,,,,,,,,,,,"30.08","50","62","0.00",,"+0.02","6","65","30.07","CLR:00","29.88","10.00","55","000",,"0",,,,,,,,,,,,,,,,,,,,,,,,,,,,,,,,,,,,,"MET09602/29/20 00:52:02 METAR KCQT 290852Z 00000KT 10SM CLR 17/10 A3008 RMK AO2 SLP182 T01670100 56006","FM-15","7",,,,,,,,,,,,,,,,,,,,,,,,,,,,"2006-02-03"
"72287493134","2020-02-29T01:52:00","FM-15","7",,,"3.89","mi",,,,,,,"PENDING COOP",,,,,,,,,,,,,,,,,,,,,,,,,,,"30.06","51","62","0.00",,,,"67","30.06","CLR:00","29.86","10.00","56","000",,"0",,,,,,,,,,,,,,,,,,,,,,,,,,,,,,,,,,,,,"MET09002/29/20 01:52:02 METAR KCQT 290952Z 00000KT 10SM CLR 17/11 A3006 RMK AO2 SLP178 T01670106","FM-15","7",,,,,,,,,,,,,,,,,,,,,,,,,,,,"2006-02-03"
"72287493134","2020-02-29T02:52:00","FM-15","7",,,"3.89","mi",,,,,,,"PENDING COOP",,,,,,,,,,,,,,,,,,,,,,,,,,,"30.05","52","62","0.00",,,,"70","30.05","CLR:00","29.85","10.00","56","000",,"0",,,,,,,,,,,,,,,,,,,,,,,,,,,,,,,,,,,,,"MET09002/29/20 02:52:02 METAR KCQT 291052Z 00000KT 10SM CLR 17/11 A3005 RMK AO2 SLP175 T01670111","FM-15","7",,,,,,,,,,,,,,,,,,,,,,,,,,,,"2006-02-03"
"72287493134","2020-02-29T03:52:00","FM-15","7",,,"3.89","mi",,,,,,,"PENDING COOP",,,,,,,,,,,,,,,,,,,,,,,,,,,"30.06","52","62","0.00",,"+0.02","5","70","30.05","CLR:00","29.86","10.00","56","000",,"0",,,,,,,,,,,,,,,,,,,,,,,,,,,,,,,,,,,,,"MET10802/29/20 03:52:02 METAR KCQT 291152Z 00000KT 10SM CLR 17/11 A3006 RMK AO2 SLP177 T01670111 10200 20167 55006","FM-15","7",,,,,,,,,,,,,,,,,,,,,,,,,,,,"2006-02-03"
"72287493134","2020-02-29T04:52:00","FM-15","7",,,"3.89","mi",,,,,,,"PENDING COOP",,,,,,,,,,,,,,,,,,,,,,,,,,,"30.04","52","62","0.00",,,,"70","30.03","CLR:00","29.84","9.00","56","000",,"0",,,,,,,,,,,,,,,,,,,,,,,,,,,,,,,,,,,,,"MET08902/29/20 04:52:02 METAR KCQT 291252Z 00000KT 9SM CLR 17/11 A3004 RMK AO2 SLP170 T01670111","FM-15","7",,,,,,,,,,,,,,,,,,,,,,,,,,,,"2006-02-03"
"72287493134","2020-02-29T05:52:00","FM-15","7",,,"3.89","mi",,,,,,,"PENDING COOP",,,,,,,,,,,,,,,,,,,,,,,,,,,"30.05","52","62","0.00",,,,"70","30.04","CLR:00","29.85","10.00","56","000",,"0",,,,,,,,,,,,,,,,,,,,,,,,,,,,,,,,,,,,,"MET09002/29/20 05:52:02 METAR KCQT 291352Z 00000KT 10SM CLR 17/11 A3005 RMK AO2 SLP172 T01670111","FM-15","7",,,,,,,,,,,,,,,,,,,,,,,,,,,,"2006-02-03"
"72287493134","2020-02-29T06:52:00","FM-15","7",,,"3.89","mi",,,,,,,"PENDING COOP",,,,,,,,,,,,,,,,,,,,,,,,,,,"30.06","52","62","0.00",,"+0.01","5","70","30.05","CLR:00","29.86","9.00","56","130",,"5",,,,,,,,,,,,,,,,,,,,,,,,,,,,,,,,,,,,,"MET09502/29/20 06:52:02 METAR KCQT 291452Z 13004KT 9SM CLR 17/11 A3006 RMK AO2 SLP176 T01670111 55002","FM-15","7",,,,,,,,,,,,,,,,,,,,,,,,,,,,"2006-02-03"
"72287493134","2020-02-29T07:52:00","FM-15","7",,,"3.89","mi",,,,,,,"PENDING COOP",,,,,,,,,,,,,,,,,,,,,,,,,,,"30.07","51","63","0.00",,,,"65","30.07","CLR:00","29.87","7.00","56","100",,"3",,,,,,,,,,,,,,,,,,,,,,,,,,,,,,,,,,,,,"MET08902/29/20 07:52:02 METAR KCQT 291552Z 10003KT 7SM CLR 17/11 A3007 RMK AO2 SLP183 T01720106","FM-15","7",,,,,,,,,,,,,,,,,,,,,,,,,,,,"2006-02-03"
"72287493134","2020-02-29T08:52:00","FM-15","7",,,"3.89","mi",,,,,,,"PENDING COOP",,,,,,,,,,,,,,,,,,,,,,,,,,,"30.08","48","65","0.00",,,,"54","30.07","CLR:00","29.88","10.00","56","VRB",,"3",,,,,,,,,,,,,,,,,,,,,,,,,,,,,,,,,,,,,"MET09002/29/20 08:52:02 METAR KCQT 291652Z VRB03KT 10SM CLR 18/09 A3008 RMK AO2 SLP183 T01830089","FM-15","7",,,,,,,,,,,,,,,,,,,,,,,,,,,,"2006-02-03"
"72287493134","2020-02-29T09:52:00","FM-15","7",,,"3.89","mi",,,,,,,"PENDING COOP",,,,,,,,,,,,,,,,,,,,,,,,,,,"30.08","51","67","0.00",,"-0.02","1","57","30.07","CLR:00","29.88","10.00","58","130",,"7",,,,,,,,,,,,,,,,,,,,,,,,,,,,,,,,,,,,,"MET10802/29/20 09:52:02 METAR KCQT 291752Z 13006KT 10SM CLR 19/11 A3008 RMK AO2 SLP183 T01940106 10194 20161 51007","FM-15","7",,,,,,,,,,,,,,,,,,,,,,,,,,,,"2006-02-03"
"72287493134","2020-02-29T10:52:00","FM-15","7",,,"3.89","mi",,,,,,,"PENDING COOP",,,,,,,,,,,,,,,,,,,,,,,,,,,"30.07","50","67","0.00",,,,"55","30.07","FEW:02 120","29.87","10.00","58","VRB",,"3",,,,,,,,,,,,,,,,,,,,,,,,,,,,,,,,,,,,,"MET09302/29/20 10:52:02 METAR KCQT 291852Z VRB03KT 10SM FEW120 19/10 A3007 RMK AO2 SLP182 T01940100","FM-15","7",,,,,,,,,,,,,,,,,,,,,,,,,,,,"2006-02-03"
"72287493134","2020-02-29T11:52:00","FM-15","7",,,"3.89","mi",,,,,,,"PENDING COOP",,,,,,,,,,,,,,,,,,,,,,,,,,,"30.05","48","71","0.00",,,,"44","30.04","CLR:00","29.85","10.00","58","VRB",,"3",,,,,,,,,,,,,,,,,,,,,,,,,,,,,,,,,,,,,"MET09002/29/20 11:52:02 METAR KCQT 291952Z VRB03KT 10SM CLR 22/09 A3005 RMK AO2 SLP174 T02170089","FM-15","7",,,,,,,,,,,,,,,,,,,,,,,,,,,,"2006-02-03"
"72287493134","2020-02-29T12:52:00","FM-15","7",,,"3.89","mi",,,,,,,"PENDING COOP",,,,,,,,,,,,,,,,,,,,,,,,,,,"30.02","46","72","0.00",,"+0.05","8","40","30.01","CLR:00","29.82","10.00","58","VRB",,"3",,,,,,,,,,,,,,,,,,,,,,,,,,,,,,,,,,,,,"MET09602/29/20 12:52:02 METAR KCQT 292052Z VRB03KT 10SM CLR 22/08 A3002 RMK AO2 SLP164 T02220078 58018","FM-15","7",,,,,,,,,,,,,,,,,,,,,,,,,,,,"2006-02-03"
"72287493134","2020-02-29T13:52:00","FM-15","7",,,"3.89","mi",,,,,,,"PENDING COOP",,,,,,,,,,,,,,,,,,,,,,,,,,,"30.00","46","72","0.00",,,,"40","30.00","CLR:00","29.80","10.00","58","VRB",,"3",,,,,,,,,,,,,,,,,,,,,,,,,,,,,,,,,,,,,"MET09002/29/20 13:52:02 METAR KCQT 292152Z VRB03KT 10SM CLR 22/08 A3000 RMK AO2 SLP158 T02220078","FM-15","7",,,,,,,,,,,,,,,,,,,,,,,,,,,,"2006-02-03"
"72287493134","2020-02-29T14:52:00","FM-15","4",,,"3.89","mi",,,,,,,"PENDING COOP",,,,,,,,,,,,,,,,,,,,,,,,,,,"29.98","52","70",,,,,"53","29.98",,,"10.00",,"260",,"5",,,,,,,,,,,,,,,,,,,,,,,,,,,,,,,,,,,,,"MET078METAR KCQT 292252Z AUTO 26004KT 10SM CLR 21/11 A2998 RMK AO2 SLP152 T02110111=","FM-15","4",,,,,,,,,,,,,,,,,,,,,,,,,,,,"2006-02-03"
"72287493134","2020-02-29T15:52:00","FM-15","4",,,"3.89","mi",,,,,,,"PENDING COOP",,,,,,,,,,,,,,,,,,,,,,,,,,,"29.99","53","69",,,,,"57","29.98",,,"10.00",,"270",,"6",,,,,,,,,,,,,,,,,,,,,,,,,,,,,,,,,,,,,"MET096METAR KCQT 292352Z AUTO 27005KT 10SM CLR 21/12 A2999 RMK AO2 SLP153 T02060117 10228 20183 55011=","FM-15","4",,,,,,,,,,,,,,,,,,,,,,,,,,,,"2006-02-03"
"72287493134","2020-02-29T16:52:00","FM-15","7",,,"3.89","mi",,,,,,,"PENDING COOP",,,,,,,,,,,,,,,,,,,,,,,,,,,"29.97","52","68","0.00",,,,"57","29.97","CLR:00","29.77","10.00","59","000",,"0",,,,,,,,,,,,,,,,,,,,,,,,,,,,,,,,,,,,,"MET09002/29/20 16:52:01 METAR KCQT 010052Z 00000KT 10SM CLR 20/11 A2997 RMK AO2 SLP149 T02000111","FM-15","7",,,,,,,,,,,,,,,,,,,,,,,,,,,,"2006-02-03"
"72287493134","2020-02-29T17:52:00","FM-15","4",,,"3.89","mi",,,,,,,"PENDING COOP",,,,,,,,,,,,,,,,,,,,,,,,,,,"29.99","52","64",,,,,"65","29.98",,,"10.00",,"000",,"0",,,,,,,,,,,,,,,,,,,,,,,,,,,,,,,,,,,,,"MET078METAR KCQT 010152Z AUTO 00000KT 10SM CLR 18/11 A2999 RMK AO2 SLP152 T01780111=","FM-15","4",,,,,,,,,,,,,,,,,,,,,,,,,,,,"2006-02-03"
"72287493134","2020-02-29T18:38:00","FM-16","4",,,"3.89","mi",,,,,,,"PENDING COOP",,,,,,,,,,,,,,,,,,,,,,,,,,,"30.00","52","63",,,,,"68",,,,"10.00",,"000",,"0",,,,,,,,,,,,,,,,,,,,,,,,,,,,,,,,,,,,,"MET074SPECI KCQT 010238Z AUTO 00000KT 10SM BKN023 17/11 A3000 RMK AO2 T01720111=","FM-16","4",,,,,,,,,,,,,,,,,,,,,,,,,,,,"2006-02-03"
"72287493134","2020-02-29T18:52:00","FM-15","4",,,"3.89","mi",,,,,,,"PENDING COOP",,,,,,,,,,,,,,,,,,,,,,,,,,,"30.00","52","63",,,,,"68","30.00",,,"10.00",,"000",,"0",,,,,,,,,,,,,,,,,,,,,,,,,,,,,,,,,,,,,"MET087METAR KCQT 010252Z AUTO 00000KT 10SM BKN023 17/11 A3000 RMK AO2 SLP159 T01720111 53005=","FM-15","4",,,,,,,,,,,,,,,,,,,,,,,,,,,,"2006-02-03"
"72287493134","2020-02-29T19:52:00","FM-15","4",,,"3.89","mi",,,,,,,"PENDING COOP",,,,,,,,,,,,,,,,,,,,,,,,,,,"30.02","52","63",,,,,"68","30.01",,,"10.00",,"000",,"0",,,,,,,,,,,,,,,,,,,,,,,,,,,,,,,,,,,,,"MET081METAR KCQT 010352Z AUTO 00000KT 10SM BKN022 17/11 A3002 RMK AO2 SLP163 T01720111=","FM-15","4",,,,,,,,,,,,,,,,,,,,,,,,,,,,"2006-02-03"
"72287493134","2020-02-29T20:52:00","FM-15","4",,,"3.89","mi",,,,,,,"PENDING COOP",,,,,,,,,,,,,,,,,,,,,,,,,,,"30.02","51","62",,,,,"67","30.01",,,"10.00",,"140",,"5",,,,,,,,,,,,,,,,,,,,,,,,,,,,,,,,,,,,,"MET088METAR KCQT 010452Z AUTO 14004KT 10SM BKN019 BKN027 17/11 A3002 RMK AO2 SLP164 T01670106=","FM-15","4",,,,,,,,,,,,,,,,,,,,,,,,,,,,"2006-02-03"
"72287493134","2020-02-29T21:09:00","FM-16","4",,,"3.89","mi",,,,,,,"PENDING COOP",,,,,,,,,,,,,,,,,,,,,,,,,,,"30.03","51","62",,,,,"67",,,,"9.00",,"120",,"3",,,,,,,,,,,,,,,,,,,,,,,,,,,,,,,,,,,,,"MET080SPECI KCQT 010509Z AUTO 12003KT 9SM SCT018 SCT024 17/11 A3003 RMK AO2 T01670106=","FM-16","4",,,,,,,,,,,,,,,,,,,,,,,,,,,,"2006-02-03"
"72287493134","2020-02-29T21:41:00","FM-16","4",,,"3.89","mi",,,,,,,"PENDING COOP",,,,,,,,,,,,,,,,,,,,,,,,,,,"30.03","49","62",,,,,"62",,,,"10.00",,"VRB",,"6",,,,,,,,,,,,,,,,,,,,,,,,,,,,,,,,,,,,,"MET081SPECI KCQT 010541Z AUTO VRB05KT 10SM BKN024 BKN031 17/09 A3003 RMK AO2 T01670094=","FM-16","4",,,,,,,,,,,,,,,,,,,,,,,,,,,,"2006-02-03"
"72287493134","2020-02-29T21:52:00","FM-15","4",,,"3.89","mi",,,,,,,"PENDING COOP",,,,,,,,,,,,,,,,,,,,,,,,,,,"30.03","50","62",,,,,"65","30.03",,,"10.00",,"VRB",,"3",,,,,,,,,,,,,,,,,,,,,,,,,,,,,,,,,,,,,"MET106METAR KCQT 010552Z AUTO VRB03KT 10SM BKN024 BKN031 17/10 A3003 RMK AO2 SLP168 T01670100 10206 20167 51009=","FM-15","4",,,,,,,,,,,,,,,,,,,,,,,,,,,,"2006-02-03"
"72287493134","2020-02-29T22:25:00","FM-16","4",,,"3.89","mi",,,,,,,"PENDING COOP",,,,,,,,,,,,,,,,,,,,,,,,,,,"30.02","50","61",,,,,"67",,,,"10.00",,"VRB",,"3",,,,,,,,,,,,,,,,,,,,,,,,,,,,,,,,,,,,,"MET074SPECI KCQT 010625Z AUTO VRB03KT 10SM SCT029 16/10 A3002 RMK AO2 T01610100=","FM-16","4",,,,,,,,,,,,,,,,,,,,,,,,,,,,"2006-02-03"
"72287493134","2020-02-29T22:52:00","FM-15","4",,,"3.89","mi",,,,,,,"PENDING COOP",,,,,,,,,,,,,,,,,,,,,,,,,,,"30.03","49","61",,,,,"65","30.02",,,"10.00",,"100",,"7",,,,,,,,,,,,,,,,,,,,,,,,,,,,,,,,,,,,,"MET081METAR KCQT 010652Z AUTO 10006KT 10SM SCT034 16/09 A3003 RMK AO2 SLP166 T01610094=","FM-15","4",,,,,,,,,,,,,,,,,,,,,,,,,,,,"2006-02-03"
"72287493134","2020-02-29T23:52:00","FM-15","4",,,"3.89","mi",,,,,,,"PENDING COOP",,,,,,,,,,,,,,,,,,,,,,,,,,,"30.02","48","60",,,,,"65","30.02",,,"10.00",,"090",,"5",,,,,,,,,,,,,,,,,,,,,,,,,,,,,,,,,,,,,"MET091METAR KCQT 010752Z AUTO 09004KT 10SM FEW026 16/09 A3002 RMK AO2 SLP165 T01560089 402280156=","FM-15","4",,,,,,,,,,,,,,,,,,,,,,,,,,,,"2006-02-03"
"72287493134","2020-02-29T23:59:00","SOD  ","6",,,"3.89","mi",,,,,,,"PENDING COOP",,,,,"67","52",,,,"2.6","2","7.2","0","73","60","260","14","0.00",,,"280","8",,,,,,,,,,,,,,,,,,,,,,,,,,,,,,,,,,,,,,,,,,,,,,,,,,,,,,,,,"SOD72524 HR PRECIPITATION (IN): 0.00 SNOW DEPTH (IN):0     24 HR SNOWFALL (IN):0.0  WEATHER(CODE):8  24 HR MAX TEMP (F): 7324 HR MIN TEMP (F): 60MINIMUM SEA LEVEL PRESSURE:29.97 TIME OF OCCURRENCE:1715 PEAK WIND SPEED (MPH): 14 PEAK WIND DIR (DEG):260 PEAK WIND TIME (LST):      FASTEST 2MIN SPEED (MPH):  8FASTEST 2MIN DIR (DEG):280 FASTEST 2MIN TIME (LST):     AVERAGE WIND SPEED (MPH): 2.6 24 HR AVG TEMP (F): 67DEPART FROM NORMAL:  7  HEATING DEGREE DAYS:  0 COOLING DEGREE DAYS:  2 LATEST DAY MAX TEMP (0700-1900 LST): 73 LATEST NIGHT MIN TEMP(1900-0800 LST):61 HOURLY INCREMENTAL PRECIPITATION VALUES (IN):0.00 0.00 0.00 0.00 0.00 0.00 0.00 0.00 0.00 0.00 0.00 0.00 0.00 0.00 0.00 0.00 0.00 0.00 0.00 0.00 0.00 0.00 0.00 0.00","SOD  ","6",,,,,,,,,,,,,,,,,,,,,,,,,"0622","1749",,"2006-02-03"
"72287493134","2020-02-29T23:59:00","SOM  ","6","1.6",,"3.89","mi",,,,,,,"PENDING COOP","43","34","0",,,,,,,,,,,,,,,,,,,,,"490","105",,,,,,,,,,,,,,,,,,,"1","0","0","0","0","0","3.7","20","-79","4.1","3.1",,,"0.04","22-22",,,,,"30.31","26","0852","72.7","62.6","29.77","09","1452","52.4","30.05","29.85",,,,"14","184",,"SOM  ","6",,,,,,,,,,,,,,,,,,,,,,,,,,,,"2006-02-03"
"72287493134","2020-03-01T00:52:00","FM-15","7",,,"3.89","mi",,,,,,,"PENDING COOP",,,,,,,,,,,,,,,,,,,,,,,,,,,"30.01","47","60","0.00",,"+0.02","8","62","30.00","CLR:00","29.81","10.00","53","100",,"3",,,,,,,,,,,,,,,,,,,,,,,,,,,,,,,,,,,,,"MET09603/01/20 00:52:02 METAR KCQT 010852Z 10003KT 10SM CLR 16/08 A3001 RMK AO2 SLP159 T01560083 58008","FM-15","7",,,,,,,,,,,,,,,,,,,,,,,,,,,,"2006-02-03"
"72287493134","2020-03-01T01:52:00","FM-15","7",,,"3.89","mi",,,,,,,"PENDING COOP",,,,,,,,,,,,,,,,,,,,,,,,,,,"30.00","47","60","0.00",,,,"62","29.99","OVC:08 43","29.80","10.00","53","070",,"7",,,,,,,,,,,,,,,,,,,,,,,,,,,,,,,,,,,,,"MET09303/01/20 01:52:02 METAR KCQT 010952Z 07006KT 10SM OVC043 16/08 A3000 RMK AO2 SLP156 T01560083","FM-15","7",,,,,,,,,,,,,,,,,,,,,,,,,,,,"2006-02-03"
"72287493134","2020-03-01T02:52:00","FM-15","7",,,"3.89","mi",,,,,,,"PENDING COOP",,,,,,,,,,,,,,,,,,,,,,,,,,,"29.97","48","60","0.00",,,,"65","29.97","SCT:04 18 BKN:07 44","29.77","10.00","54","090",,"5",,,,,,,,,,,,,,,,,,,,,,,,,,,,,,,,,,,,,"MET10003/01/20 02:52:02 METAR KCQT 011052Z 09004KT 10SM SCT018 BKN044 16/09 A2997 RMK AO2 SLP148 T01560089","FM-15","7",,,,,,,,,,,,,,,,,,,,,,,,,,,,"2006-02-03"
"72287493134","2020-03-01T03:14:00","FM-16","7",,,"3.89","mi",,,,,,,"PENDING COOP",,,,,,,,,,,,,,,,,,,,,,,,,,,"29.97","48","60",,,,,"65",,"BKN:07 18 BKN:07 50","29.77","10.00","54","100",,"6",,,,,,,,,,,,,,,,,,,,,,,,,,,,,,,,,,,,,"MET09303/01/20 03:14:02 SPECI KCQT 011114Z 10005KT 10SM BKN018 BKN050 16/09 A2997 RMK AO2 T01560089","FM-16","7",,,,,,,,,,,,,,,,,,,,,,,,,,,,"2006-02-03"
"72287493134","2020-03-01T03:52:00","FM-15","7",,,"3.89","mi",,,,,,,"PENDING COOP",,,,,,,,,,,,,,,,,,,,,,,,,,,"29.96","49","60","0.00",,"+0.05","8","67","29.95","BKN:07 19 BKN:07 23 OVC:08 27","29.76","10.00","54","VRB",,"3",,,,,,,,,,,,,,,,,,,,,,,,,,,,,,,,,,,,,"MET12503/01/20 03:52:02 METAR KCQT 011152Z VRB03KT 10SM BKN019 BKN023 OVC027 16/09 A2996 RMK AO2 SLP142 T01560094 10167 20156 58017","FM-15","7",,,,,,,,,,,,,,,,,,,,,,,,,,,,"2006-02-03"
"72287493134","2020-03-01T04:52:00","FM-15","7",,,"3.89","mi",,,,,,,"PENDING COOP",,,,,,,,,,,,,,,,,,,,,,,,,,,"29.96","49","59","0.00",,,,"69","29.96","FEW:02 16 BKN:07 33 OVC:08 60","29.76","9.00","54","000",,"0",,,,,,,,,,,,,,,,,,,,,,,,,,,,,,,,,,,,,"MET10603/01/20 04:52:02 METAR KCQT 011252Z 00000KT 9SM FEW016 BKN033 OVC060 15/09 A2996 RMK AO2 SLP145 T01500094","FM-15","7",,,,,,,,,,,,,,,,,,,,,,,,,,,,"2006-02-03"
"72287493134","2020-03-01T05:21:00","FM-16","7",,,"3.89","mi",,,,,,,"PENDING COOP",,,,,,,,,,,,,,,,,,,,,,,,,,,"29.96","49","59",,,,,"69",,"SCT:04 16 BKN:07 27 OVC:08 55","29.76","9.00","54","000",,"0",,,,,,,,,,,,,,,,,,,,,,,,,,,,,,,,,,,,,"MET09903/01/20 05:21:02 SPECI KCQT 011321Z 00000KT 9SM SCT016 BKN027 OVC055 15/09 A2996 RMK AO2 T01500094","FM-16","7",,,,,,,,,,,,,,,,,,,,,,,,,,,,"2006-02-03"
"72287493134","2020-03-01T05:34:00","FM-16","7",,,"3.89","mi",,,,,,,"PENDING COOP",,,,,,,,,,,,,,,,,,,,,,,,,,,"29.97","49","59",,,,,"69",,"FEW:02 17 SCT:04 27 OVC:08 34","29.77","10.00","54","000",,"0",,,,,,,,,,,,,,,,,,,,,,,,,,,,,,,,,,,,,"MET10003/01/20 05:34:02 SPECI KCQT 011334Z 00000KT 10SM FEW017 SCT027 OVC034 15/09 A2997 RMK AO2 T01500094","FM-16","7",,,,,,,,,,,,,,,,,,,,,,,,,,,,"2006-02-03"
"72287493134","2020-03-01T05:52:00","FM-15","7",,,"3.89","mi",,,,,,,"PENDING COOP",,,,,,,,,,,,,,,,,,,,,,,,,,,"29.96","49","58","0.00",,,,"72","29.96","OVC:08 34","29.76","10.00","53","000",,"0",,,,,,,,,,,,,,,,,,,,,,,,,,,,,,,,,,,,,"MET09303/01/20 05:52:02 METAR KCQT 011352Z 00000KT 10SM OVC034 14/09 A2996 RMK AO2 SLP145 T01440094","FM-15","7",,,,,,,,,,,,,,,,,,,,,,,,,,,,"2006-02-03"
"72287493134","2020-03-01T06:35:00","FM-16","7",,,"3.89","mi",,,,,,,"PENDING COOP",,,,,,,,,,,,,,,,,,,,,,,,,,,"29.97","49","58",,,,,"72",,"BKN:07 26","29.77","8.00","53","000",,"0",,,,,,,,,,,,,,,,,,,,,,,,,,,,,,,,,,,,,"MET08503/01/20 06:35:02 SPECI KCQT 011435Z 00000KT 8SM BKN026 14/09 A2997 RMK AO2 T01440094","FM-16","7",,,,,,,,,,,,,,,,,,,,,,,,,,,,"2006-02-03"
"72287493134","2020-03-01T06:45:00","FM-16","7",,,"3.89","mi",,,,,,,"PENDING COOP",,,,,,,,,,,,,,,,,,,,,,,,,,,"29.96","49","59",,,,,"69",,"SCT:04 26","29.76","8.00","54","000",,"0",,,,,,,,,,,,,,,,,,,,,,,,,,,,,,,,,,,,,"MET08503/01/20 06:45:02 SPECI KCQT 011445Z 00000KT 8SM SCT026 15/09 A2996 RMK AO2 T01500094","FM-16","7",,,,,,,,,,,,,,,,,,,,,,,,,,,,"2006-02-03"
"72287493134","2020-03-01T06:52:00","FM-15","7",,,"3.89","mi",,,,,,,"PENDING COOP",,,,,,,,,,,,,,,,,,,,,,,,,,,"29.97","49","59","0.00",,"-0.00","3","69","29.96","BKN:07 26","29.77","8.00","54","000",,"0",,,,,,,,,,,,,,,,,,,,,,,,,,,,,,,,,,,,,"MET09803/01/20 06:52:02 METAR KCQT 011452Z 00000KT 8SM BKN026 15/09 A2997 RMK AO2 SLP146 T01500094 53001","FM-15","7",,,,,,,,,,,,,,,,,,,,,,,,,,,,"2006-02-03"
"72287493134","2020-03-01T06:58:00","FM-16","7",,,"3.89","mi",,,,,,,"PENDING COOP",,,,,,,,,,,,,,,,,,,,,,,,,,,"29.96","49","59",,,,,"69",,"SCT:04 26 BKN:07 36","29.76","8.00","54","000",,"0",,,,,,,,,,,,,,,,,,,,,,,,,,,,,,,,,,,,,"MET09203/01/20 06:58:02 SPECI KCQT 011458Z 00000KT 8SM SCT026 BKN036 15/09 A2996 RMK AO2 T01500094","FM-16","7",,,,,,,,,,,,,,,,,,,,,,,,,,,,"2006-02-03"
"72287493134","2020-03-01T07:52:00","FM-15","7",,,"3.89","mi",,,,,,,"PENDING COOP",,,,,,,,,,,,,,,,,,,,,,,,,,,"29.98","49","60","0.00",,,,"67","29.97","FEW:02 49","29.78","8.00","54","000",,"0",,,,,,,,,,,,,,,,,,,,,,,,,,,,,,,,,,,,,"MET09203/01/20 07:52:02 METAR KCQT 011552Z 00000KT 8SM FEW049 16/09 A2998 RMK AO2 SLP150 T01560094","FM-15","7",,,,,,,,,,,,,,,,,,,,,,,,,,,,"2006-02-03"
"72287493134","2020-03-01T08:27:00","FM-16","7",,,"3.89","mi",,,,,,,"PENDING COOP",,,,,,,,,,,,,,,,,,,,,,,,,,,"29.98","47","60",,,,,"62",,"BKN:07 23 BKN:07 34","29.78","9.00","53","000",,"0",,,,,,,,,,,,,,,,,,,,,,,,,,,,,,,,,,,,,"MET09203/01/20 08:27:02 SPECI KCQT 011627Z 00000KT 9SM BKN023 BKN034 16/08 A2998 RMK AO2 T01560083","FM-16","7",,,,,,,,,,,,,,,,,,,,,,,,,,,,"2006-02-03"
"72287493134","2020-03-01T08:52:00","FM-15","7",,,"3.89","mi",,,,,,,"PENDING COOP",,,,,,,,,,,,,,,,,,,,,,,,,,,"29.99","46","60","0.00",,,,"60","29.98","OVC:08 25","29.79","10.00","53","VRB",,"3",,,,,,,,,,,,,,,,,,,,,,,,,,,,,,,,,,,,,"MET09303/01/20 08:52:02 METAR KCQT 011652Z VRB03KT 10SM OVC025 16/08 A2999 RMK AO2 SLP153 T01560078","FM-15","7",,,,,,,,,,,,,,,,,,,,,,,,,,,,"2006-02-03"
"72287493134","2020-03-01T09:34:00","FM-16","7",,,"3.89","mi",,,,,,,"PENDING COOP",,,,,,,,,,,,,,,,,,,,,,,,,,,"29.99","44","60",,,,,"56",,"SCT:04 29 BKN:07 39 OVC:08 48","29.79","10.00","52","240",,"3",,,,,,,,,,,,,,,,,,,,,,,,,,,,,,,,,,,,,"MET10003/01/20 09:34:02 SPECI KCQT 011734Z 24003KT 10SM SCT029 BKN039 OVC048 16/07 A2999 RMK AO2 T01560067","FM-16","7",,,,,,,,,,,,,,,,,,,,,,,,,,,,"2006-02-03"
"72287493134","2020-03-01T09:52:00","FM-15","7",,,"3.89","mi",,,,,,,"PENDING COOP",,,,,,,,,,,,,,,,,,,,,,,,,,,"29.98","44","61","0.00",,"-0.01","0","54","29.97","SCT:04 40 SCT:04 48","29.78","10.00","52","250",,"3",,,,,,,,,,,,,,,,,,,,,,,,,,,,,,,,,,,,,"MET11803/01/20 09:52:02 METAR KCQT 011752Z 25003KT 10SM SCT040 SCT048 16/07 A2998 RMK AO2 SLP150 T01610067 10167 20144 50004","FM-15","7",,,,,,,,,,,,,,,,,,,,,,,,,,,,"2006-02-03"
"72287493134","2020-03-01T10:52:00","FM-15","7",,,"3.89","mi",,,,,,,"PENDING COOP",,,,,,,,,,,,,,,,,,,,,,,,,,,"29.98","43","62","0.00",,,,"50","29.97","FEW:02 31 FEW:02 39","29.78","10.00","52","250",,"6",,,,,,,,,,,,,,,,,,,,,,,,,,,,,,,,,,,,,"MET10003/01/20 10:52:02 METAR KCQT 011852Z 25005KT 10SM FEW031 FEW039 17/06 A2998 RMK AO2 SLP149 T01670061","FM-15","7",,,,,,,,,,,,,,,,,,,,,,,,,,,,"2006-02-03"
"72287493134","2020-03-01T11:52:00","FM-15","7",,,"3.89","mi",,,,,,,"PENDING COOP",,,,,,,,,,,,,,,,,,,,,,,,,,,"29.97","42","60","0.00",,,,"52","29.96","SCT:04 34 BKN:07 42 OVC:08 110","29.77","8.00","51","260",,"7",,,,,,,,,,,,,,,,,,,,,,,,,,,,,,,,,,,,,"MET10603/01/20 11:52:02 METAR KCQT 011952Z 26006KT 8SM SCT034 BKN042 OVC110 16/06 A2997 RMK AO2 SLP147 T01560056","FM-15","7",,,,,,,,,,,,,,,,,,,,,,,,,,,,"2006-02-03"
"72287493134","2020-03-01T12:52:00","FM-15","7",,,"3.89","mi",,,,,,,"PENDING COOP",,,,,,,,,,,,,,,,,,,,,,,,,,,"29.94","38","61","0.00",,"+0.04","8","43","29.94","FEW:02 110","29.74","8.00","50","250","20","7",,,,,,,,,,,,,,,,,,,,,,,,,,,,,,,,,,,,,"MET10103/01/20 12:52:02 METAR KCQT 012052Z 25006G17KT 8SM FEW110 16/03 A2994 RMK AO2 SLP138 T01610033 58012","FM-15","7",,,,,,,,,,,,,,,,,,,,,,,,,,,,"2006-02-03"
"72287493134","2020-03-01T13:52:00","FM-15","7",,,"3.89","mi",,,,,,,"PENDING COOP",,,,,,,,,,,,,,,,,,,,,,,,,,,"29.94","39","60","0.00",,,,"46","29.93","BKN:07 110","29.74","10.00","50","VRB",,"5",,,,,,,,,,,,,,,,,,,,,,,,,,,,,,,,,,,,,"MET09303/01/20 13:52:02 METAR KCQT 012152Z VRB04KT 10SM BKN110 16/04 A2994 RMK AO2 SLP136 T01560039","FM-15","7",,,,,,,,,,,,,,,,,,,,,,,,,,,,"2006-02-03"
"72287493134","2020-03-01T14:52:00","FM-15","7",,,"3.89","mi",,,,,,,"PENDING COOP",,,,,,,,,,,,,,,,,,,,,,,,,,,"29.92","41","60","0.00",,,,"50","29.92","SCT:04 34 OVC:08 110","29.72","10.00","51","VRB",,"3",,,,,,,,,,,,,,,,,,,,,,,,,,,,,,,,,,,,,"MET10003/01/20 14:52:02 METAR KCQT 012252Z VRB03KT 10SM SCT034 OVC110 16/05 A2992 RMK AO2 SLP132 T01560050","FM-15","7",,,,,,,,,,,,,,,,,,,,,,,,,,,,"2006-02-03"
"72287493134","2020-03-01T15:52:00","FM-15","6",,,"3.89","mi",,,,,,,"PENDING COOP",,,,,,,,,,,,,,,,,,,,,,,,,,,"29.92","39","60","0.00",,"+0.03","6","46","29.91","SCT:04 41 BKN:07 49","29.72","10.00","50",,,,,,,,,,,,,,,,,,,,,,,,,,,,,,,,,,,,,,,,"MET11803/01/20 15:52:02 METAR KCQT 012352Z      KT 10SM SCT041 BKN049 16/04 A2992 RMK AO2 SLP130 T01560039 10172 20150 56009","FM-15","6",,,,,,,,,,,,,,,,,,,,,,,,,,,,"2006-02-03"
"72287493134","2020-03-01T16:52:00","FM-15","7",,,"3.89","mi",,,,,,,"PENDING COOP",,,,,,,,,,,,,,,,,,,,,,,,,,,"29.91","40","59","0.00",,,,"49","29.91","FEW:02 38 OVC:08 55","29.71","10.00","50","000",,"0",,,,,,,,,,,,,,,,,,,,,,,,,,,,,,,,,,,,,"MET10003/01/20 16:52:01 METAR KCQT 020052Z 00000KT 10SM FEW038 OVC055 15/04 A2991 RMK AO2 SLP127 T01500044","FM-15","7",,,,,,,,,,,,,,,,,,,,,,,,,,,,"2006-02-03"
"72287493134","2020-03-01T17:52:00","FM-15","7",,,"3.89","mi",,,,,,,"PENDING COOP",,,,,,,,,,,,,,,,,,,,,,,,,,,"29.90","40","58","0.00",,,,"51","29.90","BKN:07 60","29.70","10.00","49","000",,"0",,,,,,,,,,,,,,,,,,,,,,,,,,,,,,,,,,,,,"MET09303/01/20 17:52:01 METAR KCQT 020152Z 00000KT 10SM BKN060 14/04 A2990 RMK AO2 SLP125 T01440044","FM-15","7",,,,,,,,,,,,,,,,,,,,,,,,,,,,"2006-02-03"
"72287493134","2020-03-01T18:52:00","FM-15","7",,,"3.89","mi",,,,,,,"PENDING COOP",,,,,,,,,,,,,,,,,,,,,,,,,,,"29.84","32","47","0.00",,"-0.09","3","56","29.84",,"29.64","10.00","41","000",,"0",,,,,,,,,,,,,,,,,,,,,,,,,,,,,,,,,,,,,"MET10403/01/20 18:52:01 METAR KCQT 020252Z      KT NO A2984 RMK AO2 PK WND 32031/0200 SLP106 T00830000 53029 $","FM-15","7",,,,,,,,,,,,,,,,,,,,,,,,,,,,"2006-02-03"
"72287493134","2020-03-01T19:52:00","FM-15","7",,,"3.89","mi",,,,,,,"PENDING COOP",,,,,,,,,,,,,,,,,,,,,,,,,,,"29.90","42","57","T",,,,"58","29.90","OVC:08 55","29.70","10.00","50","000",,"0",,,,,,,,,,,,,,,,,,,,,,,,,,,,,,,,,,,,,"MET10803/01/20 19:52:01 METAR KCQT 020352Z 00000KT 10SM OVC055 14/06 A2990 RMK AO2 RAB19E52 SLP125 P0000 T01390056","FM-15","7",,,,,,,,,,,,,,,,,,,,,,,,,,,,"2006-02-03"
"72287493134","2020-03-01T20:52:00","FM-15","7",,,"3.89","mi",,,,,,,"PENDING COOP",,,,,,,,,,,,,,,,,,,,,,,,,,,"29.91","43","56","T",,,,"62","29.91","SCT:04 50 OVC:08 60","29.71","10.00","50","000",,"0",,,,,,,,,,,,,,,,,,,,,,,,,,,,,,,,,,,,,"MET10003/01/20 20:52:02 METAR KCQT 020452Z 00000KT 10SM SCT050 OVC060 13/06 A2991 RMK AO2 SLP127 T01330061","FM-15","7",,,,,,,,,,,,,,,,,,,,,,,,,,,,"2006-02-03"
"72287493134","2020-03-01T21:52:00","FM-15","7",,,"3.89","mi",,,,,,,"PENDING COOP",,,,,,,,,,,,,,,,,,,,,,,,,,,"29.92","45","55","0.01",,"-0.02","3","69","29.92","FEW:02 44 FEW:02 60 OVC:08 90","29.72","10.00","50","000",,"0",,,,,,,,,,,,,,,,,,,,,,,,,,,,,,,,,,,,,"MET14803/01/20 21:52:02 METAR KCQT 020552Z 00000KT 10SM FEW044 FEW060 OVC090 13/07 A2992 RMK AO2 RAB0457E40 SLP131 P0001 60001 T01280072 10156 20122 53006","FM-15","7",,,,,,,,,,,,,,,,,,,,,,,,,,,,"2006-02-03"
"72287493134","2020-03-01T22:52:00","FM-15","7",,,"3.89","mi",,,,,,,"PENDING COOP",,,,,,,,,,,,,,,,,,,,,,,,,,,"29.90","43","56","0.00",,,,"62","29.90","OVC:08 100","29.70","10.00","50","VRB",,"6",,,,,,,,,,,,,,,,,,,,,,,,,,,,,,,,,,,,,"MET09303/01/20 22:52:02 METAR KCQT 020652Z VRB05KT 10SM OVC100 13/06 A2990 RMK AO2 SLP126 T01330061","FM-15","7",,,,,,,,,,,,,,,,,,,,,,,,,,,,"2006-02-03"
"72287493134","2020-03-01T23:52:00","FM-15","7",,,"3.89","mi",,,,,,,"PENDING COOP",,,,,,,,,,,,,,,,,,,,,,,,,,,"29.90","43","55","0.00",,,,"64","29.90","FEW:02 70 OVC:08 95","29.70","10.00","49","030",,"3",,,,,,,,,,,,,,,,,,,,,,,,,,,,,,,,,,,,,"MET11003/01/20 23:52:02 METAR KCQT 020752Z 03003KT 10SM FEW070 OVC095 13/06 A2990 RMK AO2 SLP125 T01280061 401720122","FM-15","7",,,,,,,,,,,,,,,,,,,,,,,,,,,,"2006-02-03"
"72287493134","2020-03-01T23:59:00","SOD  ","6",,,"3.89","mi",,,,,,,"PENDING COOP",,,,"44","59","59","29.94","29.75","51","2.6","0","-0.8","6","63","54","250","20","0.01",,,"260","12",,,,,,,,,,,,,,,,,,,,,,,,,,,,,,,,,,,,,,,,,,,,,,,,,,,,,,,,,"SOD76024 HR PRECIPITATION (IN): 0.01 SNOW DEPTH (IN):0     24 HR SNOWFALL (IN):0.0  WEATHER(CODE):8  24 HR MAX TEMP (F): 6324 HR MIN TEMP (F): 54AVERAGE STATION PRESSURE(D):29.752 MINIMUM SEA LEVEL PRESSURE:29.90 TIME OF OCCURRENCE:2359 PEAK WIND SPEED (MPH): 19 PEAK WIND DIR (DEG):270 PEAK WIND TIME (LST):      FASTEST 2MIN SPEED (MPH): 12FASTEST 2MIN DIR (DEG):260 FASTEST 2MIN TIME (LST):     AVERAGE WIND SPEED (MPH): 2.6 24 HR AVG TEMP (F): 59DEPART FROM NORMAL: -1  HEATING DEGREE DAYS:  6 COOLING DEGREE DAYS:  0 LATEST DAY MAX TEMP (0700-1900 LST): 63 LATEST NIGHT MIN TEMP(1900-0800 LST):58 HOURLY INCREMENTAL PRECIPITATION VALUES (IN):0.00 0.00 0.00 0.00 0.00 0.00 0.00 0.00 0.00 0.00 0.00 0.00 0.00 0.00 0.00 0.00 0.00 0.00 0.00T    T     0.01 0.00 0.00","SOD  ","6",,,,,,,,,,,,,,,,,,,,,,,,,"0621","1750",,"2006-02-03"
"72287493134","2020-03-02T00:52:00","FM-15","7",,,"3.89","mi",,,,,,,"PENDING COOP",,,,,,,,,,,,,,,,,,,,,,,,,,,"29.89","44","55","T",,"+0.03","6","67","29.89","FEW:02 65 SCT:04 80 OVC:08 100","29.69","10.00","49","000",,"0",,,,,,,,,,,,,,,,,,,,,,,,,,,,,,,,,,,,,"MET13403/02/20 00:52:02 METAR KCQT 020852Z 00000KT 10SM FEW065 SCT080 OVC100 13/07 A2989 RMK AO2 RAB09E35 SLP122 P0000 60000 T01280067 56009","FM-15","7",,,,,,,,,,,,,,,,,,,,,,,,,,,,"2006-02-03"
"72287493134","2020-03-02T01:52:00","FM-15","7",,,"3.89","mi",,,,,,,"PENDING COOP",,,,,,,,,,,,,,,,,,,,,,,,,,,"29.87","43","54","0.00",,,,"67","29.87","CLR:00","29.67","10.00","49","000",,"0",,,,,,,,,,,,,,,,,,,,,,,,,,,,,,,,,,,,,"MET09003/02/20 01:52:02 METAR KCQT 020952Z 00000KT 10SM CLR 12/06 A2987 RMK AO2 SLP116 T01220061","FM-15","7",,,,,,,,,,,,,,,,,,,,,,,,,,,,"2006-02-03"
"72287493134","2020-03-02T02:52:00","FM-15","7",,,"3.89","mi",,,,,,,"PENDING COOP",,,,,,,,,,,,,,,,,,,,,,,,,,,"29.85","43","53","0.00",,,,"69","29.84","CLR:00","29.65","10.00","48","010",,"3",,,,,,,,,,,,,,,,,,,,,,,,,,,,,,,,,,,,,"MET09003/02/20 02:52:02 METAR KCQT 021052Z 01003KT 10SM CLR 12/06 A2985 RMK AO2 SLP106 T01170061","FM-15","7",,,,,,,,,,,,,,,,,,,,,,,,,,,,"2006-02-03"
"72287493134","2020-03-02T03:52:00","FM-15","7",,,"3.89","mi",,,,,,,"PENDING COOP",,,,,,,,,,,,,,,,,,,,,,,,,,,"29.84","43","51","0.00",,"+0.06","6","74","29.83","CLR:00","29.64","10.00","47","000",,"0",,,,,,,,,,,,,,,,,,,,,,,,,,,,,,,,,,,,,"MET12003/02/20 03:52:02 METAR KCQT 021152Z 00000KT 10SM CLR 11/06 A2984 RMK AO2 SLP103 60000 70001 T01060061 10133 20106 56019","FM-15","7",,,,,,,,,,,,,,,,,,,,,,,,,,,,"2006-02-03"
"72287493134","2020-03-02T04:52:00","FM-15","7",,,"3.89","mi",,,,,,,"PENDING COOP",,,,,,,,,,,,,,,,,,,,,,,,,,,"29.84","43","50","0.00",,,,"77","29.83","CLR:00","29.64","10.00","47","000",,"0",,,,,,,,,,,,,,,,,,,,,,,,,,,,,,,,,,,,,"MET09003/02/20 04:52:02 METAR KCQT 021252Z 00000KT 10SM CLR 10/06 A2984 RMK AO2 SLP103 T01000061","FM-15","7",,,,,,,,,,,,,,,,,,,,,,,,,,,,"2006-02-03"
"72287493134","2020-03-02T05:52:00","FM-15","7",,,"3.89","mi",,,,,,,"PENDING COOP",,,,,,,,,,,,,,,,,,,,,,,,,,,"29.86","43","50","0.00",,,,"77","29.85","CLR:00","29.66","10.00","47","000",,"0",,,,,,,,,,,,,,,,,,,,,,,,,,,,,,,,,,,,,"MET09003/02/20 05:52:02 METAR KCQT 021352Z 00000KT 10SM CLR 10/06 A2986 RMK AO2 SLP109 T01000061","FM-15","7",,,,,,,,,,,,,,,,,,,,,,,,,,,,"2006-02-03"
"72287493134","2020-03-02T06:52:00","FM-15","7",,,"3.89","mi",,,,,,,"PENDING COOP",,,,,,,,,,,,,,,,,,,,,,,,,,,"29.86","43","50","0.00",,"-0.03","3","77","29.86","CLR:00","29.66","10.00","47","000",,"0",,,,,,,,,,,,,,,,,,,,,,,,,,,,,,,,,,,,,"MET09603/02/20 06:52:02 METAR KCQT 021452Z 00000KT 10SM CLR 10/06 A2986 RMK AO2 SLP112 T01000061 53009","FM-15","7",,,,,,,,,,,,,,,,,,,,,,,,,,,,"2006-02-03"
"72287493134","2020-03-02T07:52:00","FM-15","7",,,"3.89","mi",,,,,,,"PENDING COOP",,,,,,,,,,,,,,,,,,,,,,,,,,,"29.89","43","56","0.00",,,,"62","29.88","CLR:00","29.69","10.00","50","000",,"0",,,,,,,,,,,,,,,,,,,,,,,,,,,,,,,,,,,,,"MET09003/02/20 07:52:02 METAR KCQT 021552Z 00000KT 10SM CLR 13/06 A2989 RMK AO2 SLP120 T01330061","FM-15","7",,,,,,,,,,,,,,,,,,,,,,,,,,,,"2006-02-03"
"72287493134","2020-03-02T08:52:00","FM-15","7",,,"3.89","mi",,,,,,,"PENDING COOP",,,,,,,,,,,,,,,,,,,,,,,,,,,"29.91","42","62","0.00",,,,"48","29.91","CLR:00","29.71","10.00","52","000",,"0",,,,,,,,,,,,,,,,,,,,,,,,,,,,,,,,,,,,,"MET09003/02/20 08:52:02 METAR KCQT 021652Z 00000KT 10SM CLR 17/06 A2991 RMK AO2 SLP127 T01670056","FM-15","7",,,,,,,,,,,,,,,,,,,,,,,,,,,,"2006-02-03"
"72287493134","2020-03-02T09:52:00","FM-15","7",,,"3.89","mi",,,,,,,"PENDING COOP",,,,,,,,,,,,,,,,,,,,,,,,,,,"29.90","34","67","0.00",,"-0.04","0","30","29.90","CLR:00","29.70","10.00","51","000",,"0",,,,,,,,,,,,,,,,,,,,,,,,,,,,,,,,,,,,,"MET10803/02/20 09:52:02 METAR KCQT 021752Z 00000KT 10SM CLR 19/01 A2990 RMK AO2 SLP124 T01940011 10194 20100 50013","FM-15","7",,,,,,,,,,,,,,,,,,,,,,,,,,,,"2006-02-03"
"72287493134","2020-03-02T10:52:00","FM-15","7",,,"3.89","mi",,,,,,,"PENDING COOP",,,,,,,,,,,,,,,,,,,,,,,,,,,"29.90","27","70","0.00",,,,"20","29.89","CLR:00","29.70","10.00","50","VRB",,"6",,,,,,,,,,,,,,,,,,,,,,,,,,,,,,,,,,,,,"MET09103/02/20 10:52:02 METAR KCQT 021852Z VRB05KT 10SM CLR 21/M03 A2990 RMK AO2 SLP122 T02111028","FM-15","7",,,,,,,,,,,,,,,,,,,,,,,,,,,,"2006-02-03"
"72287493134","2020-03-02T11:52:00","FM-15","7",,,"3.89","mi",,,,,,,"PENDING COOP",,,,,,,,,,,,,,,,,,,,,,,,,,,"29.88","26","71","0.00",,,,"19","29.88","CLR:00","29.68","10.00","50","000",,"0",,,,,,,,,,,,,,,,,,,,,,,,,,,,,,,,,,,,,"MET09103/02/20 11:52:02 METAR KCQT 021952Z 00000KT 10SM CLR 22/M03 A2988 RMK AO2 SLP118 T02171033","FM-15","7",,,,,,,,,,,,,,,,,,,,,,,,,,,,"2006-02-03"
"72287493134","2020-03-02T12:52:00","FM-15","6",,,"3.89","mi",,,,,,,"PENDING COOP",,,,,,,,,,,,,,,,,,,,,,,,,,,"29.86","23","72","0.00",,"+0.05","8","16","29.85","CLR:00","29.66","10.00","50",,,,,,,,,,,,,,,,,,,,,,,,,,,,,,,,,,,,,,,,"MET09703/02/20 12:52:02 METAR KCQT 022052Z      KT 10SM CLR 22/M05 A2986 RMK AO2 SLP108 T02221050 58016","FM-15","6",,,,,,,,,,,,,,,,,,,,,,,,,,,,"2006-02-03"
"72287493134","2020-03-02T13:52:00","FM-15","7",,,"3.89","mi",,,,,,,"PENDING COOP",,,,,,,,,,,,,,,,,,,,,,,,,,,"29.84","24","72","0.00",,,,"17","29.83","CLR:00","29.64","10.00","50","VRB",,"6",,,,,,,,,,,,,,,,,,,,,,,,,,,,,,,,,,,,,"MET09103/02/20 13:52:02 METAR KCQT 022152Z VRB05KT 10SM CLR 22/M04 A2984 RMK AO2 SLP103 T02221044","FM-15","7",,,,,,,,,,,,,,,,,,,,,,,,,,,,"2006-02-03"
"72287493134","2020-03-02T14:52:00","FM-15","7",,,"3.89","mi",,,,,,,"PENDING COOP",,,,,,,,,,,,,,,,,,,,,,,,,,,"29.83","23","74","0.00",,,,"15","29.82","SCT:04 110","29.63","10.00","51","VRB",,"6",,,,,,,,,,,,,,,,,,,,,,,,,,,,,,,,,,,,,"MET09403/02/20 14:52:02 METAR KCQT 022252Z VRB05KT 10SM SCT110 23/M05 A2983 RMK AO2 SLP099 T02331050","FM-15","7",,,,,,,,,,,,,,,,,,,,,,,,,,,,"2006-02-03"
"72287493134","2020-03-02T15:52:00","FM-15","7",,,"3.89","mi",,,,,,,"PENDING COOP",,,,,,,,,,,,,,,,,,,,,,,,,,,"29.82","23","74","0.00",,"+0.04","6","15","29.81","CLR:00","29.62","10.00","51","VRB",,"6",,,,,,,,,,,,,,,,,,,,,,,,,,,,,,,,,,,,,"MET10903/02/20 15:52:02 METAR KCQT 022352Z VRB05KT 10SM CLR 23/M05 A2982 RMK AO2 SLP095 T02331050 10233 20183 56013","FM-15","7",,,,,,,,,,,,,,,,,,,,,,,,,,,,"2006-02-03"
"72287493134","2020-03-02T16:52:00","FM-15","7",,,"3.89","mi",,,,,,,"PENDING COOP",,,,,,,,,,,,,,,,,,,,,,,,,,,"29.82","22","74","0.00",,,,"14","29.81","CLR:00","29.62","10.00","51","VRB",,"6",,,,,,,,,,,,,,,,,,,,,,,,,,,,,,,,,,,,,"MET09103/02/20 16:52:01 METAR KCQT 030052Z VRB05KT 10SM CLR 23/M06 A2982 RMK AO2 SLP096 T02331056","FM-15","7",,,,,,,,,,,,,,,,,,,,,,,,,,,,"2006-02-03"
"72287493134","2020-03-02T17:52:00","FM-15","7",,,"3.89","mi",,,,,,,"PENDING COOP",,,,,,,,,,,,,,,,,,,,,,,,,,,"29.84","22","72","0.00",,,,"15","29.83","CLR:00","29.64","10.00","50","010",,"7",,,,,,,,,,,,,,,,,,,,,,,,,,,,,,,,,,,,,"MET09103/02/20 17:52:01 METAR KCQT 030152Z 01006KT 10SM CLR 22/M06 A2984 RMK AO2 SLP103 T02221056","FM-15","7",,,,,,,,,,,,,,,,,,,,,,,,,,,,"2006-02-03"
"72287493134","2020-03-02T18:52:00","FM-15","7",,,"3.89","mi",,,,,,,"PENDING COOP",,,,,,,,,,,,,,,,,,,,,,,,,,,"29.85","20","72","0.00",,"-0.03","3","14","29.85","CLR:00","29.65","10.00","49","VRB",,"7",,,,,,,,,,,,,,,,,,,,,,,,,,,,,,,,,,,,,"MET09703/02/20 18:52:01 METAR KCQT 030252Z VRB06KT 10SM CLR 22/M07 A2985 RMK AO2 SLP107 T02221067 53011","FM-15","7",,,,,,,,,,,,,,,,,,,,,,,,,,,,"2006-02-03"
"72287493134","2020-03-02T19:52:00","FM-15","7",,,"3.89","mi",,,,,,,"PENDING COOP",,,,,,,,,,,,,,,,,,,,,,,,,,,"29.86","23","69","0.00",,,,"17","29.85","CLR:00","29.66","10.00","49","000",,"0",,,,,,,,,,,,,,,,,,,,,,,,,,,,,,,,,,,,,"MET09103/02/20 19:52:01 METAR KCQT 030352Z 00000KT 10SM CLR 21/M05 A2986 RMK AO2 SLP110 T02061050","FM-15","7",,,,,,,,,,,,,,,,,,,,,,,,,,,,"2006-02-03"
"72287493134","2020-03-02T20:52:00","FM-15","7",,,"3.89","mi",,,,,,,"PENDING COOP",,,,,,,,,,,,,,,,,,,,,,,,,,,"29.89","24","67","0.00",,,,"20","29.88","CLR:00","29.69","10.00","48","340",,"5",,,,,,,,,,,,,,,,,,,,,,,,,,,,,,,,,,,,,"MET09103/02/20 20:52:02 METAR KCQT 030452Z 34004KT 10SM CLR 19/M04 A2989 RMK AO2 SLP119 T01941044","FM-15","7",,,,,,,,,,,,,,,,,,,,,,,,,,,,"2006-02-03"
"72287493134","2020-03-02T21:52:00","FM-15","7",,,"3.89","mi",,,,,,,"PENDING COOP",,,,,,,,,,,,,,,,,,,,,,,,,,,"29.90","22","65","0.00",,"-0.05","3","19","29.90","CLR:00","29.70","10.00","47","VRB",,"3",,,,,,,,,,,,,,,,,,,,,,,,,,,,,,,,,,,,,"MET10903/02/20 21:52:02 METAR KCQT 030552Z VRB03KT 10SM CLR 18/M06 A2990 RMK AO2 SLP124 T01831056 10233 20183 53017","FM-15","7",,,,,,,,,,,,,,,,,,,,,,,,,,,,"2006-02-03"
"72287493134","2020-03-02T22:52:00","FM-15","7",,,"3.89","mi",,,,,,,"PENDING COOP",,,,,,,,,,,,,,,,,,,,,,,,,,,"29.89","18","66","0.00",,,,"16","29.89","CLR:00","29.69","10.00","46","360",,"7",,,,,,,,,,,,,,,,,,,,,,,,,,,,,,,,,,,,,"MET09103/02/20 22:52:02 METAR KCQT 030652Z 36006KT 10SM CLR 19/M08 A2989 RMK AO2 SLP121 T01891078","FM-15","7",,,,,,,,,,,,,,,,,,,,,,,,,,,,"2006-02-03"
"72287493134","2020-03-02T23:52:00","FM-15","7",,,"3.89","mi",,,,,,,"PENDING COOP",,,,,,,,,,,,,,,,,,,,,,,,,,,"29.88","11","70","0.00",,,,"10","29.87","CLR:00","29.68","10.00","47","020",,"7",,,,,,,,,,,,,,,,,,,,,,,,,,,,,,,,,,,,,"MET10103/02/20 23:52:02 METAR KCQT 030752Z 02006KT 10SM CLR 21/M12 A2988 RMK AO2 SLP114 T02111117 402330100","FM-15","7",,,,,,,,,,,,,,,,,,,,,,,,,,,,"2006-02-03"
"72287493134","2020-03-02T23:59:00","SOD  ","6",,,"3.89","mi",,,,,,,"PENDING COOP",,,,"30","62","35","29.86","29.67","49","3.0","0","2.1","3","74","50","030","20","T",,,"010","12",,,,,,,,,,,,,,,,,,,,,,,,,,,,,,,,,,,,,,,,,,,,,,,,,,,,,,,,,"SOD74324 HR PRECIPITATION (IN):    T SNOW DEPTH (IN):0     24 HR SNOWFALL (IN):0.0  24 HR MAX TEMP (F): 7424 HR MIN TEMP (F): 50AVERAGE STATION PRESSURE(D):29.668 MINIMUM SEA LEVEL PRESSURE:29.81 TIME OF OCCURRENCE:1656 PEAK WIND SPEED (MPH): 20 PEAK WIND DIR (DEG): 30 PEAK WIND TIME (LST):      FASTEST 2MIN SPEED (MPH): 12FASTEST 2MIN DIR (DEG): 10 FASTEST 2MIN TIME (LST):     AVERAGE WIND SPEED (MPH): 3.0 24 HR AVG TEMP (F): 62DEPART FROM NORMAL:  2  HEATING DEGREE DAYS:  3 COOLING DEGREE DAYS:  0 LATEST DAY MAX TEMP (0700-1900 LST): 74 LATEST NIGHT MIN TEMP(1900-0800 LST):50 HOURLY INCREMENTAL PRECIPITATION VALUES (IN):     0.00 0.00 0.00 0.00 0.00 0.00 0.00 0.00 0.00 0.00 0.00 0.00 0.00 0.00 0.00 0.00 0.00 0.00 0.00 0.00 0.00 0.00 0.00","SOD  ","6",,,,,,,,,,,,,,,,,,,,,,,,,"0620","1751",,"2006-02-03"
"72287493134","2020-03-03T00:52:00","FM-15","7",,,"3.89","mi",,,,,,,"PENDING COOP",,,,,,,,,,,,,,,,,,,,,,,,,,,"29.88","13","66","0.00",,"+0.02","5","13","29.88","CLR:00","29.68","10.00","45","VRB",,"3",,,,,,,,,,,,,,,,,,,,,,,,,,,,,,,,,,,,,"MET09703/03/20 00:52:02 METAR KCQT 030852Z VRB03KT 10SM CLR 19/M11 A2988 RMK AO2 SLP117 T01891106 55006","FM-15","7",,,,,,,,,,,,,,,,,,,,,,,,,,,,"2006-02-03"
"72287493134","2020-03-03T01:52:00","FM-15","7",,,"3.89","mi",,,,,,,"PENDING COOP",,,,,,,,,,,,,,,,,,,,,,,,,,,"29.90","17","62","0.00",,,,"17","29.89","CLR:00","29.70","10.00","44","000",,"0",,,,,,,,,,,,,,,,,,,,,,,,,,,,,,,,,,,,,"MET09103/03/20 01:52:02 METAR KCQT 030952Z 00000KT 10SM CLR 17/M08 A2990 RMK AO2 SLP122 T01671083","FM-15","7",,,,,,,,,,,,,,,,,,,,,,,,,,,,"2006-02-03"
"72287493134","2020-03-03T02:52:00","FM-15","7",,,"3.89","mi",,,,,,,"PENDING COOP",,,,,,,,,,,,,,,,,,,,,,,,,,,"29.89","18","59","0.00",,,,"20","29.88","CLR:00","29.69","10.00","43","000",,"0",,,,,,,,,,,,,,,,,,,,,,,,,,,,,,,,,,,,,"MET09103/03/20 02:52:02 METAR KCQT 031052Z 00000KT 10SM CLR 15/M08 A2989 RMK AO2 SLP119 T01501078","FM-15","7",,,,,,,,,,,,,,,,,,,,,,,,,,,,"2006-02-03"
"72287493134","2020-03-03T03:52:00","FM-15","7",,,"3.89","mi",,,,,,,"PENDING COOP",,,,,,,,,,,,,,,,,,,,,,,,,,,"29.88","21","57","0.00",,"+0.00","8","25","29.88","CLR:00","29.68","10.00","42","000",,"0",,,,,,,,,,,,,,,,,,,,,,,,,,,,,,,,,,,,,"MET10903/03/20 03:52:02 METAR KCQT 031152Z 00000KT 10SM CLR 14/M06 A2988 RMK AO2 SLP117 T01391061 10211 20133 58000","FM-15","7",,,,,,,,,,,,,,,,,,,,,,,,,,,,"2006-02-03"
"72287493134","2020-03-03T04:52:00","FM-15","7",,,"3.89","mi",,,,,,,"PENDING COOP",,,,,,,,,,,,,,,,,,,,,,,,,,,"29.89","17","60","0.00",,,,"19","29.89","CLR:00","29.69","10.00","43","000",,"0",,,,,,,,,,,,,,,,,,,,,,,,,,,,,,,,,,,,,"MET09103/03/20 04:52:02 METAR KCQT 031252Z 00000KT 10SM CLR 16/M08 A2989 RMK AO2 SLP122 T01561083","FM-15","7",,,,,,,,,,,,,,,,,,,,,,,,,,,,"2006-02-03"
"72287493134","2020-03-03T05:52:00","FM-15","7",,,"3.89","mi",,,,,,,"PENDING COOP",,,,,,,,,,,,,,,,,,,,,,,,,,,"29.90","19","58","0.00",,,,"22","29.90","CLR:00","29.70","10.00","42","000",,"0",,,,,,,,,,,,,,,,,,,,,,,,,,,,,,,,,,,,,"MET09103/03/20 05:52:02 METAR KCQT 031352Z 00000KT 10SM CLR 14/M07 A2990 RMK AO2 SLP124 T01441072","FM-15","7",,,,,,,,,,,,,,,,,,,,,,,,,,,,"2006-02-03"
"72287493134","2020-03-03T06:52:00","FM-15","7",,,"3.89","mi",,,,,,,"PENDING COOP",,,,,,,,,,,,,,,,,,,,,,,,,,,"29.92","24","57","0.00",,"-0.04","3","28","29.91","CLR:00","29.72","10.00","43","000",,"0",,,,,,,,,,,,,,,,,,,,,,,,,,,,,,,,,,,,,"MET09703/03/20 06:52:02 METAR KCQT 031452Z 00000KT 10SM CLR 14/M04 A2992 RMK AO2 SLP129 T01391044 53012","FM-15","7",,,,,,,,,,,,,,,,,,,,,,,,,,,,"2006-02-03"
"72287493134","2020-03-03T07:52:00","FM-15","7",,,"3.89","mi",,,,,,,"PENDING COOP",,,,,,,,,,,,,,,,,,,,,,,,,,,"29.92","21","64","0.00",,,,"19","29.92","CLR:00","29.72","10.00","46","090",,"3",,,,,,,,,,,,,,,,,,,,,,,,,,,,,,,,,,,,,"MET09103/03/20 07:52:02 METAR KCQT 031552Z 09003KT 10SM CLR 18/M06 A2992 RMK AO2 SLP131 T01781061","FM-15","7",,,,,,,,,,,,,,,,,,,,,,,,,,,,"2006-02-03"
"72287493134","2020-03-03T08:52:00","FM-15","7",,,"3.89","mi",,,,,,,"PENDING COOP",,,,,,,,,,,,,,,,,,,,,,,,,,,"29.93","23","72","0.00",,,,"16","29.92","CLR:00","29.73","10.00","50","000",,"0",,,,,,,,,,,,,,,,,,,,,,,,,,,,,,,,,,,,,"MET09103/03/20 08:52:02 METAR KCQT 031652Z 00000KT 10SM CLR 22/M05 A2993 RMK AO2 SLP131 T02221050","FM-15","7",,,,,,,,,,,,,,,,,,,,,,,,,,,,"2006-02-03"
"72287493134","2020-03-03T09:52:00","FM-15","7",,,"3.89","mi",,,,,,,"PENDING COOP",,,,,,,,,,,,,,,,,,,,,,,,,,,"29.94","20","75","0.00",,"-0.02","3","12","29.93","CLR:00","29.74","10.00","51","120",,"5",,,,,,,,,,,,,,,,,,,,,,,,,,,,,,,,,,,,,"MET10903/03/20 09:52:02 METAR KCQT 031752Z 12004KT 10SM CLR 24/M07 A2994 RMK AO2 SLP135 T02391067 10239 20133 53007","FM-15","7",,,,,,,,,,,,,,,,,,,,,,,,,,,,"2006-02-03"
"72287493134","2020-03-03T10:52:00","FM-15","7",,,"3.89","mi",,,,,,,"PENDING COOP",,,,,,,,,,,,,,,,,,,,,,,,,,,"29.94","21","78","0.00",,,,"12","29.93","CLR:00","29.74","10.00","52","VRB",,"3",,,,,,,,,,,,,,,,,,,,,,,,,,,,,,,,,,,,,"MET09103/03/20 10:52:02 METAR KCQT 031852Z VRB03KT 10SM CLR 26/M06 A2994 RMK AO2 SLP136 T02561061","FM-15","7",,,,,,,,,,,,,,,,,,,,,,,,,,,,"2006-02-03"
"72287493134","2020-03-03T11:52:00","FM-15","7",,,"3.89","mi",,,,,,,"PENDING COOP",,,,,,,,,,,,,,,,,,,,,,,,,,,"29.93","24","78","0.00",,,,"13","29.92","CLR:00","29.73","10.00","53","000",,"0",,,,,,,,,,,,,,,,,,,,,,,,,,,,,,,,,,,,,"MET09103/03/20 11:52:02 METAR KCQT 031952Z 00000KT 10SM CLR 26/M04 A2993 RMK AO2 SLP133 T02561044","FM-15","7",,,,,,,,,,,,,,,,,,,,,,,,,,,,"2006-02-03"
"72287493134","2020-03-03T12:52:00","FM-15","7",,,"3.89","mi",,,,,,,"PENDING COOP",,,,,,,,,,,,,,,,,,,,,,,,,,,"29.90","26","80","0.00",,"+0.04","8","14","29.89","CLR:00","29.70","10.00","54","000",,"0",,,,,,,,,,,,,,,,,,,,,,,,,,,,,,,,,,,,,"MET09703/03/20 12:52:02 METAR KCQT 032052Z 00000KT 10SM CLR 27/M03 A2990 RMK AO2 SLP123 T02671033 58013","FM-15","7",,,,,,,,,,,,,,,,,,,,,,,,,,,,"2006-02-03"
"72287493134","2020-03-03T13:52:00","FM-15","7",,,"3.89","mi",,,,,,,"PENDING COOP",,,,,,,,,,,,,,,,,,,,,,,,,,,"29.88","28","80","0.00",,,,"15","29.88","CLR:00","29.68","10.00","55","000",,"0",,,,,,,,,,,,,,,,,,,,,,,,,,,,,,,,,,,,,"MET09103/03/20 13:52:02 METAR KCQT 032152Z 00000KT 10SM CLR 27/M02 A2988 RMK AO2 SLP117 T02671022","FM-15","7",,,,,,,,,,,,,,,,,,,,,,,,,,,,"2006-02-03"
"72287493134","2020-03-03T14:52:00","FM-15","7",,,"3.89","mi",,,,,,,"PENDING COOP",,,,,,,,,,,,,,,,,,,,,,,,,,,"29.88","31","80","0.00",,,,"17","29.87","CLR:00","29.68","10.00","56","VRB",,"5",,,,,,,,,,,,,,,,,,,,,,,,,,,,,,,,,,,,,"MET09103/03/20 14:52:02 METAR KCQT 032252Z VRB04KT 10SM CLR 27/M01 A2988 RMK AO2 SLP114 T02671006","FM-15","7",,,,,,,,,,,,,,,,,,,,,,,,,,,,"2006-02-03"
"72287493134","2020-03-03T15:52:00","FM-15","6",,,"3.89","mi",,,,,,,"PENDING COOP",,,,,,,,,,,,,,,,,,,,,,,,,,,"29.88","43","76","0.00",,"+0.02","5","31","29.87","CLR:00","29.68","10.00","58",,,,,,,,,,,,,,,,,,,,,,,,,,,,,,,,,,,,,,,,"MET10803/03/20 15:52:02 METAR KCQT 032352Z      KT 10SM CLR 24/06 A2988 RMK AO2 SLP116 T02440061 10278 20239 55007","FM-15","6",,,,,,,,,,,,,,,,,,,,,,,,,,,,"2006-02-03"
"72287493134","2020-03-03T16:52:00","FM-15","7",,,"3.89","mi",,,,,,,"PENDING COOP",,,,,,,,,,,,,,,,,,,,,,,,,,,"29.89","42","73","0.00",,,,"33","29.88","CLR:00","29.69","10.00","57","250",,"3",,,,,,,,,,,,,,,,,,,,,,,,,,,,,,,,,,,,,"MET09003/03/20 16:52:01 METAR KCQT 040052Z 25003KT 10SM CLR 23/06 A2989 RMK AO2 SLP119 T02280056","FM-15","7",,,,,,,,,,,,,,,,,,,,,,,,,,,,"2006-02-03"
"72287493134","2020-03-03T17:52:00","FM-15","7",,,"3.89","mi",,,,,,,"PENDING COOP",,,,,,,,,,,,,,,,,,,,,,,,,,,"29.91","44","68","0.00",,,,"42","29.91","CLR:00","29.71","10.00","55","250",,"3",,,,,,,,,,,,,,,,,,,,,,,,,,,,,,,,,,,,,"MET09003/03/20 17:52:01 METAR KCQT 040152Z 25003KT 10SM CLR 20/07 A2991 RMK AO2 SLP128 T02000067","FM-15","7",,,,,,,,,,,,,,,,,,,,,,,,,,,,"2006-02-03"
"72287493134","2020-03-03T18:52:00","FM-15","7",,,"3.89","mi",,,,,,,"PENDING COOP",,,,,,,,,,,,,,,,,,,,,,,,,,,"29.94","46","66","0.00",,"-0.06","3","49","29.94","CLR:00","29.74","10.00","55","000",,"0",,,,,,,,,,,,,,,,,,,,,,,,,,,,,,,,,,,,,"MET09603/03/20 18:52:01 METAR KCQT 040252Z 00000KT 10SM CLR 19/08 A2994 RMK AO2 SLP138 T01890078 53021","FM-15","7",,,,,,,,,,,,,,,,,,,,,,,,,,,,"2006-02-03"
"72287493134","2020-03-03T19:52:00","FM-15","7",,,"3.89","mi",,,,,,,"PENDING COOP",,,,,,,,,,,,,,,,,,,,,,,,,,,"29.96","49","64","0.00",,,,"58","29.96","CLR:00","29.76","10.00","56","000",,"0",,,,,,,,,,,,,,,,,,,,,,,,,,,,,,,,,,,,,"MET09003/03/20 19:52:01 METAR KCQT 040352Z 00000KT 10SM CLR 18/09 A2996 RMK AO2 SLP144 T01780094","FM-15","7",,,,,,,,,,,,,,,,,,,,,,,,,,,,"2006-02-03"
"72287493134","2020-03-03T20:52:00","FM-15","7",,,"3.89","mi",,,,,,,"PENDING COOP",,,,,,,,,,,,,,,,,,,,,,,,,,,"29.98","51","63","0.00",,,,"65","29.97","CLR:00","29.78","9.00","56","000",,"0",,,,,,,,,,,,,,,,,,,,,,,,,,,,,,,,,,,,,"MET08903/03/20 20:52:02 METAR KCQT 040452Z 00000KT 9SM CLR 17/11 A2998 RMK AO2 SLP149 T01720106","FM-15","7",,,,,,,,,,,,,,,,,,,,,,,,,,,,"2006-02-03"
"72287493134","2020-03-03T21:52:00","FM-15","7",,,"3.89","mi",,,,,,,"PENDING COOP",,,,,,,,,,,,,,,,,,,,,,,,,,,"29.99","51","62","0.00",,"-0.05","1","67","29.98","CLR:00","29.79","8.00","56","000",,"0",,,,,,,,,,,,,,,,,,,,,,,,,,,,,,,,,,,,,"MET10703/03/20 21:52:02 METAR KCQT 040552Z 00000KT 8SM CLR 17/11 A2999 RMK AO2 SLP153 T01670106 10244 20167 51016","FM-15","7",,,,,,,,,,,,,,,,,,,,,,,,,,,,"2006-02-03"
"72287493134","2020-03-03T22:52:00","FM-15","7",,,"3.89","mi",,,,,,,"PENDING COOP",,,,,,,,,,,,,,,,,,,,,,,,,,,"30.01","52","61","0.00",,,,"72","30.00","CLR:00","29.81","7.00","56","000",,"0",,,,,,,,,,,,,,,,,,,,,,,,,,,,,,,,,,,,,"MET08903/03/20 22:52:02 METAR KCQT 040652Z 00000KT 7SM CLR 16/11 A3001 RMK AO2 SLP159 T01610111","FM-15","7",,,,,,,,,,,,,,,,,,,,,,,,,,,,"2006-02-03"
"72287493134","2020-03-03T23:52:00","FM-15","7",,,"3.89","mi",,,,,,,"PENDING COOP",,,,,,,,,,,,,,,,,,,,,,,,,,,"30.02","52","60","0.00",,,,"75","30.01","CLR:00","29.82","7.00","56","000",,"0",,,,,,,,,,,,,,,,,,,,,,,,,,,,,,,,,,,,,"MET09903/03/20 23:52:02 METAR KCQT 040752Z 00000KT 7SM CLR 16/11 A3002 RMK AO2 SLP161 T01560111 402780133","FM-15","7",,,,,,,,,,,,,,,,,,,,,,,,,,,,"2006-02-03"
"72287493134","2020-03-03T23:59:00","SOD  ","6",,,"3.89","mi",,,,,,,"PENDING COOP",,,,"31","69","32","29.92","29.72","51","1.2","4","9.1","0","82","56","270","12","0.00",,,"260","7",,,,,,,,,,,,,,,,,,,,,,,,,,,,,,,,,,,,,,,,,,,,,,,,,,,,,,,,,"SOD74324 HR PRECIPITATION (IN): 0.00 SNOW DEPTH (IN):0     24 HR SNOWFALL (IN):0.0  24 HR MAX TEMP (F): 8224 HR MIN TEMP (F): 56AVERAGE STATION PRESSURE(D):29.726 MINIMUM SEA LEVEL PRESSURE:29.86 TIME OF OCCURRENCE:0018 PEAK WIND SPEED (MPH): 12 PEAK WIND DIR (DEG):270 PEAK WIND TIME (LST):      FASTEST 2MIN SPEED (MPH):  7FASTEST 2MIN DIR (DEG):260 FASTEST 2MIN TIME (LST):     AVERAGE WIND SPEED (MPH): 1.2 24 HR AVG TEMP (F): 69DEPART FROM NORMAL:  9  HEATING DEGREE DAYS:  0 COOLING DEGREE DAYS:  4 LATEST DAY MAX TEMP (0700-1900 LST): 82 LATEST NIGHT MIN TEMP(1900-0800 LST):56 HOURLY INCREMENTAL PRECIPITATION VALUES (IN):0.00 0.00 0.00 0.00 0.00 0.00 0.00 0.00 0.00 0.00 0.00 0.00 0.00 0.00 0.00 0.00 0.00 0.00 0.00 0.00 0.00 0.00 0.00 0.00","SOD  ","6",,,,,,,,,,,,,,,,,,,,,,,,,"0618","1752",,"2006-02-03"
"72287493134","2020-03-04T00:52:00","FM-15","7",,,"3.89","mi",,,,,,,"PENDING COOP",,,,,,,,,,,,,,,,,,,,,,,,,,,"30.03","52","59","0.00",,"-0.04","1","78","30.02","CLR:00","29.83","7.00","55","000",,"0",,,,,,,,,,,,,,,,,,,,,,,,,,,,,,,,,,,,,"MET09503/04/20 00:52:02 METAR KCQT 040852Z 00000KT 7SM CLR 15/11 A3003 RMK AO2 SLP166 T01500111 51014","FM-15","7",,,,,,,,,,,,,,,,,,,,,,,,,,,,"2006-02-03"
"72287493134","2020-03-04T01:52:00","FM-15","7",,,"3.89","mi",,,,,,,"PENDING COOP",,,,,,,,,,,,,,,,,,,,,,,,,,,"30.03","52","60","0.00",,,,"75","30.02","CLR:00","29.83","8.00","56","000",,"0",,,,,,,,,,,,,,,,,,,,,,,,,,,,,,,,,,,,,"MET08903/04/20 01:52:02 METAR KCQT 040952Z 00000KT 8SM CLR 16/11 A3003 RMK AO2 SLP167 T01560111","FM-15","7",,,,,,,,,,,,,,,,,,,,,,,,,,,,"2006-02-03"
"72287493134","2020-03-04T02:28:00","FM-16","7",,,"3.89","mi",,,,,,,"PENDING COOP",,,,,,,,,,,,,,,,,,,,,,,,,,,"30.03","51","59",,,,,"75",,"FEW:02 8","29.83","8.00","55","100",,"5",,,,,,,,,,,,,,,,,,,,,,,,,,,,,,,,,,,,,"MET08503/04/20 02:28:02 SPECI KCQT 041028Z 10004KT 8SM FEW008 15/11 A3003 RMK AO2 T01500106","FM-16","7",,,,,,,,,,,,,,,,,,,,,,,,,,,,"2006-02-03"
"72287493134","2020-03-04T02:52:00","FM-15","7",,,"3.89","mi",,,,,,,"PENDING COOP",,,,,,,,,,,,,,,,,,,,,,,,,,,"30.03","51","59","0.00",,,,"75","30.03","SCT:04 8","29.83","8.00","55","000",,"0",,,,,,,,,,,,,,,,,,,,,,,,,,,,,,,,,,,,,"MET09203/04/20 02:52:02 METAR KCQT 041052Z 00000KT 8SM SCT008 15/11 A3003 RMK AO2 SLP168 T01500106","FM-15","7",,,,,,,,,,,,,,,,,,,,,,,,,,,,"2006-02-03"
"72287493134","2020-03-04T03:52:00","FM-15","7",,,"3.89","mi",,,,,,,"PENDING COOP",,,,,,,,,,,,,,,,,,,,,,,,,,,"30.04","51","59","0.00","HZ:7 |FU |HZ","-0.01","3","75","30.03","CLR:00","29.84","6.00","55","000",,"0",,,,,,,,,,,,,,,,,,,,,,,,,,,,,,,,,,,,,"MET11003/04/20 03:52:02 METAR KCQT 041152Z 00000KT 6SM HZ CLR 15/11 A3004 RMK AO2 SLP170 T01500106 10167 20150 53003","FM-15","7",,,,,,,,,,,,,,,,,,,,,,,,,,,,"2006-02-03"
"72287493134","2020-03-04T04:52:00","FM-15","7",,,"3.89","mi",,,,,,,"PENDING COOP",,,,,,,,,,,,,,,,,,,,,,,,,,,"30.05","51","58","0.00",,,,"78","30.04","CLR:00","29.85","7.00","54","100",,"3",,,,,,,,,,,,,,,,,,,,,,,,,,,,,,,,,,,,,"MET08903/04/20 04:52:02 METAR KCQT 041252Z 10003KT 7SM CLR 14/11 A3005 RMK AO2 SLP174 T01440106","FM-15","7",,,,,,,,,,,,,,,,,,,,,,,,,,,,"2006-02-03"
"72287493134","2020-03-04T05:17:00","FM-16","7",,,"3.89","mi",,,,,,,"PENDING COOP",,,,,,,,,,,,,,,,,,,,,,,,,,,"30.06","49","58",,,,,"72",,"BKN:07 10","29.86","8.00","53","090",,"3",,,,,,,,,,,,,,,,,,,,,,,,,,,,,,,,,,,,,"MET08503/04/20 05:17:02 SPECI KCQT 041317Z 09003KT 8SM BKN010 14/09 A3006 RMK AO2 T01440094","FM-16","7",,,,,,,,,,,,,,,,,,,,,,,,,,,,"2006-02-03"
"72287493134","2020-03-04T05:23:00","FM-16","7",,,"3.89","mi",,,,,,,"PENDING COOP",,,,,,,,,,,,,,,,,,,,,,,,,,,"30.06","49","59",,,,,"69",,"BKN:07 9","29.86","9.00","54","000",,"0",,,,,,,,,,,,,,,,,,,,,,,,,,,,,,,,,,,,,"MET08503/04/20 05:23:02 SPECI KCQT 041323Z 00000KT 9SM BKN009 15/09 A3006 RMK AO2 T01500094","FM-16","7",,,,,,,,,,,,,,,,,,,,,,,,,,,,"2006-02-03"
"72287493134","2020-03-04T05:52:00","FM-15","7",,,"3.89","mi",,,,,,,"PENDING COOP",,,,,,,,,,,,,,,,,,,,,,,,,,,"30.08","50","59","0.00",,,,"72","30.07","OVC:08 8","29.88","8.00","54","000",,"0",,,,,,,,,,,,,,,,,,,,,,,,,,,,,,,,,,,,,"MET09203/04/20 05:52:01 METAR KCQT 041352Z 00000KT 8SM OVC008 15/10 A3008 RMK AO2 SLP184 T01500100","FM-15","7",,,,,,,,,,,,,,,,,,,,,,,,,,,,"2006-02-03"
"72287493134","2020-03-04T06:52:00","FM-15","7",,,"3.89","mi",,,,,,,"PENDING COOP",,,,,,,,,,,,,,,,,,,,,,,,,,,"30.10","52","59","0.00","HZ:7 |FU |HZ","-0.06","3","78","30.10","BKN:07 8","29.90","5.00","55","000",,"0",,,,,,,,,,,,,,,,,,,,,,,,,,,,,,,,,,,,,"MET10103/04/20 06:52:02 METAR KCQT 041452Z 00000KT 5SM HZ BKN008 15/11 A3010 RMK AO2 SLP192 T01500111 53022","FM-15","7",,,,,,,,,,,,,,,,,,,,,,,,,,,,"2006-02-03"
"72287493134","2020-03-04T07:32:00","FM-16","7",,,"3.89","mi",,,,,,,"PENDING COOP",,,,,,,,,,,,,,,,,,,,,,,,,,,"30.12","52","60",,"HZ:7 |FU |HZ",,,"75",,"BKN:07 10 BKN:07 15","29.92","5.00","56","000",,"0",,,,,,,,,,,,,,,,,,,,,,,,,,,,,,,,,,,,,"MET09503/04/20 07:32:02 SPECI KCQT 041532Z 00000KT 5SM HZ BKN010 BKN015 16/11 A3012 RMK AO2 T01560111","FM-16","7",,,,,,,,,,,,,,,,,,,,,,,,,,,,"2006-02-03"
"72287493134","2020-03-04T07:52:00","FM-15","7",,,"3.89","mi",,,,,,,"PENDING COOP",,,,,,,,,,,,,,,,,,,,,,,,,,,"30.13","52","61","0.00","HZ:7 |FU |HZ",,,"72","30.12","OVC:08 10","29.93","5.00","56","000",,"0",,,,,,,,,,,,,,,,,,,,,,,,,,,,,,,,,,,,,"MET09503/04/20 07:52:02 METAR KCQT 041552Z 00000KT 5SM HZ OVC010 16/11 A3013 RMK AO2 SLP201 T01610111","FM-15","7",,,,,,,,,,,,,,,,,,,,,,,,,,,,"2006-02-03"
"72287493134","2020-03-04T08:52:00","FM-15","7",,,"3.89","mi",,,,,,,"PENDING COOP",,,,,,,,,,,,,,,,,,,,,,,,,,,"30.14","52","62","0.00",,,,"70","30.14","OVC:08 12","29.94","7.00","56","070",,"5",,,,,,,,,,,,,,,,,,,,,,,,,,,,,,,,,,,,,"MET09203/04/20 08:52:02 METAR KCQT 041652Z 07004KT 7SM OVC012 17/11 A3014 RMK AO2 SLP206 T01670111","FM-15","7",,,,,,,,,,,,,,,,,,,,,,,,,,,,"2006-02-03"
"72287493134","2020-03-04T09:24:00","FM-16","7",,,"3.89","mi",,,,,,,"PENDING COOP",,,,,,,,,,,,,,,,,,,,,,,,,,,"30.15","52","63",,"HZ:7 |FU |HZ",,,"68",,"SCT:04 14","29.95","6.00","57","000",,"0",,,,,,,,,,,,,,,,,,,,,,,,,,,,,,,,,,,,,"MET08803/04/20 09:24:02 SPECI KCQT 041724Z 00000KT 6SM HZ SCT014 17/11 A3015 RMK AO2 T01720111","FM-16","7",,,,,,,,,,,,,,,,,,,,,,,,,,,,"2006-02-03"
"72287493134","2020-03-04T09:30:00","FM-16","7",,,"3.89","mi",,,,,,,"PENDING COOP",,,,,,,,,,,,,,,,,,,,,,,,,,,"30.14","52","64",,"HZ:7 |FU |HZ",,,"65",,"BKN:07 15","29.94","6.00","57","000",,"0",,,,,,,,,,,,,,,,,,,,,,,,,,,,,,,,,,,,,"MET08803/04/20 09:30:02 SPECI KCQT 041730Z 00000KT 6SM HZ BKN015 18/11 A3014 RMK AO2 T01780111","FM-16","7",,,,,,,,,,,,,,,,,,,,,,,,,,,,"2006-02-03"
"72287493134","2020-03-04T09:41:00","FM-16","7",,,"3.89","mi",,,,,,,"PENDING COOP",,,,,,,,,,,,,,,,,,,,,,,,,,,"30.14","52","65",,,,,"63",,"SCT:04 16","29.94","7.00","58","000",,"0",,,,,,,,,,,,,,,,,,,,,,,,,,,,,,,,,,,,,"MET08503/04/20 09:41:02 SPECI KCQT 041741Z 00000KT 7SM SCT016 18/11 A3014 RMK AO2 T01830111","FM-16","7",,,,,,,,,,,,,,,,,,,,,,,,,,,,"2006-02-03"
"72287493134","2020-03-04T09:52:00","FM-15","7",,,"3.89","mi",,,,,,,"PENDING COOP",,,,,,,,,,,,,,,,,,,,,,,,,,,"30.14","52","66","0.00",,"-0.04","1","61","30.14","FEW:02 16","29.94","7.00","58","000",,"0",,,,,,,,,,,,,,,,,,,,,,,,,,,,,,,,,,,,,"MET11003/04/20 09:52:02 METAR KCQT 041752Z 00000KT 7SM FEW016 19/11 A3014 RMK AO2 SLP206 T01890111 10189 20144 51014","FM-15","7",,,,,,,,,,,,,,,,,,,,,,,,,,,,"2006-02-03"
"72287493134","2020-03-04T10:52:00","FM-15","7",,,"3.89","mi",,,,,,,"PENDING COOP",,,,,,,,,,,,,,,,,,,,,,,,,,,"30.14","51","69","0.00",,,,"53","30.13","CLR:00","29.94","9.00","59","000",,"0",,,,,,,,,,,,,,,,,,,,,,,,,,,,,,,,,,,,,"MET08903/04/20 10:52:02 METAR KCQT 041852Z 00000KT 9SM CLR 21/11 A3014 RMK AO2 SLP204 T02060106","FM-15","7",,,,,,,,,,,,,,,,,,,,,,,,,,,,"2006-02-03"
"72287493134","2020-03-04T11:52:00","FM-15","7",,,"3.89","mi",,,,,,,"PENDING COOP",,,,,,,,,,,,,,,,,,,,,,,,,,,"30.12","50","72","0.00",,,,"46","30.12","CLR:00","29.92","10.00","60","VRB",,"3",,,,,,,,,,,,,,,,,,,,,,,,,,,,,,,,,,,,,"MET09003/04/20 11:52:02 METAR KCQT 041952Z VRB03KT 10SM CLR 22/10 A3012 RMK AO2 SLP199 T02220100","FM-15","7",,,,,,,,,,,,,,,,,,,,,,,,,,,,"2006-02-03"
"72287493134","2020-03-04T12:52:00","FM-15","7",,,"3.89","mi",,,,,,,"PENDING COOP",,,,,,,,,,,,,,,,,,,,,,,,,,,"30.10","47","74","0.00",,"+0.05","8","38","30.09","CLR:00","29.90","10.00","59","000",,"0",,,,,,,,,,,,,,,,,,,,,,,,,,,,,,,,,,,,,"MET09603/04/20 12:52:02 METAR KCQT 042052Z 00000KT 10SM CLR 23/08 A3010 RMK AO2 SLP190 T02330083 58016","FM-15","7",,,,,,,,,,,,,,,,,,,,,,,,,,,,"2006-02-03"
"72287493134","2020-03-04T13:52:00","FM-15","7",,,"3.89","mi",,,,,,,"PENDING COOP",,,,,,,,,,,,,,,,,,,,,,,,,,,"30.09","52","72","0.00",,,,"50","30.08","CLR:00","29.89","10.00","61","VRB",,"5",,,,,,,,,,,,,,,,,,,,,,,,,,,,,,,,,,,,,"MET09003/04/20 13:52:02 METAR KCQT 042152Z VRB04KT 10SM CLR 22/11 A3009 RMK AO2 SLP187 T02220111","FM-15","7",,,,,,,,,,,,,,,,,,,,,,,,,,,,"2006-02-03"
"72287493134","2020-03-04T14:52:00","FM-15","7",,,"3.89","mi",,,,,,,"PENDING COOP",,,,,,,,,,,,,,,,,,,,,,,,,,,"30.09","53","69","0.00",,,,"57","30.09","CLR:00","29.89","9.00","60","260",,"7",,,,,,,,,,,,,,,,,,,,,,,,,,,,,,,,,,,,,"MET08903/04/20 14:52:02 METAR KCQT 042252Z 26006KT 9SM CLR 21/12 A3009 RMK AO2 SLP189 T02060117","FM-15","7",,,,,,,,,,,,,,,,,,,,,,,,,,,,"2006-02-03"
"72287493134","2020-03-04T15:52:00","FM-15","7",,,"3.89","mi",,,,,,,"PENDING COOP",,,,,,,,,,,,,,,,,,,,,,,,,,,"30.10","52","68","0.00",,"+0.00","5","57","30.09","CLR:00","29.90","9.00","59","260",,"6",,,,,,,,,,,,,,,,,,,,,,,,,,,,,,,,,,,,,"MET10703/04/20 15:52:02 METAR KCQT 042352Z 26005KT 9SM CLR 20/11 A3010 RMK AO2 SLP190 T02000111 10239 20189 55000","FM-15","7",,,,,,,,,,,,,,,,,,,,,,,,,,,,"2006-02-03"
"72287493134","2020-03-04T16:52:00","FM-15","7",,,"3.89","mi",,,,,,,"PENDING COOP",,,,,,,,,,,,,,,,,,,,,,,,,,,"30.10","52","65","0.00",,,,"63","30.10","CLR:00","29.90","9.00","58","250",,"3",,,,,,,,,,,,,,,,,,,,,,,,,,,,,,,,,,,,,"MET08903/04/20 16:52:01 METAR KCQT 050052Z 25003KT 9SM CLR 18/11 A3010 RMK AO2 SLP192 T01830111","FM-15","7",,,,,,,,,,,,,,,,,,,,,,,,,,,,"2006-02-03"
"72287493134","2020-03-04T17:52:00","FM-15","7",,,"3.89","mi",,,,,,,"PENDING COOP",,,,,,,,,,,,,,,,,,,,,,,,,,,"30.10","52","63","0.00",,,,"68","30.10","CLR:00","29.90","8.00","57","000",,"0",,,,,,,,,,,,,,,,,,,,,,,,,,,,,,,,,,,,,"MET08903/04/20 17:52:01 METAR KCQT 050152Z 00000KT 8SM CLR 17/11 A3010 RMK AO2 SLP193 T01720111","FM-15","7",,,,,,,,,,,,,,,,,,,,,,,,,,,,"2006-02-03"
"72287493134","2020-03-04T18:52:00","FM-15","7",,,"3.89","mi",,,,,,,"PENDING COOP",,,,,,,,,,,,,,,,,,,,,,,,,,,"30.12","52","62","0.00",,"-0.02","3","70","30.11","CLR:00","29.92","9.00","56","000",,"0",,,,,,,,,,,,,,,,,,,,,,,,,,,,,,,,,,,,,"MET09503/04/20 18:52:01 METAR KCQT 050252Z 00000KT 9SM CLR 17/11 A3012 RMK AO2 SLP196 T01670111 53007","FM-15","7",,,,,,,,,,,,,,,,,,,,,,,,,,,,"2006-02-03"
"72287493134","2020-03-04T19:52:00","FM-15","7",,,"3.89","mi",,,,,,,"PENDING COOP",,,,,,,,,,,,,,,,,,,,,,,,,,,"30.12","52","60","0.00",,,,"75","30.11","CLR:00","29.92","9.00","56","000",,"0",,,,,,,,,,,,,,,,,,,,,,,,,,,,,,,,,,,,,"MET08903/04/20 19:52:01 METAR KCQT 050352Z 00000KT 9SM CLR 16/11 A3012 RMK AO2 SLP198 T01560111","FM-15","7",,,,,,,,,,,,,,,,,,,,,,,,,,,,"2006-02-03"
"72287493134","2020-03-04T20:52:00","FM-15","7",,,"3.89","mi",,,,,,,"PENDING COOP",,,,,,,,,,,,,,,,,,,,,,,,,,,"30.13","52","61","0.00",,,,"72","30.13","CLR:00","29.93","9.00","56","000",,"0",,,,,,,,,,,,,,,,,,,,,,,,,,,,,,,,,,,,,"MET08903/04/20 20:52:02 METAR KCQT 050452Z 00000KT 9SM CLR 16/11 A3013 RMK AO2 SLP202 T01610111","FM-15","7",,,,,,,,,,,,,,,,,,,,,,,,,,,,"2006-02-03"
"72287493134","2020-03-04T21:52:00","FM-15","7",,,"3.89","mi",,,,,,,"PENDING COOP",,,,,,,,,,,,,,,,,,,,,,,,,,,"30.15","51","60","0.00",,"-0.04","3","72","30.15","CLR:00","29.95","8.00","55","000",,"0",,,,,,,,,,,,,,,,,,,,,,,,,,,,,,,,,,,,,"MET10703/04/20 21:52:02 METAR KCQT 050552Z 00000KT 8SM CLR 16/11 A3015 RMK AO2 SLP209 T01560106 10200 20156 53012","FM-15","7",,,,,,,,,,,,,,,,,,,,,,,,,,,,"2006-02-03"
"72287493134","2020-03-04T22:45:00","FM-16","7",,,"3.89","mi",,,,,,,"PENDING COOP",,,,,,,,,,,,,,,,,,,,,,,,,,,"30.16","52","58",,,,,"81",,"BKN:07 19","29.96","7.00","55","000",,"0",,,,,,,,,,,,,,,,,,,,,,,,,,,,,,,,,,,,,"MET08503/04/20 22:45:02 SPECI KCQT 050645Z 00000KT 7SM BKN019 14/11 A3016 RMK AO2 T01440111","FM-16","7",,,,,,,,,,,,,,,,,,,,,,,,,,,,"2006-02-03"
"72287493134","2020-03-04T22:52:00","FM-15","7",,,"3.89","mi",,,,,,,"PENDING COOP",,,,,,,,,,,,,,,,,,,,,,,,,,,"30.16","52","58","0.00",,,,"81","30.16","BKN:07 18","29.96","8.00","55","000",,"0",,,,,,,,,,,,,,,,,,,,,,,,,,,,,,,,,,,,,"MET09203/04/20 22:52:02 METAR KCQT 050652Z 00000KT 8SM BKN018 14/11 A3016 RMK AO2 SLP212 T01440111","FM-15","7",,,,,,,,,,,,,,,,,,,,,,,,,,,,"2006-02-03"
"72287493134","2020-03-04T23:05:00","FM-16","6",,,"3.89","mi",,,,,,,"PENDING COOP",,,,,,,,,,,,,,,,,,,,,,,,,,,"30.16","52","58",,,,,"81",,,"29.96","8.00","55",,,,,,,,,,,,,,,,,,,,,,,,,,,,,,,,,,,,,,,,"MET07703/04/20 23:05:02 SPECI KCQT 050705Z      KT NO 14/11 A3016 RMK AO2 T01440111","FM-16","6",,,,,,,,,,,,,,,,,,,,,,,,,,,,"2006-02-03"
"72287493134","2020-03-04T23:28:00","FM-16","7",,,"3.89","mi",,,,,,,"PENDING COOP",,,,,,,,,,,,,,,,,,,,,,,,,,,"30.16","52","58",,,,,"81",,"BKN:07 9 OVC:08 16","29.96","8.00","55","000",,"0",,,,,,,,,,,,,,,,,,,,,,,,,,,,,,,,,,,,,"MET09203/04/20 23:28:02 SPECI KCQT 050728Z 00000KT 8SM BKN009 OVC016 14/11 A3016 RMK AO2 T01440111","FM-16","7",,,,,,,,,,,,,,,,,,,,,,,,,,,,"2006-02-03"
"72287493134","2020-03-04T23:52:00","FM-15","7",,,"3.89","mi",,,,,,,"PENDING COOP",,,,,,,,,,,,,,,,,,,,,,,,,,,"30.16","52","59","0.00",,,,"78","30.15","OVC:08 9","29.96","8.00","55","000",,"0",,,,,,,,,,,,,,,,,,,,,,,,,,,,,,,,,,,,,"MET10203/04/20 23:52:02 METAR KCQT 050752Z 00000KT 8SM OVC009 15/11 A3016 RMK AO2 SLP211 T01500111 402390144","FM-15","7",,,,,,,,,,,,,,,,,,,,,,,,,,,,"2006-02-03"
"72287493134","2020-03-04T23:59:00","SOD  ","6",,,"3.89","mi",,,,,,,"PENDING COOP",,,,"51","67","67","30.10","29.91","57","1.3","2","7.0","0","75","58","270","17","0.00",,,"260","9","HZ",,,,,,,,,,,,,,,,,,,,,,,,,,,,,,,,,,,,,,,,,,,,,,,,,,,,,,,,"SOD76024 HR PRECIPITATION (IN): 0.00 SNOW DEPTH (IN):0     24 HR SNOWFALL (IN):0.0  WEATHER(CODE):8  24 HR MAX TEMP (F): 7524 HR MIN TEMP (F): 58AVERAGE STATION PRESSURE(D):29.908 MINIMUM SEA LEVEL PRESSURE:30.01 TIME OF OCCURRENCE:0028 PEAK WIND SPEED (MPH): 17 PEAK WIND DIR (DEG):270 PEAK WIND TIME (LST):      FASTEST 2MIN SPEED (MPH):  9FASTEST 2MIN DIR (DEG):260 FASTEST 2MIN TIME (LST):     AVERAGE WIND SPEED (MPH): 1.3 24 HR AVG TEMP (F): 67DEPART FROM NORMAL:  7  HEATING DEGREE DAYS:  0 COOLING DEGREE DAYS:  2 LATEST DAY MAX TEMP (0700-1900 LST): 75 LATEST NIGHT MIN TEMP(1900-0800 LST):58 HOURLY INCREMENTAL PRECIPITATION VALUES (IN):0.00 0.00 0.00 0.00 0.00 0.00 0.00 0.00 0.00 0.00 0.00 0.00 0.00 0.00 0.00 0.00 0.00 0.00 0.00 0.00 0.00 0.00 0.00 0.00","SOD  ","6",,,,,,,,,,,,,,,,,,,,,,,,,"0617","1753",,"2006-02-03"
"72287493134","2020-03-05T00:52:00","FM-15","7",,,"3.89","mi",,,,,,,"PENDING COOP",,,,,,,,,,,,,,,,,,,,,,,,,,,"30.16","52","59","0.00",,"-0.01","1","78","30.16","OVC:08 9","29.96","7.00","55","000",,"0",,,,,,,,,,,,,,,,,,,,,,,,,,,,,,,,,,,,,"MET09803/05/20 00:52:02 METAR KCQT 050852Z 00000KT 7SM OVC009 15/11 A3016 RMK AO2 SLP212 T01500111 51004","FM-15","7",,,,,,,,,,,,,,,,,,,,,,,,,,,,"2006-02-03"
"72287493134","2020-03-05T01:52:00","FM-15","7",,,"3.89","mi",,,,,,,"PENDING COOP",,,,,,,,,,,,,,,,,,,,,,,,,,,"30.16","52","59","0.00","HZ:7 |FU |HZ",,,"78","30.15","OVC:08 10","29.96","6.00","55","000",,"0",,,,,,,,,,,,,,,,,,,,,,,,,,,,,,,,,,,,,"MET09503/05/20 01:52:02 METAR KCQT 050952Z 00000KT 6SM HZ OVC010 15/11 A3016 RMK AO2 SLP210 T01500111","FM-15","7",,,,,,,,,,,,,,,,,,,,,,,,,,,,"2006-02-03"
"72287493134","2020-03-05T02:52:00","FM-15","7",,,"3.89","mi",,,,,,,"PENDING COOP",,,,,,,,,,,,,,,,,,,,,,,,,,,"30.14","52","59","0.00","HZ:7 |FU |HZ",,,"78","30.14","OVC:08 10","29.94","6.00","55","000",,"0",,,,,,,,,,,,,,,,,,,,,,,,,,,,,,,,,,,,,"MET09503/05/20 02:52:02 METAR KCQT 051052Z 00000KT 6SM HZ OVC010 15/11 A3014 RMK AO2 SLP205 T01500111","FM-15","7",,,,,,,,,,,,,,,,,,,,,,,,,,,,"2006-02-03"
"72287493134","2020-03-05T03:52:00","FM-15","7",,,"3.89","mi",,,,,,,"PENDING COOP",,,,,,,,,,,,,,,,,,,,,,,,,,,"30.14","52","59","0.00","HZ:7 |FU |HZ","+0.02","5","78","30.14","OVC:08 10","29.94","6.00","55","000",,"0",,,,,,,,,,,,,,,,,,,,,,,,,,,,,,,,,,,,,"MET11303/05/20 03:52:02 METAR KCQT 051152Z 00000KT 6SM HZ OVC010 15/11 A3014 RMK AO2 SLP205 T01500111 10156 20144 55007","FM-15","7",,,,,,,,,,,,,,,,,,,,,,,,,,,,"2006-02-03"
"72287493134","2020-03-05T04:06:00","FM-16","7",,,"3.89","mi",,,,,,,"PENDING COOP",,,,,,,,,,,,,,,,,,,,,,,,,,,"30.14","52","59",,"HZ:7 |FU |HZ",,,"78",,"OVC:08 9","29.94","6.00","55","000",,"0",,,,,,,,,,,,,,,,,,,,,,,,,,,,,,,,,,,,,"MET08803/05/20 04:06:02 SPECI KCQT 051206Z 00000KT 6SM HZ OVC009 15/11 A3014 RMK AO2 T01500111","FM-16","7",,,,,,,,,,,,,,,,,,,,,,,,,,,,"2006-02-03"
"72287493134","2020-03-05T04:52:00","FM-15","7",,,"3.89","mi",,,,,,,"PENDING COOP",,,,,,,,,,,,,,,,,,,,,,,,,,,"30.15","52","59","0.00","HZ:7 |FU |HZ",,,"78","30.14","OVC:08 8","29.95","5.00","55","000",,"0",,,,,,,,,,,,,,,,,,,,,,,,,,,,,,,,,,,,,"MET09503/05/20 04:52:02 METAR KCQT 051252Z 00000KT 5SM HZ OVC008 15/11 A3015 RMK AO2 SLP207 T01500111","FM-15","7",,,,,,,,,,,,,,,,,,,,,,,,,,,,"2006-02-03"
"72287493134","2020-03-05T05:52:00","FM-15","7",,,"3.89","mi",,,,,,,"PENDING COOP",,,,,,,,,,,,,,,,,,,,,,,,,,,"30.15","52","58","0.00","HZ:7 |FU |HZ",,,"81","30.14","OVC:08 8","29.95","5.00","55","000",,"0",,,,,,,,,,,,,,,,,,,,,,,,,,,,,,,,,,,,,"MET09503/05/20 05:52:02 METAR KCQT 051352Z 00000KT 5SM HZ OVC008 14/11 A3015 RMK AO2 SLP207 T01440111","FM-15","7",,,,,,,,,,,,,,,,,,,,,,,,,,,,"2006-02-03"
"72287493134","2020-03-05T06:52:00","FM-15","7",,,"3.89","mi",,,,,,,"PENDING COOP",,,,,,,,,,,,,,,,,,,,,,,,,,,"30.16","51","58","0.00","HZ:7 |FU |HZ","-0.01","3","78","30.15","OVC:08 7","29.96","3.00","54","000",,"0",,,,,,,,,,,,,,,,,,,,,,,,,,,,,,,,,,,,,"MET10103/05/20 06:52:02 METAR KCQT 051452Z 00000KT 3SM HZ OVC007 14/11 A3016 RMK AO2 SLP211 T01440106 53005","FM-15","7",,,,,,,,,,,,,,,,,,,,,,,,,,,,"2006-02-03"
"72287493134","2020-03-05T07:52:00","FM-15","7",,,"3.89","mi",,,,,,,"PENDING COOP",,,,,,,,,,,,,,,,,,,,,,,,,,,"30.17","51","59","0.00","HZ:7 |FU |HZ",,,"75","30.16","OVC:08 6","29.97","3.00","55","000",,"0",,,,,,,,,,,,,,,,,,,,,,,,,,,,,,,,,,,,,"MET09503/05/20 07:52:02 METAR KCQT 051552Z 00000KT 3SM HZ OVC006 15/11 A3017 RMK AO2 SLP214 T01500106","FM-15","7",,,,,,,,,,,,,,,,,,,,,,,,,,,,"2006-02-03"
"72287493134","2020-03-05T08:06:00","FM-16","7",,,"3.89","mi",,,,,,,"PENDING COOP",,,,,,,,,,,,,,,,,,,,,,,,,,,"30.17","51","59",,"HZ:7 |FU |HZ",,,"75",,"SCT:04 7","29.97","3.00","55","280",,"3",,,,,,,,,,,,,,,,,,,,,,,,,,,,,,,,,,,,,"MET08803/05/20 08:06:02 SPECI KCQT 051606Z 28003KT 3SM HZ SCT007 15/11 A3017 RMK AO2 T01500106","FM-16","7",,,,,,,,,,,,,,,,,,,,,,,,,,,,"2006-02-03"
"72287493134","2020-03-05T08:52:00","FM-15","7",,,"3.89","mi",,,,,,,"PENDING COOP",,,,,,,,,,,,,,,,,,,,,,,,,,,"30.16","52","63","0.00","HZ:7 |FU |HZ",,,"68","30.16","CLR:00","29.96","5.00","57","000",,"0",,,,,,,,,,,,,,,,,,,,,,,,,,,,,,,,,,,,,"MET09203/05/20 08:52:02 METAR KCQT 051652Z 00000KT 5SM HZ CLR 17/11 A3016 RMK AO2 SLP212 T01720111","FM-15","7",,,,,,,,,,,,,,,,,,,,,,,,,,,,"2006-02-03"
"72287493134","2020-03-05T09:52:00","FM-15","7",,,"3.89","mi",,,,,,,"PENDING COOP",,,,,,,,,,,,,,,,,,,,,,,,,,,"30.15","52","68","0.00","HZ:7 |FU |HZ","+0.00","8","57","30.15","CLR:00","29.95","5.00","59","000",,"0",,,,,,,,,,,,,,,,,,,,,,,,,,,,,,,,,,,,,"MET11003/05/20 09:52:02 METAR KCQT 051752Z 00000KT 5SM HZ CLR 20/11 A3015 RMK AO2 SLP210 T02000111 10206 20144 58001","FM-15","7",,,,,,,,,,,,,,,,,,,,,,,,,,,,"2006-02-03"
"72287493134","2020-03-05T10:52:00","FM-15","7",,,"3.89","mi",,,,,,,"PENDING COOP",,,,,,,,,,,,,,,,,,,,,,,,,,,"30.14","50","72","0.00",,,,"46","30.14","CLR:00","29.94","7.00","60","000",,"0",,,,,,,,,,,,,,,,,,,,,,,,,,,,,,,,,,,,,"MET08903/05/20 10:52:02 METAR KCQT 051852Z 00000KT 7SM CLR 22/10 A3014 RMK AO2 SLP205 T02220100","FM-15","7",,,,,,,,,,,,,,,,,,,,,,,,,,,,"2006-02-03"
"72287493134","2020-03-05T11:52:00","FM-15","7",,,"3.89","mi",,,,,,,"PENDING COOP",,,,,,,,,,,,,,,,,,,,,,,,,,,"30.12","52","73","0.00",,,,"48","30.12","CLR:00","29.92","8.00","61","VRB",,"3",,,,,,,,,,,,,,,,,,,,,,,,,,,,,,,,,,,,,"MET08903/05/20 11:52:02 METAR KCQT 051952Z VRB03KT 8SM CLR 23/11 A3012 RMK AO2 SLP199 T02280111","FM-15","7",,,,,,,,,,,,,,,,,,,,,,,,,,,,"2006-02-03"
"72287493134","2020-03-05T12:52:00","FM-15","7",,,"3.89","mi",,,,,,,"PENDING COOP",,,,,,,,,,,,,,,,,,,,,,,,,,,"30.09","53","74","0.00",,"+0.06","8","48","30.09","CLR:00","29.89","9.00","62","VRB",,"3",,,,,,,,,,,,,,,,,,,,,,,,,,,,,,,,,,,,,"MET09503/05/20 12:52:02 METAR KCQT 052052Z VRB03KT 9SM CLR 23/12 A3009 RMK AO2 SLP188 T02330117 58022","FM-15","7",,,,,,,,,,,,,,,,,,,,,,,,,,,,"2006-02-03"
"72287493134","2020-03-05T13:52:00","FM-15","7",,,"3.89","mi",,,,,,,"PENDING COOP",,,,,,,,,,,,,,,,,,,,,,,,,,,"30.06","52","74","0.00",,,,"46","30.05","CLR:00","29.86","9.00","61","260",,"5",,,,,,,,,,,,,,,,,,,,,,,,,,,,,,,,,,,,,"MET08903/05/20 13:52:02 METAR KCQT 052152Z 26004KT 9SM CLR 23/11 A3006 RMK AO2 SLP176 T02330111","FM-15","7",,,,,,,,,,,,,,,,,,,,,,,,,,,,"2006-02-03"
"72287493134","2020-03-05T14:52:00","FM-15","7",,,"3.89","mi",,,,,,,"PENDING COOP",,,,,,,,,,,,,,,,,,,,,,,,,,,"30.04","52","73","0.00",,,,"48","30.04","CLR:00","29.84","10.00","61","260",,"6",,,,,,,,,,,,,,,,,,,,,,,,,,,,,,,,,,,,,"MET09003/05/20 14:52:02 METAR KCQT 052252Z 26005KT 10SM CLR 23/11 A3004 RMK AO2 SLP172 T02280111","FM-15","7",,,,,,,,,,,,,,,,,,,,,,,,,,,,"2006-02-03"
"72287493134","2020-03-05T15:52:00","FM-15","7",,,"3.89","mi",,,,,,,"PENDING COOP",,,,,,,,,,,,,,,,,,,,,,,,,,,"30.03","51","72","0.00",,"+0.06","6","48","30.02","CLR:00","29.83","10.00","60","270",,"6",,,,,,,,,,,,,,,,,,,,,,,,,,,,,,,,,,,,,"MET10803/05/20 15:52:02 METAR KCQT 052352Z 27005KT 10SM CLR 22/11 A3003 RMK AO2 SLP167 T02220106 10239 20194 56021","FM-15","7",,,,,,,,,,,,,,,,,,,,,,,,,,,,"2006-02-03"
"72287493134","2020-03-05T16:52:00","FM-15","7",,,"3.89","mi",,,,,,,"PENDING COOP",,,,,,,,,,,,,,,,,,,,,,,,,,,"30.02","51","69","0.00",,,,"53","30.02","CLR:00","29.82","9.00","59","260",,"6",,,,,,,,,,,,,,,,,,,,,,,,,,,,,,,,,,,,,"MET08903/05/20 16:52:01 METAR KCQT 060052Z 26005KT 9SM CLR 21/11 A3002 RMK AO2 SLP165 T02060106","FM-15","7",,,,,,,,,,,,,,,,,,,,,,,,,,,,"2006-02-03"
"72287493134","2020-03-05T17:52:00","FM-15","7",,,"3.89","mi",,,,,,,"PENDING COOP",,,,,,,,,,,,,,,,,,,,,,,,,,,"30.03","51","65","0.00",,,,"61","30.02","CLR:00","29.83","10.00","57","270",,"5",,,,,,,,,,,,,,,,,,,,,,,,,,,,,,,,,,,,,"MET09003/05/20 17:52:01 METAR KCQT 060152Z 27004KT 10SM CLR 18/11 A3003 RMK AO2 SLP166 T01830106","FM-15","7",,,,,,,,,,,,,,,,,,,,,,,,,,,,"2006-02-03"
"72287493134","2020-03-05T18:52:00","FM-15","7",,,"3.89","mi",,,,,,,"PENDING COOP",,,,,,,,,,,,,,,,,,,,,,,,,,,"30.03","52","64","0.00",,"-0.00","3","65","30.03","CLR:00","29.83","10.00","57","000",,"0",,,,,,,,,,,,,,,,,,,,,,,,,,,,,,,,,,,,,"MET09603/05/20 18:52:01 METAR KCQT 060252Z 00000KT 10SM CLR 18/11 A3003 RMK AO2 SLP168 T01780111 53001","FM-15","7",,,,,,,,,,,,,,,,,,,,,,,,,,,,"2006-02-03"
"72287493134","2020-03-05T19:52:00","FM-15","7",,,"3.89","mi",,,,,,,"PENDING COOP",,,,,,,,,,,,,,,,,,,,,,,,,,,,"44",,"0.00",,,,,,,,"9.00",,"000",,"0",,,,,,,,,,,,,,,,,,,,,,,,,,,,,,,,,,,,,"MET08403/05/20 19:52:01 METAR KCQT 060352Z      KT NO 08/07 A3018 RMK AO2 SLP230 T00780067","FM-15","7",,,,,,,,,,,,,,,,,,,,,,,,,,,,"2006-02-03"
"72287493134","2020-03-05T20:52:00","FM-15","7",,,"3.89","mi",,,,,,,"PENDING COOP",,,,,,,,,,,,,,,,,,,,,,,,,,,"30.04","54","62","0.00",,,,"75","30.03","CLR:00","29.84","8.00","58","000",,"0",,,,,,,,,,,,,,,,,,,,,,,,,,,,,,,,,,,,,"MET08903/05/20 20:52:02 METAR KCQT 060452Z 00000KT 8SM CLR 17/12 A3004 RMK AO2 SLP171 T01670122","FM-15","7",,,,,,,,,,,,,,,,,,,,,,,,,,,,"2006-02-03"
"72287493134","2020-03-05T21:52:00","FM-15","7",,,"3.89","mi",,,,,,,"PENDING COOP",,,,,,,,,,,,,,,,,,,,,,,,,,,"30.05","53","62","0.00",,"-0.02","1","73","30.04","CLR:00","29.85","8.00","57","000",,"0",,,,,,,,,,,,,,,,,,,,,,,,,,,,,,,,,,,,,"MET10703/05/20 21:52:02 METAR KCQT 060552Z 00000KT 8SM CLR 17/12 A3005 RMK AO2 SLP174 T01670117 10222 20167 51006","FM-15","7",,,,,,,,,,,,,,,,,,,,,,,,,,,,"2006-02-03"
"72287493134","2020-03-05T22:52:00","FM-15","7",,,"3.89","mi",,,,,,,"PENDING COOP",,,,,,,,,,,,,,,,,,,,,,,,,,,"30.05","53","61","0.00",,,,"75","30.04","CLR:00","29.85","9.00","57","000",,"0",,,,,,,,,,,,,,,,,,,,,,,,,,,,,,,,,,,,,"MET08903/05/20 22:52:02 METAR KCQT 060652Z 00000KT 9SM CLR 16/12 A3005 RMK AO2 SLP173 T01610117","FM-15","7",,,,,,,,,,,,,,,,,,,,,,,,,,,,"2006-02-03"
"72287493134","2020-03-05T23:52:00","FM-15","7",,,"3.89","mi",,,,,,,"PENDING COOP",,,,,,,,,,,,,,,,,,,,,,,,,,,"30.04","53","60","0.00",,,,"78","30.03","CLR:00","29.84","8.00","56","000",,"0",,,,,,,,,,,,,,,,,,,,,,,,,,,,,,,,,,,,,"MET09903/05/20 23:52:02 METAR KCQT 060752Z 00000KT 8SM CLR 16/12 A3004 RMK AO2 SLP170 T01560117 402390144","FM-15","7",,,,,,,,,,,,,,,,,,,,,,,,,,,,"2006-02-03"
"72287493134","2020-03-05T23:59:00","SOD  ","6",,,"3.89","mi",,,,,,,"PENDING COOP",,,,"52","67","66","30.10","29.91","57","1.4","2","7.0","0","75","58","280","14","0.00",,,"270","9","HZ",,,,,,,,,,,,,,,,,,,,,,,,,,,,,,,,,,,,,,,,,,,,,,,,,,,,,,,,"SOD76024 HR PRECIPITATION (IN): 0.00 SNOW DEPTH (IN):0     24 HR SNOWFALL (IN):0.0  WEATHER(CODE):8  24 HR MAX TEMP (F): 7524 HR MIN TEMP (F): 58AVERAGE STATION PRESSURE(D):29.908 MINIMUM SEA LEVEL PRESSURE:30.02 TIME OF OCCURRENCE:1851 PEAK WIND SPEED (MPH): 14 PEAK WIND DIR (DEG):280 PEAK WIND TIME (LST):      FASTEST 2MIN SPEED (MPH):  9FASTEST 2MIN DIR (DEG):270 FASTEST 2MIN TIME (LST):     AVERAGE WIND SPEED (MPH): 1.4 24 HR AVG TEMP (F): 67DEPART FROM NORMAL:  7  HEATING DEGREE DAYS:  0 COOLING DEGREE DAYS:  2 LATEST DAY MAX TEMP (0700-1900 LST): 75 LATEST NIGHT MIN TEMP(1900-0800 LST):58 HOURLY INCREMENTAL PRECIPITATION VALUES (IN):0.00 0.00 0.00 0.00 0.00 0.00 0.00 0.00 0.00 0.00 0.00 0.00 0.00 0.00 0.00 0.00 0.00 0.00 0.00 0.00 0.00 0.00 0.00 0.00","SOD  ","6",,,,,,,,,,,,,,,,,,,,,,,,,"0616","1754",,"2006-02-03"
"72287493134","2020-03-06T00:52:00","FM-15","7",,,"3.89","mi",,,,,,,"PENDING COOP",,,,,,,,,,,,,,,,,,,,,,,,,,,"30.04","53","59","0.00",,"+0.01","5","81","30.03","CLR:00","29.84","8.00","56","000",,"0",,,,,,,,,,,,,,,,,,,,,,,,,,,,,,,,,,,,,"MET09503/06/20 00:52:02 METAR KCQT 060852Z 00000KT 8SM CLR 15/12 A3004 RMK AO2 SLP171 T01500117 55003","FM-15","7",,,,,,,,,,,,,,,,,,,,,,,,,,,,"2006-02-03"
"72287493134","2020-03-06T01:52:00","FM-15","7",,,"3.89","mi",,,,,,,"PENDING COOP",,,,,,,,,,,,,,,,,,,,,,,,,,,"30.03","53","59","0.00",,,,"81","30.03","CLR:00","29.83","8.00","56","000",,"0",,,,,,,,,,,,,,,,,,,,,,,,,,,,,,,,,,,,,"MET08903/06/20 01:52:02 METAR KCQT 060952Z 00000KT 8SM CLR 15/12 A3003 RMK AO2 SLP168 T01500117","FM-15","7",,,,,,,,,,,,,,,,,,,,,,,,,,,,"2006-02-03"
"72287493134","2020-03-06T02:52:00","FM-15","7",,,"3.89","mi",,,,,,,"PENDING COOP",,,,,,,,,,,,,,,,,,,,,,,,,,,"30.01","52","58","0.00",,,,"81","30.00","CLR:00","29.81","8.00","55","000",,"0",,,,,,,,,,,,,,,,,,,,,,,,,,,,,,,,,,,,,"MET08903/06/20 02:52:02 METAR KCQT 061052Z 00000KT 8SM CLR 14/11 A3001 RMK AO2 SLP160 T01440111","FM-15","7",,,,,,,,,,,,,,,,,,,,,,,,,,,,"2006-02-03"
"72287493134","2020-03-06T03:52:00","FM-15","7",,,"3.89","mi",,,,,,,"PENDING COOP",,,,,,,,,,,,,,,,,,,,,,,,,,,"29.99","52","58","0.00",,"+0.05","8","81","29.98","CLR:00","29.79","8.00","55","000",,"0",,,,,,,,,,,,,,,,,,,,,,,,,,,,,,,,,,,,,"MET10703/06/20 03:52:02 METAR KCQT 061152Z 00000KT 8SM CLR 14/11 A2999 RMK AO2 SLP154 T01440111 10167 20144 58017","FM-15","7",,,,,,,,,,,,,,,,,,,,,,,,,,,,"2006-02-03"
"72287493134","2020-03-06T04:52:00","FM-15","7",,,"3.89","mi",,,,,,,"PENDING COOP",,,,,,,,,,,,,,,,,,,,,,,,,,,"29.99","52","58","0.00",,,,"81","29.98","CLR:00","29.79","7.00","55","000",,"0",,,,,,,,,,,,,,,,,,,,,,,,,,,,,,,,,,,,,"MET08903/06/20 04:52:02 METAR KCQT 061252Z 00000KT 7SM CLR 14/11 A2999 RMK AO2 SLP154 T01440111","FM-15","7",,,,,,,,,,,,,,,,,,,,,,,,,,,,"2006-02-03"
"72287493134","2020-03-06T05:52:00","FM-15","7",,,"3.89","mi",,,,,,,"PENDING COOP",,,,,,,,,,,,,,,,,,,,,,,,,,,"30.00","51","57","0.00",,,,"81","30.00","CLR:00","29.80","7.00","54","000",,"0",,,,,,,,,,,,,,,,,,,,,,,,,,,,,,,,,,,,,"MET08903/06/20 05:52:02 METAR KCQT 061352Z 00000KT 7SM CLR 14/11 A3000 RMK AO2 SLP158 T01390106","FM-15","7",,,,,,,,,,,,,,,,,,,,,,,,,,,,"2006-02-03"
"72287493134","2020-03-06T06:36:00","FM-16","7",,,"3.89","mi",,,,,,,"PENDING COOP",,,,,,,,,,,,,,,,,,,,,,,,,,,"30.01","51","57",,"HZ:7 |FU |HZ",,,"81",,"FEW:02 6","29.81","4.00","54","000",,"0",,,,,,,,,,,,,,,,,,,,,,,,,,,,,,,,,,,,,"MET08803/06/20 06:36:02 SPECI KCQT 061436Z 00000KT 4SM HZ FEW006 14/11 A3001 RMK AO2 T01390106","FM-16","7",,,,,,,,,,,,,,,,,,,,,,,,,,,,"2006-02-03"
"72287493134","2020-03-06T06:45:00","FM-16","7",,,"3.89","mi",,,,,,,"PENDING COOP",,,,,,,,,,,,,,,,,,,,,,,,,,,"30.02","52","57",,"HZ:7 |FU |HZ",,,"83",,"BKN:07 4","29.82","3.00","54","000",,"0",,,,,,,,,,,,,,,,,,,,,,,,,,,,,,,,,,,,,"MET08803/06/20 06:45:02 SPECI KCQT 061445Z 00000KT 3SM HZ BKN004 14/11 A3002 RMK AO2 T01390111","FM-16","7",,,,,,,,,,,,,,,,,,,,,,,,,,,,"2006-02-03"
"72287493134","2020-03-06T06:48:00","FM-16","7",,,"3.89","mi",,,,,,,"PENDING COOP",,,,,,,,,,,,,,,,,,,,,,,,,,,"30.02","52","57",,"HZ:7 |FU |HZ",,,"83",,"BKN:07 4","29.82","2.50","54","000",,"0",,,,,,,,,,,,,,,,,,,,,,,,,,,,,,,,,,,,,"MET09203/06/20 06:48:02 SPECI KCQT 061448Z 00000KT 2 1/2SM HZ BKN004 14/11 A3002 RMK AO2 T01390111","FM-16","7",,,,,,,,,,,,,,,,,,,,,,,,,,,,"2006-02-03"
"72287493134","2020-03-06T06:52:00","FM-15","7",,,"3.89","mi",,,,,,,"PENDING COOP",,,,,,,,,,,,,,,,,,,,,,,,,,,"30.02","52","57","0.00","HZ:7 |FU |HZ","-0.03","3","83","30.01","BKN:07 2 BKN:07 6","29.82","2.50","54","000",,"0",,,,,,,,,,,,,,,,,,,,,,,,,,,,,,,,,,,,,"MET11203/06/20 06:52:02 METAR KCQT 061452Z 00000KT 2 1/2SM HZ BKN002 BKN006 14/11 A3002 RMK AO2 SLP164 T01390111 53010","FM-15","7",,,,,,,,,,,,,,,,,,,,,,,,,,,,"2006-02-03"
"72287493134","2020-03-06T07:08:00","FM-16","7",,,"3.89","mi",,,,,,,"PENDING COOP",,,,,,,,,,,,,,,,,,,,,,,,,,,"30.02","52","57",,"HZ:7 |FU |HZ",,,"83",,"OVC:08 3","29.82","1.75","54","000",,"0",,,,,,,,,,,,,,,,,,,,,,,,,,,,,,,,,,,,,"MET09203/06/20 07:08:02 SPECI KCQT 061508Z 00000KT 1 3/4SM HZ OVC003 14/11 A3002 RMK AO2 T01390111","FM-16","7",,,,,,,,,,,,,,,,,,,,,,,,,,,,"2006-02-03"
"72287493134","2020-03-06T07:11:00","FM-16","7",,,"3.89","mi",,,,,,,"PENDING COOP",,,,,,,,,,,,,,,,,,,,,,,,,,,"30.03","52","57",,"HZ:7 |FU |HZ",,,"83",,"OVC:08 3","29.83","2.00","54","000",,"0",,,,,,,,,,,,,,,,,,,,,,,,,,,,,,,,,,,,,"MET08803/06/20 07:11:02 SPECI KCQT 061511Z 00000KT 2SM HZ OVC003 14/11 A3003 RMK AO2 T01390111","FM-16","7",,,,,,,,,,,,,,,,,,,,,,,,,,,,"2006-02-03"
"72287493134","2020-03-06T07:47:00","FM-16","7",,,"3.89","mi",,,,,,,"PENDING COOP",,,,,,,,,,,,,,,,,,,,,,,,,,,"30.04","53","58",,"HZ:7 |FU |HZ",,,"84",,"OVC:08 3","29.84","1.50","55","000",,"0",,,,,,,,,,,,,,,,,,,,,,,,,,,,,,,,,,,,,"MET09203/06/20 07:47:02 SPECI KCQT 061547Z 00000KT 1 1/2SM HZ OVC003 14/12 A3004 RMK AO2 T01440117","FM-16","7",,,,,,,,,,,,,,,,,,,,,,,,,,,,"2006-02-03"
"72287493134","2020-03-06T07:52:00","FM-15","7",,,"3.89","mi",,,,,,,"PENDING COOP",,,,,,,,,,,,,,,,,,,,,,,,,,,"30.04","53","58","0.00","HZ:7 |FU |HZ",,,"84","30.03","OVC:08 3","29.84","1.50V","55","000",,"0",,,,,,,,,,,,,,,,,,,,,,,,,,,,,,,,,,,,,"MET11303/06/20 07:52:02 METAR KCQT 061552Z 00000KT 1 1/2SM HZ OVC003 14/12 A3004 RMK AO2 VIS 3/4V2 1/2 SLP170 T01440117","FM-15","7",,,,,,,,,,,,,,,,,,,,,,,,,,,,"2006-02-03"
"72287493134","2020-03-06T08:06:00","FM-16","7",,,"3.89","mi",,,,,,,"PENDING COOP",,,,,,,,,,,,,,,,,,,,,,,,,,,"30.04","53","58",,"HZ:7 |FU |HZ",,,"84",,"OVC:08 3","29.84","2.00","55","000",,"0",,,,,,,,,,,,,,,,,,,,,,,,,,,,,,,,,,,,,"MET08803/06/20 08:06:02 SPECI KCQT 061606Z 00000KT 2SM HZ OVC003 14/12 A3004 RMK AO2 T01440117","FM-16","7",,,,,,,,,,,,,,,,,,,,,,,,,,,,"2006-02-03"
"72287493134","2020-03-06T08:19:00","FM-16","7",,,"3.89","mi",,,,,,,"PENDING COOP",,,,,,,,,,,,,,,,,,,,,,,,,,,"30.04","53","58",,"HZ:7 |FU |HZ",,,"84",,"OVC:08 3","29.84","3.00","55","000",,"0",,,,,,,,,,,,,,,,,,,,,,,,,,,,,,,,,,,,,"MET10003/06/20 08:19:02 SPECI KCQT 061619Z 00000KT 3SM HZ OVC003 14/12 A3004 RMK AO2 CIG 002V006 T01440117","FM-16","7",,,,,,,,,,,,,,,,,,,,,,,,,,,,"2006-02-03"
"72287493134","2020-03-06T08:34:00","FM-16","7",,,"3.89","mi",,,,,,,"PENDING COOP",,,,,,,,,,,,,,,,,,,,,,,,,,,"30.04","53","59",,"HZ:7 |FU |HZ",,,"81",,"OVC:08 5","29.84","3.00","56","000",,"0",,,,,,,,,,,,,,,,,,,,,,,,,,,,,,,,,,,,,"MET08803/06/20 08:34:02 SPECI KCQT 061634Z 00000KT 3SM HZ OVC005 15/12 A3004 RMK AO2 T01500117","FM-16","7",,,,,,,,,,,,,,,,,,,,,,,,,,,,"2006-02-03"
"72287493134","2020-03-06T08:52:00","FM-15","7",,,"3.89","mi",,,,,,,"PENDING COOP",,,,,,,,,,,,,,,,,,,,,,,,,,,"30.05","53","59","0.00","HZ:7 |FU |HZ",,,"81","30.04","OVC:08 5","29.85","3.00","56","000",,"0",,,,,,,,,,,,,,,,,,,,,,,,,,,,,,,,,,,,,"MET09503/06/20 08:52:02 METAR KCQT 061652Z 00000KT 3SM HZ OVC005 15/12 A3005 RMK AO2 SLP172 T01500117","FM-15","7",,,,,,,,,,,,,,,,,,,,,,,,,,,,"2006-02-03"
"72287493134","2020-03-06T09:52:00","FM-15","7",,,"3.89","mi",,,,,,,"PENDING COOP",,,,,,,,,,,,,,,,,,,,,,,,,,,"30.04","53","63","0.00","HZ:7 |FU |HZ","-0.02","0","70","30.04","OVC:08 8","29.84","3.00","57","000",,"0",,,,,,,,,,,,,,,,,,,,,,,,,,,,,,,,,,,,,"MET12503/06/20 09:52:02 METAR KCQT 061752Z 00000KT 3SM HZ OVC008 17/12 A3004 RMK AO2 CIG 007V013 SLP172 T01720117 10172 20139 50007","FM-15","7",,,,,,,,,,,,,,,,,,,,,,,,,,,,"2006-02-03"
"72287493134","2020-03-06T09:57:00","FM-16","7",,,"3.89","mi",,,,,,,"PENDING COOP",,,,,,,,,,,,,,,,,,,,,,,,,,,"30.04","53","63",,"HZ:7 |FU |HZ",,,"70",,"OVC:08 10","29.84","3.00","57","000",,"0",,,,,,,,,,,,,,,,,,,,,,,,,,,,,,,,,,,,,"MET10003/06/20 09:57:02 SPECI KCQT 061757Z 00000KT 3SM HZ OVC010 17/12 A3004 RMK AO2 CIG 007V013 T01720117","FM-16","7",,,,,,,,,,,,,,,,,,,,,,,,,,,,"2006-02-03"
"72287493134","2020-03-06T10:25:00","FM-16","7",,,"3.89","mi",,,,,,,"PENDING COOP",,,,,,,,,,,,,,,,,,,,,,,,,,,"30.04","54","67",,"HZ:7 |FU |HZ",,,"63",,"SCT:04 13","29.84","4.00","60","000",,"0",,,,,,,,,,,,,,,,,,,,,,,,,,,,,,,,,,,,,"MET08803/06/20 10:25:02 SPECI KCQT 061825Z 00000KT 4SM HZ SCT013 19/12 A3004 RMK AO2 T01940122","FM-16","7",,,,,,,,,,,,,,,,,,,,,,,,,,,,"2006-02-03"
"72287493134","2020-03-06T10:52:00","FM-15","7",,,"3.89","mi",,,,,,,"PENDING COOP",,,,,,,,,,,,,,,,,,,,,,,,,,,"30.03","54","67","0.00","HZ:7 |FU |HZ",,,"63","30.03","CLR:00","29.83","4.00","60","000",,"0",,,,,,,,,,,,,,,,,,,,,,,,,,,,,,,,,,,,,"MET09203/06/20 10:52:02 METAR KCQT 061852Z 00000KT 4SM HZ CLR 19/12 A3003 RMK AO2 SLP169 T01940122","FM-15","7",,,,,,,,,,,,,,,,,,,,,,,,,,,,"2006-02-03"
"72287493134","2020-03-06T11:52:00","FM-15","7",,,"3.89","mi",,,,,,,"PENDING COOP",,,,,,,,,,,,,,,,,,,,,,,,,,,"30.02","54","71","0.00","HZ:7 |FU |HZ",,,"55","30.01","CLR:00","29.82","5.00","61","000",,"0",,,,,,,,,,,,,,,,,,,,,,,,,,,,,,,,,,,,,"MET09203/06/20 11:52:02 METAR KCQT 061952Z 00000KT 5SM HZ CLR 22/12 A3002 RMK AO2 SLP163 T02170122","FM-15","7",,,,,,,,,,,,,,,,,,,,,,,,,,,,"2006-02-03"
"72287493134","2020-03-06T12:52:00","FM-15","7",,,"3.89","mi",,,,,,,"PENDING COOP",,,,,,,,,,,,,,,,,,,,,,,,,,,"29.99","54","72","0.00","HZ:7 |FU |HZ","+0.06","8","53","29.98","CLR:00","29.79","5.00","62","VRB",,"3",,,,,,,,,,,,,,,,,,,,,,,,,,,,,,,,,,,,,"MET09803/06/20 12:52:02 METAR KCQT 062052Z VRB03KT 5SM HZ CLR 22/12 A2999 RMK AO2 SLP152 T02220122 58019","FM-15","7",,,,,,,,,,,,,,,,,,,,,,,,,,,,"2006-02-03"
"72287493134","2020-03-06T13:52:00","FM-15","7",,,"3.89","mi",,,,,,,"PENDING COOP",,,,,,,,,,,,,,,,,,,,,,,,,,,"29.98","53","67","0.00","HZ:7 |FU |HZ",,,"61","29.97","CLR:00","29.78","6.00","59","250",,"6",,,,,,,,,,,,,,,,,,,,,,,,,,,,,,,,,,,,,"MET09203/06/20 13:52:02 METAR KCQT 062152Z 25005KT 6SM HZ CLR 19/12 A2998 RMK AO2 SLP150 T01940117","FM-15","7",,,,,,,,,,,,,,,,,,,,,,,,,,,,"2006-02-03"
"72287493134","2020-03-06T14:52:00","FM-15","7",,,"3.89","mi",,,,,,,"PENDING COOP",,,,,,,,,,,,,,,,,,,,,,,,,,,"29.96","53","67","0.00",,,,"61","29.95","CLR:00","29.76","7.00","59","000",,"0",,,,,,,,,,,,,,,,,,,,,,,,,,,,,,,,,,,,,"MET08903/06/20 14:52:02 METAR KCQT 062252Z 00000KT 7SM CLR 19/12 A2996 RMK AO2 SLP143 T01940117","FM-15","7",,,,,,,,,,,,,,,,,,,,,,,,,,,,"2006-02-03"
"72287493134","2020-03-06T15:52:00","FM-15","7",,,"3.89","mi",,,,,,,"PENDING COOP",,,,,,,,,,,,,,,,,,,,,,,,,,,"29.95","52","66","0.00",,"+0.04","6","61","29.95","CLR:00","29.75","9.00","58","250",,"5",,,,,,,,,,,,,,,,,,,,,,,,,,,,,,,,,,,,,"MET10703/06/20 15:52:02 METAR KCQT 062352Z 25004KT 9SM CLR 19/11 A2995 RMK AO2 SLP141 T01890111 10222 20167 56012","FM-15","7",,,,,,,,,,,,,,,,,,,,,,,,,,,,"2006-02-03"
"72287493134","2020-03-06T16:52:00","FM-15","7",,,"3.89","mi",,,,,,,"PENDING COOP",,,,,,,,,,,,,,,,,,,,,,,,,,,"29.95","51","64","0.00",,,,"63","29.95","CLR:00","29.75","10.00","57","260",,"8",,,,,,,,,,,,,,,,,,,,,,,,,,,,,,,,,,,,,"MET09003/06/20 16:52:01 METAR KCQT 070052Z 26007KT 10SM CLR 18/11 A2995 RMK AO2 SLP142 T01780106","FM-15","7",,,,,,,,,,,,,,,,,,,,,,,,,,,,"2006-02-03"
"72287493134","2020-03-06T17:20:00","FM-16","7",,,"3.89","mi",,,,,,,"PENDING COOP",,,,,,,,,,,,,,,,,,,,,,,,,,,"29.97","51","62",,,,,"67",,"BKN:07 12","29.77","9.00","56","VRB",,"6",,,,,,,,,,,,,,,,,,,,,,,,,,,,,,,,,,,,,"MET08503/06/20 17:20:01 SPECI KCQT 070120Z VRB05KT 9SM BKN012 17/11 A2997 RMK AO2 T01670106","FM-16","7",,,,,,,,,,,,,,,,,,,,,,,,,,,,"2006-02-03"
"72287493134","2020-03-06T17:52:00","FM-15","7",,,"3.89","mi",,,,,,,"PENDING COOP",,,,,,,,,,,,,,,,,,,,,,,,,,,"29.97","51","61","0.00",,,,"70","29.97","OVC:08 13","29.77","10.00","56","250",,"7",,,,,,,,,,,,,,,,,,,,,,,,,,,,,,,,,,,,,"MET09303/06/20 17:52:01 METAR KCQT 070152Z 25006KT 10SM OVC013 16/11 A2997 RMK AO2 SLP148 T01610106","FM-15","7",,,,,,,,,,,,,,,,,,,,,,,,,,,,"2006-02-03"
"72287493134","2020-03-06T18:52:00","FM-15","7",,,"3.89","mi",,,,,,,"PENDING COOP",,,,,,,,,,,,,,,,,,,,,,,,,,,"29.98","50","60","0.00",,"-0.03","3","70","29.98","OVC:08 14","29.78","10.00","55","260",,"3",,,,,,,,,,,,,,,,,,,,,,,,,,,,,,,,,,,,,"MET09903/06/20 18:52:01 METAR KCQT 070252Z 26003KT 10SM OVC014 16/10 A2998 RMK AO2 SLP153 T01560100 53010","FM-15","7",,,,,,,,,,,,,,,,,,,,,,,,,,,,"2006-02-03"
"72287493134","2020-03-06T19:52:00","FM-15","7",,,"3.89","mi",,,,,,,"PENDING COOP",,,,,,,,,,,,,,,,,,,,,,,,,,,"30.00","49","59","0.00",,,,"69","29.99","BKN:07 14","29.80","10.00","54","000",,"0",,,,,,,,,,,,,,,,,,,,,,,,,,,,,,,,,,,,,"MET09303/06/20 19:52:01 METAR KCQT 070352Z 00000KT 10SM BKN014 15/09 A3000 RMK AO2 SLP157 T01500094","FM-15","7",,,,,,,,,,,,,,,,,,,,,,,,,,,,"2006-02-03"
"72287493134","2020-03-06T19:55:00","FM-16","7",,,"3.89","mi",,,,,,,"PENDING COOP",,,,,,,,,,,,,,,,,,,,,,,,,,,"30.00","49","59",,,,,"69",,"SCT:04 14","29.80","10.00","54","000",,"0",,,,,,,,,,,,,,,,,,,,,,,,,,,,,,,,,,,,,"MET08603/06/20 19:55:01 SPECI KCQT 070355Z 00000KT 10SM SCT014 15/09 A3000 RMK AO2 T01500094","FM-16","7",,,,,,,,,,,,,,,,,,,,,,,,,,,,"2006-02-03"
"72287493134","2020-03-06T20:35:00","FM-16","7",,,"3.89","mi",,,,,,,"PENDING COOP",,,,,,,,,,,,,,,,,,,,,,,,,,,"30.00","49","59",,,,,"69",,"BKN:07 16","29.80","10.00","54","000",,"0",,,,,,,,,,,,,,,,,,,,,,,,,,,,,,,,,,,,,"MET08603/06/20 20:35:02 SPECI KCQT 070435Z 00000KT 10SM BKN016 15/09 A3000 RMK AO2 T01500094","FM-16","7",,,,,,,,,,,,,,,,,,,,,,,,,,,,"2006-02-03"
"72287493134","2020-03-06T20:52:00","FM-15","7",,,"3.89","mi",,,,,,,"PENDING COOP",,,,,,,,,,,,,,,,,,,,,,,,,,,"30.01","49","59","0.00",,,,"69","30.01","OVC:08 16","29.81","10.00","54","000",,"0",,,,,,,,,,,,,,,,,,,,,,,,,,,,,,,,,,,,,"MET09303/06/20 20:52:02 METAR KCQT 070452Z 00000KT 10SM OVC016 15/09 A3001 RMK AO2 SLP161 T01500094","FM-15","7",,,,,,,,,,,,,,,,,,,,,,,,,,,,"2006-02-03"
"72287493134","2020-03-06T21:52:00","FM-15","7",,,"3.89","mi",,,,,,,"PENDING COOP",,,,,,,,,,,,,,,,,,,,,,,,,,,"30.02","49","59","0.00",,"-0.04","3","69","30.02","OVC:08 17","29.82","10.00","54","000",,"0",,,,,,,,,,,,,,,,,,,,,,,,,,,,,,,,,,,,,"MET11103/06/20 21:52:02 METAR KCQT 070552Z 00000KT 10SM OVC017 15/09 A3002 RMK AO2 SLP165 T01500094 10194 20150 53013","FM-15","7",,,,,,,,,,,,,,,,,,,,,,,,,,,,"2006-02-03"
"72287493134","2020-03-06T22:52:00","FM-15","7",,,"3.89","mi",,,,,,,"PENDING COOP",,,,,,,,,,,,,,,,,,,,,,,,,,,"30.01","50","59","0.00",,,,"72","30.01","OVC:08 18","29.81","10.00","54","000",,"0",,,,,,,,,,,,,,,,,,,,,,,,,,,,,,,,,,,,,"MET09303/06/20 22:52:02 METAR KCQT 070652Z 00000KT 10SM OVC018 15/10 A3001 RMK AO2 SLP162 T01500100","FM-15","7",,,,,,,,,,,,,,,,,,,,,,,,,,,,"2006-02-03"
"72287493134","2020-03-06T23:52:00","FM-15","7",,,"3.89","mi",,,,,,,"PENDING COOP",,,,,,,,,,,,,,,,,,,,,,,,,,,"30.01","49","60","0.00",,,,"67","30.00","OVC:08 19","29.81","10.00","54","270",,"3",,,,,,,,,,,,,,,,,,,,,,,,,,,,,,,,,,,,,"MET10303/06/20 23:52:02 METAR KCQT 070752Z 27003KT 10SM OVC019 16/09 A3001 RMK AO2 SLP159 T01560094 402220139","FM-15","7",,,,,,,,,,,,,,,,,,,,,,,,,,,,"2006-02-03"
"72287493134","2020-03-06T23:59:00","SOD  ","6",,,"3.89","mi",,,,,,,"PENDING COOP",,,,"52","65","71","30.00","29.81","56","1.5","0","4.9","0","72","57","260","15","0.00",,,"260","9","HZ",,,,,,,,,,,,,,,,,,,,,,,,,,,,,,,,,,,,,,,,,,,,,,,,,,,,,,,,"SOD76124 HR PRECIPITATION (IN): 0.00 SNOW DEPTH (IN):0     24 HR SNOWFALL (IN):0.0  WEATHER(CODE):18  24 HR MAX TEMP (F): 7224 HR MIN TEMP (F): 57AVERAGE STATION PRESSURE(D):29.812 MINIMUM SEA LEVEL PRESSURE:29.94 TIME OF OCCURRENCE:1637 PEAK WIND SPEED (MPH): 15 PEAK WIND DIR (DEG):260 PEAK WIND TIME (LST):      FASTEST 2MIN SPEED (MPH):  9FASTEST 2MIN DIR (DEG):260 FASTEST 2MIN TIME (LST):     AVERAGE WIND SPEED (MPH): 1.5 24 HR AVG TEMP (F): 65DEPART FROM NORMAL:  5  HEATING DEGREE DAYS:  0 COOLING DEGREE DAYS:  0 LATEST DAY MAX TEMP (0700-1900 LST): 72 LATEST NIGHT MIN TEMP(1900-0800 LST):57 HOURLY INCREMENTAL PRECIPITATION VALUES (IN):0.00 0.00 0.00 0.00 0.00 0.00 0.00 0.00 0.00 0.00 0.00 0.00 0.00 0.00 0.00 0.00 0.00 0.00 0.00 0.00 0.00 0.00 0.00 0.00","SOD  ","6",,,,,,,,,,,,,,,,,,,,,,,,,"0615","1754",,"2006-02-03"
"72287493134","2020-03-07T00:52:00","FM-15","7",,,"3.89","mi",,,,,,,"PENDING COOP",,,,,,,,,,,,,,,,,,,,,,,,,,,"30.00","49","60",,,"+0.02","6","67","30.00","OVC:08 24","29.80","10.00","54","000",,"0",,,,,,,,,,,,,,,,,,,,,,,,,,,,,,,,,,,,,"MET09903/07/20 00:52:02 METAR KCQT 070852Z 00000KT 10SM OVC024 16/09 A3000 RMK AO2 SLP158 T01560094 56007","FM-15","7",,,,,,,,,,,,,,,,,,,,,,,,,,,,"2006-02-03"
"72287493134","2020-03-07T01:52:00","FM-15","7",,,"3.89","mi",,,,,,,"PENDING COOP",,,,,,,,,,,,,,,,,,,,,,,,,,,"30.00","48","60",,,,,"65","29.99","OVC:08 26","29.80","10.00","54","000",,"0",,,,,,,,,,,,,,,,,,,,,,,,,,,,,,,,,,,,,"MET09303/07/20 01:52:02 METAR KCQT 070952Z 00000KT 10SM OVC026 16/09 A3000 RMK AO2 SLP156 T01560089","FM-15","7",,,,,,,,,,,,,,,,,,,,,,,,,,,,"2006-02-03"
"72287493134","2020-03-07T02:47:00","FM-16","7",,,"3.89","mi",,,,,,,"PENDING COOP",,,,,,,,,,,,,,,,,,,,,,,,,,,"29.99","49","59",,,,,"69",,"OVC:08 31","29.79","10.00","54","000",,"0",,,,,,,,,,,,,,,,,,,,,,,,,,,,,,,,,,,,,"MET08603/07/20 02:47:02 SPECI KCQT 071047Z 00000KT 10SM OVC031 15/09 A2999 RMK AO2 T01500094","FM-16","7",,,,,,,,,,,,,,,,,,,,,,,,,,,,"2006-02-03"
"72287493134","2020-03-07T02:52:00","FM-15","7",,,"3.89","mi",,,,,,,"PENDING COOP",,,,,,,,,,,,,,,,,,,,,,,,,,,"29.99","49","59",,,,,"69","29.98","OVC:08 31","29.79","10.00","54","000",,"0",,,,,,,,,,,,,,,,,,,,,,,,,,,,,,,,,,,,,"MET09303/07/20 02:52:02 METAR KCQT 071052Z 00000KT 10SM OVC031 15/09 A2999 RMK AO2 SLP153 T01500094","FM-15","7",,,,,,,,,,,,,,,,,,,,,,,,,,,,"2006-02-03"
"72287493134","2020-03-07T03:52:00","FM-15","7",,,"3.89","mi",,,,,,,"PENDING COOP",,,,,,,,,,,,,,,,,,,,,,,,,,,"29.98","48","59",,,"+0.02","8","67","29.97","OVC:08 33","29.78","10.00","53","000",,"0",,,,,,,,,,,,,,,,,,,,,,,,,,,,,,,,,,,,,"MET11103/07/20 03:52:02 METAR KCQT 071152Z 00000KT 10SM OVC033 15/09 A2998 RMK AO2 SLP150 T01500089 10156 20150 58008","FM-15","7",,,,,,,,,,,,,,,,,,,,,,,,,,,,"2006-02-03"
"72287493134","2020-03-07T04:52:00","FM-15","7",,,"3.89","mi",,,,,,,"PENDING COOP",,,,,,,,,,,,,,,,,,,,,,,,,,,"29.98","48","59",,,,,"67","29.98","OVC:08 39","29.78","10.00","53","000",,"0",,,,,,,,,,,,,,,,,,,,,,,,,,,,,,,,,,,,,"MET09303/07/20 04:52:02 METAR KCQT 071252Z 00000KT 10SM OVC039 15/09 A2998 RMK AO2 SLP151 T01500089","FM-15","7",,,,,,,,,,,,,,,,,,,,,,,,,,,,"2006-02-03"
"72287493134","2020-03-07T05:52:00","FM-15","7",,,"3.89","mi",,,,,,,"PENDING COOP",,,,,,,,,,,,,,,,,,,,,,,,,,,"30.00","47","59",,,,,"64","30.00","OVC:08 40","29.80","10.00","53","000",,"0",,,,,,,,,,,,,,,,,,,,,,,,,,,,,,,,,,,,,"MET09303/07/20 05:52:02 METAR KCQT 071352Z 00000KT 10SM OVC040 15/08 A3000 RMK AO2 SLP158 T01500083","FM-15","7",,,,,,,,,,,,,,,,,,,,,,,,,,,,"2006-02-03"
"72287493134","2020-03-07T06:52:00","FM-15","7",,,"3.89","mi",,,,,,,"PENDING COOP",,,,,,,,,,,,,,,,,,,,,,,,,,,"30.01","46","59",,,"-0.04","3","62","30.01","FEW:02 25 OVC:08 45","29.81","10.00","52","000",,"0",,,,,,,,,,,,,,,,,,,,,,,,,,,,,,,,,,,,,"MET10603/07/20 06:52:02 METAR KCQT 071452Z 00000KT 10SM FEW025 OVC045 15/08 A3001 RMK AO2 SLP162 T01500078 53012","FM-15","7",,,,,,,,,,,,,,,,,,,,,,,,,,,,"2006-02-03"
"72287493134","2020-03-07T07:52:00","FM-15","7",,,"3.89","mi",,,,,,,"PENDING COOP",,,,,,,,,,,,,,,,,,,,,,,,,,,"30.01","46","60",,,,,"60","30.01","OVC:08 48","29.81","10.00","53","000",,"0",,,,,,,,,,,,,,,,,,,,,,,,,,,,,,,,,,,,,"MET09303/07/20 07:52:02 METAR KCQT 071552Z 00000KT 10SM OVC048 16/08 A3001 RMK AO2 SLP163 T01560078","FM-15","7",,,,,,,,,,,,,,,,,,,,,,,,,,,,"2006-02-03"
"72287493134","2020-03-07T08:52:00","FM-15","7",,,"3.89","mi",,,,,,,"PENDING COOP",,,,,,,,,,,,,,,,,,,,,,,,,,,"30.03","46","60",,,,,"60","30.02","OVC:08 47","29.83","10.00","53","000",,"0",,,,,,,,,,,,,,,,,,,,,,,,,,,,,,,,,,,,,"MET09303/07/20 08:52:02 METAR KCQT 071652Z 00000KT 10SM OVC047 16/08 A3003 RMK AO2 SLP167 T01560078","FM-15","7",,,,,,,,,,,,,,,,,,,,,,,,,,,,"2006-02-03"
"72287493134","2020-03-07T09:52:00","FM-15","7",,,"3.89","mi",,,,,,,"PENDING COOP",,,,,,,,,,,,,,,,,,,,,,,,,,,"30.04","47","60",,,"-0.02","3","62","30.03","FEW:02 36 OVC:08 45","29.84","10.00","53","000",,"0",,,,,,,,,,,,,,,,,,,,,,,,,,,,,,,,,,,,,"MET11803/07/20 09:52:02 METAR KCQT 071752Z 00000KT 10SM FEW036 OVC045 16/08 A3004 RMK AO2 SLP171 T01560083 10161 20144 53008","FM-15","7",,,,,,,,,,,,,,,,,,,,,,,,,,,,"2006-02-03"
"72287493134","2020-03-07T10:52:00","FM-15","7",,,"3.89","mi",,,,,,,"PENDING COOP",,,,,,,,,,,,,,,,,,,,,,,,,,,"30.01","47","64",,,,,"54","30.01","FEW:02 49 FEW:02 70","29.81","10.00","55","000",,"0",,,,,,,,,,,,,,,,,,,,,,,,,,,,,,,,,,,,,"MET10003/07/20 10:52:02 METAR KCQT 071852Z 00000KT 10SM FEW049 FEW070 18/08 A3001 RMK AO2 SLP161 T01780083","FM-15","7",,,,,,,,,,,,,,,,,,,,,,,,,,,,"2006-02-03"
"72287493134","2020-03-07T11:52:00","FM-15","7",,,"3.89","mi",,,,,,,"PENDING COOP",,,,,,,,,,,,,,,,,,,,,,,,,,,"29.99","46","67",,,,,"47","29.99","SCT:04 39 OVC:08 47","29.79","10.00","56","000",,"0",,,,,,,,,,,,,,,,,,,,,,,,,,,,,,,,,,,,,"MET10003/07/20 11:52:02 METAR KCQT 071952Z 00000KT 10SM SCT039 OVC047 19/08 A2999 RMK AO2 SLP155 T01940078","FM-15","7",,,,,,,,,,,,,,,,,,,,,,,,,,,,"2006-02-03"
"72287493134","2020-03-07T12:52:00","FM-15","6",,,"3.89","mi",,,,,,,"PENDING COOP",,,,,,,,,,,,,,,,,,,,,,,,,,,"29.98","47","64",,,"+0.06","6","54","29.97","SCT:04 41 SCT:04 50 OVC:08 70","29.78","10.00","55",,,,,,,,,,,,,,,,,,,,,,,,,,,,,,,,,,,,,,,,"MET11303/07/20 12:52:02 METAR KCQT 072052Z      KT 10SM SCT041 SCT050 OVC070 18/08 A2998 RMK AO2 SLP150 T01780083 56020","FM-15","6",,,,,,,,,,,,,,,,,,,,,,,,,,,,"2006-02-03"
"72287493134","2020-03-07T13:52:00","FM-15","7",,,"3.89","mi",,,,,,,"PENDING COOP",,,,,,,,,,,,,,,,,,,,,,,,,,,"29.96","47","64",,,,,"54","29.96","SCT:04 28 BKN:07 39","29.76","10.00","55","250",,"6",,,,,,,,,,,,,,,,,,,,,,,,,,,,,,,,,,,,,"MET10003/07/20 13:52:02 METAR KCQT 072152Z 25005KT 10SM SCT028 BKN039 18/08 A2996 RMK AO2 SLP144 T01780083","FM-15","7",,,,,,,,,,,,,,,,,,,,,,,,,,,,"2006-02-03"
"72287493134","2020-03-07T23:59:00","SOD  ","6",,,"3.89","mi",,,,,,,"PENDING COOP",,,,,"62",,,,,"1.6","0","1.8","3","67","57","260","19","0.00",,,"260","12",,,,,,,,,,,,,,,,,,,,,,,,,,,,,,,,,,,,,,,,,,,,,,,,,,,,,,,,,"SOD40624 HR PRECIPITATION (IN):    T SNOW DEPTH (IN):0     24 HR SNOWFALL (IN):0.0  24 HR MAX TEMP (F): 6724 HR MIN TEMP (F): 57PEAK WIND SPEED (MPH): 19 PEAK WIND DIR (DEG):260 PEAK WIND TIME (LST):      FASTEST 2MIN SPEED (MPH): 12FASTEST 2MIN DIR (DEG):260 FASTEST 2MIN TIME (LST):     AVERAGE WIND SPEED (MPH): 1.6 24 HR AVG TEMP (F): 62DEPART FROM NORMAL:  2  HEATING DEGREE DAYS:  3 COOLING DEGREE DAYS:  0","SOD  ","6",,,,,,,,,,,,,,,,,,,,,,,,,"0613","1755",,"2006-02-03"
"72287493134","2020-03-08T05:52:00","FM-15","7",,,"3.89","mi",,,,,,,"PENDING COOP",,,,,,,,,,,,,,,,,,,,,,,,,,,"29.98","48","53","0.00",,,,"83","29.98","CLR:00","29.78","10.00","50","000",,"0",,,,,,,,,,,,,,,,,,,,,,,,,,,,,,,,,,,,,"MET09003/08/20 05:52:02 METAR KCQT 081352Z 00000KT 10SM CLR 12/09 A2998 RMK AO2 SLP152 T01170089","FM-15","7",,,,,,,,,,,,,,,,,,,,,,,,,,,,"2006-02-03"
"72287493134","2020-03-08T06:52:00","FM-15","7",,,"3.89","mi",,,,,,,"PENDING COOP",,,,,,,,,,,,,,,,,,,,,,,,,,,"29.99","47","53","0.00",,"-0.02","3","80","29.99","CLR:00","29.79","10.00","50","000",,"0",,,,,,,,,,,,,,,,,,,,,,,,,,,,,,,,,,,,,"MET09603/08/20 06:52:02 METAR KCQT 081452Z 00000KT 10SM CLR 12/08 A2999 RMK AO2 SLP156 T01170083 53008","FM-15","7",,,,,,,,,,,,,,,,,,,,,,,,,,,,"2006-02-03"
"72287493134","2020-03-08T07:52:00","FM-15","7",,,"3.89","mi",,,,,,,"PENDING COOP",,,,,,,,,,,,,,,,,,,,,,,,,,,"30.01","48","58","0.00",,,,"70","30.01","CLR:00","29.81","10.00","53","000",,"0",,,,,,,,,,,,,,,,,,,,,,,,,,,,,,,,,,,,,"MET09003/08/20 07:52:02 METAR KCQT 081552Z 00000KT 10SM CLR 14/09 A3001 RMK AO2 SLP162 T01440089","FM-15","7",,,,,,,,,,,,,,,,,,,,,,,,,,,,"2006-02-03"
"72287493134","2020-03-08T08:20:00","FM-16","7",,,"3.89","mi",,,,,,,"PENDING COOP",,,,,,,,,,,,,,,,,,,,,,,,,,,"30.02","49","61",,,,,"65",,"BKN:07 17","29.82","10.00","55","000",,"0",,,,,,,,,,,,,,,,,,,,,,,,,,,,,,,,,,,,,"MET08603/08/20 08:20:02 SPECI KCQT 081620Z 00000KT 10SM BKN017 16/09 A3002 RMK AO2 T01610094","FM-16","7",,,,,,,,,,,,,,,,,,,,,,,,,,,,"2006-02-03"
"72287493134","2020-03-08T08:56:00","FM-16","7",,,"3.89","mi",,,,,,,"PENDING COOP",,,,,,,,,,,,,,,,,,,,,,,,,,,"30.03","47","61",,,,,"60",,"SCT:04 21 SCT:04 30 BKN:07 35","29.83","10.00","54","000",,"0",,,,,,,,,,,,,,,,,,,,,,,,,,,,,,,,,,,,,"MET10003/08/20 08:56:02 SPECI KCQT 081656Z 00000KT 10SM SCT021 SCT030 BKN035 16/08 A3003 RMK AO2 T01610083","FM-16","7",,,,,,,,,,,,,,,,,,,,,,,,,,,,"2006-02-03"
"72287493134","2020-03-08T09:52:00","FM-15","7",,,"3.89","mi",,,,,,,"PENDING COOP",,,,,,,,,,,,,,,,,,,,,,,,,,,"30.04","46","65","0.00",,"-0.04","1","51","30.03","CLR:00","29.84","10.00","55","VRB",,"5",,,,,,,,,,,,,,,,,,,,,,,,,,,,,,,,,,,,,"MET10803/08/20 09:52:02 METAR KCQT 081752Z VRB04KT 10SM CLR 18/08 A3004 RMK AO2 SLP170 T01830078 10189 20111 51015","FM-15","7",,,,,,,,,,,,,,,,,,,,,,,,,,,,"2006-02-03"
"72287493134","2020-03-08T10:52:00","FM-15","7",,,"3.89","mi",,,,,,,"PENDING COOP",,,,,,,,,,,,,,,,,,,,,,,,,,,"30.04","44","67","0.00",,,,"44","30.03","FEW:02 65","29.84","10.00","55","070",,"5",,,,,,,,,,,,,,,,,,,,,,,,,,,,,,,,,,,,,"MET09303/08/20 10:52:02 METAR KCQT 081852Z 07004KT 10SM FEW065 19/07 A3004 RMK AO2 SLP170 T01940067","FM-15","7",,,,,,,,,,,,,,,,,,,,,,,,,,,,"2006-02-03"
"72287493134","2020-03-08T11:52:00","FM-15","7",,,"3.89","mi",,,,,,,"PENDING COOP",,,,,,,,,,,,,,,,,,,,,,,,,,,"30.03","42","65","0.00",,,,"43","30.02","SCT:04 65","29.83","10.00","53","250",,"3",,,,,,,,,,,,,,,,,,,,,,,,,,,,,,,,,,,,,"MET09303/08/20 11:52:02 METAR KCQT 081952Z 25003KT 10SM SCT065 18/06 A3003 RMK AO2 SLP167 T01830056","FM-15","7",,,,,,,,,,,,,,,,,,,,,,,,,,,,"2006-02-03"
"72287493134","2020-03-08T12:52:00","FM-15","7",,,"3.89","mi",,,,,,,"PENDING COOP",,,,,,,,,,,,,,,,,,,,,,,,,,,"30.02","44","65","0.00",,"+0.02","8","47","30.01","FEW:02 37","29.82","10.00","54","VRB",,"5",,,,,,,,,,,,,,,,,,,,,,,,,,,,,,,,,,,,,"MET09903/08/20 12:52:02 METAR KCQT 082052Z VRB04KT 10SM FEW037 18/07 A3002 RMK AO2 SLP163 T01830067 58007","FM-15","7",,,,,,,,,,,,,,,,,,,,,,,,,,,,"2006-02-03"
"72287493134","2020-03-08T13:52:00","FM-15","7",,,"3.89","mi",,,,,,,"PENDING COOP",,,,,,,,,,,,,,,,,,,,,,,,,,,"30.00","44","66","0.00",,,,"45","30.00","CLR:00","29.80","10.00","54","240",,"5",,,,,,,,,,,,,,,,,,,,,,,,,,,,,,,,,,,,,"MET09003/08/20 13:52:02 METAR KCQT 082152Z 24004KT 10SM CLR 19/07 A3000 RMK AO2 SLP158 T01890067","FM-15","7",,,,,,,,,,,,,,,,,,,,,,,,,,,,"2006-02-03"
"72287493134","2020-03-08T14:52:00","FM-15","7",,,"3.89","mi",,,,,,,"PENDING COOP",,,,,,,,,,,,,,,,,,,,,,,,,,,"30.01","41","66","0.00",,,,"40","30.00","CLR:00","29.81","10.00","53","VRB",,"5",,,,,,,,,,,,,,,,,,,,,,,,,,,,,,,,,,,,,"MET09003/08/20 14:52:02 METAR KCQT 082252Z VRB04KT 10SM CLR 19/05 A3001 RMK AO2 SLP159 T01890050","FM-15","7",,,,,,,,,,,,,,,,,,,,,,,,,,,,"2006-02-03"
"72287493134","2020-03-08T15:52:00","FM-15","7",,,"3.89","mi",,,,,,,"PENDING COOP",,,,,,,,,,,,,,,,,,,,,,,,,,,"30.01","43","65","0.00",,"+0.00","5","45","30.01","CLR:00","29.81","10.00","54","VRB",,"3",,,,,,,,,,,,,,,,,,,,,,,,,,,,,,,,,,,,,"MET10803/08/20 15:52:02 METAR KCQT 082352Z VRB03KT 10SM CLR 18/06 A3001 RMK AO2 SLP163 T01830061 10194 20172 55001","FM-15","7",,,,,,,,,,,,,,,,,,,,,,,,,,,,"2006-02-03"
"72287493134","2020-03-08T16:52:00","FM-15","7",,,"3.89","mi",,,,,,,"PENDING COOP",,,,,,,,,,,,,,,,,,,,,,,,,,,"30.02","45","63","0.00",,,,"52","30.02","CLR:00","29.82","10.00","54","250",,"3",,,,,,,,,,,,,,,,,,,,,,,,,,,,,,,,,,,,,"MET09003/08/20 16:52:01 METAR KCQT 090052Z 25003KT 10SM CLR 17/07 A3002 RMK AO2 SLP165 T01720072","FM-15","7",,,,,,,,,,,,,,,,,,,,,,,,,,,,"2006-02-03"
"72287493134","2020-03-08T17:52:00","FM-15","7",,,"3.89","mi",,,,,,,"PENDING COOP",,,,,,,,,,,,,,,,,,,,,,,,,,,"30.03","46","61","0.00",,,,"58","30.03","CLR:00","29.83","10.00","53","270",,"6",,,,,,,,,,,,,,,,,,,,,,,,,,,,,,,,,,,,,"MET09003/08/20 17:52:01 METAR KCQT 090152Z 27005KT 10SM CLR 16/08 A3003 RMK AO2 SLP169 T01610078","FM-15","7",,,,,,,,,,,,,,,,,,,,,,,,,,,,"2006-02-03"
"72287493134","2020-03-08T18:52:00","FM-15","7",,,"3.89","mi",,,,,,,"PENDING COOP",,,,,,,,,,,,,,,,,,,,,,,,,,,"30.05","46","60","0.00",,"-0.04","3","60","30.05","CLR:00","29.85","10.00","53","270",,"3",,,,,,,,,,,,,,,,,,,,,,,,,,,,,,,,,,,,,"MET09603/08/20 18:52:01 METAR KCQT 090252Z 27003KT 10SM CLR 16/08 A3005 RMK AO2 SLP176 T01560078 53013","FM-15","7",,,,,,,,,,,,,,,,,,,,,,,,,,,,"2006-02-03"
"72287493134","2020-03-08T19:52:00","FM-15","7",,,"3.89","mi",,,,,,,"PENDING COOP",,,,,,,,,,,,,,,,,,,,,,,,,,,"30.07","46","59","0.00",,,,"62","30.07","CLR:00","29.87","10.00","52","000",,"0",,,,,,,,,,,,,,,,,,,,,,,,,,,,,,,,,,,,,"MET09003/08/20 19:52:02 METAR KCQT 090352Z 00000KT 10SM CLR 15/08 A3007 RMK AO2 SLP182 T01500078","FM-15","7",,,,,,,,,,,,,,,,,,,,,,,,,,,,"2006-02-03"
"72287493134","2020-03-08T20:52:00","FM-15","7",,,"3.89","mi",,,,,,,"PENDING COOP",,,,,,,,,,,,,,,,,,,,,,,,,,,"30.07","46","59","0.00",,,,"62","30.07","CLR:00","29.87","10.00","52","000",,"0",,,,,,,,,,,,,,,,,,,,,,,,,,,,,,,,,,,,,"MET09003/08/20 20:52:02 METAR KCQT 090452Z 00000KT 10SM CLR 15/08 A3007 RMK AO2 SLP182 T01500078","FM-15","7",,,,,,,,,,,,,,,,,,,,,,,,,,,,"2006-02-03"
"72287493134","2020-03-08T21:52:00","FM-15","7",,,"3.89","mi",,,,,,,"PENDING COOP",,,,,,,,,,,,,,,,,,,,,,,,,,,"30.09","46","58","0.00",,"-0.04","1","65","30.08","CLR:00","29.89","10.00","52","000",,"0",,,,,,,,,,,,,,,,,,,,,,,,,,,,,,,,,,,,,"MET10803/08/20 21:52:02 METAR KCQT 090552Z 00000KT 10SM CLR 14/08 A3009 RMK AO2 SLP186 T01440078 10189 20144 51012","FM-15","7",,,,,,,,,,,,,,,,,,,,,,,,,,,,"2006-02-03"
"72287493134","2020-03-08T22:52:00","FM-15","7",,,"3.89","mi",,,,,,,"PENDING COOP",,,,,,,,,,,,,,,,,,,,,,,,,,,"30.09","45","59","0.00",,,,"60","30.09","CLR:00","29.89","10.00","52","000",,"0",,,,,,,,,,,,,,,,,,,,,,,,,,,,,,,,,,,,,"MET09003/08/20 22:52:02 METAR KCQT 090652Z 00000KT 10SM CLR 15/07 A3009 RMK AO2 SLP188 T01500072","FM-15","7",,,,,,,,,,,,,,,,,,,,,,,,,,,,"2006-02-03"
"72287493134","2020-03-08T23:52:00","FM-15","7",,,"3.89","mi",,,,,,,"PENDING COOP",,,,,,,,,,,,,,,,,,,,,,,,,,,"30.09","46","56","0.00",,,,"70","30.08","CLR:00","29.89","10.00","51","000",,"0",,,,,,,,,,,,,,,,,,,,,,,,,,,,,,,,,,,,,"MET10003/08/20 23:52:02 METAR KCQT 090752Z 00000KT 10SM CLR 13/08 A3009 RMK AO2 SLP186 T01330078 401940111","FM-15","7",,,,,,,,,,,,,,,,,,,,,,,,,,,,"2006-02-03"
"72287493134","2020-03-08T23:59:00","SOD  ","6",,,"3.89","mi",,,,,,,"PENDING COOP",,,,,"60",,,,,"1.8","0","-0.2","5","67","52","260","15","0.00",,,"270","9",,,,,,,,,,,,,,,,,,,,,,,,,,,,,,,,,,,,,,,,,,,,,,,,,,,,,,,,,"SOD68724 HR PRECIPITATION (IN): 0.01  24 HR SNOWFALL (IN):0.0  24 HR MAX TEMP (F): 6724 HR MIN TEMP (F): 52MINIMUM SEA LEVEL PRESSURE:29.96 TIME OF OCCURRENCE:0330 PEAK WIND SPEED (MPH): 15 PEAK WIND DIR (DEG):260 PEAK WIND TIME (LST):      FASTEST 2MIN SPEED (MPH):  9FASTEST 2MIN DIR (DEG):270 FASTEST 2MIN TIME (LST):     AVERAGE WIND SPEED (MPH): 1.8 24 HR AVG TEMP (F): 60DEPART FROM NORMAL:  0  HEATING DEGREE DAYS:  5 COOLING DEGREE DAYS:  0 LATEST DAY MAX TEMP (0700-1900 LST): 67 LATEST NIGHT MIN TEMP(1900-0800 LST):52 HOURLY INCREMENTAL PRECIPITATION VALUES (IN):0.01 0.00 0.00 0.00 0.00 0.00 0.00 0.00 0.00 0.00 0.00 0.00 0.00 0.00 0.00 0.00 0.00 0.00 0.00 0.00 0.00 0.00 0.00 0.00","SOD  ","6",,,,,,,,,,,,,,,,,,,,,,,,,"0612","1756",,"2006-02-03"
"72287493134","2020-03-09T00:52:00","FM-15","7",,,"3.89","mi",,,,,,,"PENDING COOP",,,,,,,,,,,,,,,,,,,,,,,,,,,"30.09","43","55","0.00",,"-0.01","3","64","30.09","CLR:00","29.89","10.00","49","000",,"0",,,,,,,,,,,,,,,,,,,,,,,,,,,,,,,,,,,,,"MET09603/09/20 00:52:02 METAR KCQT 090852Z 00000KT 10SM CLR 13/06 A3009 RMK AO2 SLP189 T01280061 53002","FM-15","7",,,,,,,,,,,,,,,,,,,,,,,,,,,,"2006-02-03"
"72287493134","2020-03-09T01:52:00","FM-15","7",,,"3.89","mi",,,,,,,"PENDING COOP",,,,,,,,,,,,,,,,,,,,,,,,,,,"30.09","42","55","0.00",,,,"62","30.08","CLR:00","29.89","10.00","49","020",,"3",,,,,,,,,,,,,,,,,,,,,,,,,,,,,,,,,,,,,"MET09003/09/20 01:52:02 METAR KCQT 090952Z 02003KT 10SM CLR 13/06 A3009 RMK AO2 SLP186 T01280056","FM-15","7",,,,,,,,,,,,,,,,,,,,,,,,,,,,"2006-02-03"
"72287493134","2020-03-09T02:52:00","FM-15","7",,,"3.89","mi",,,,,,,"PENDING COOP",,,,,,,,,,,,,,,,,,,,,,,,,,,"30.08","43","55","0.00",,,,"64","30.08","CLR:00","29.88","10.00","49","000",,"0",,,,,,,,,,,,,,,,,,,,,,,,,,,,,,,,,,,,,"MET09003/09/20 02:52:02 METAR KCQT 091052Z 00000KT 10SM CLR 13/06 A3008 RMK AO2 SLP185 T01280061","FM-15","7",,,,,,,,,,,,,,,,,,,,,,,,,,,,"2006-02-03"
"72287493134","2020-03-09T03:52:00","FM-15","7",,,"3.89","mi",,,,,,,"PENDING COOP",,,,,,,,,,,,,,,,,,,,,,,,,,,"30.07","42","54","0.00",,"+0.02","8","64","30.06","CLR:00","29.87","10.00","48","030",,"3",,,,,,,,,,,,,,,,,,,,,,,,,,,,,,,,,,,,,"MET10803/09/20 03:52:02 METAR KCQT 091152Z 03003KT 10SM CLR 12/06 A3007 RMK AO2 SLP181 T01220056 10156 20117 58008","FM-15","7",,,,,,,,,,,,,,,,,,,,,,,,,,,,"2006-02-03"
"72287493134","2020-03-09T04:52:00","FM-15","7",,,"3.89","mi",,,,,,,"PENDING COOP",,,,,,,,,,,,,,,,,,,,,,,,,,,"30.08","41","54","0.00",,,,"62","30.08","CLR:00","29.88","10.00","48","010",,"3",,,,,,,,,,,,,,,,,,,,,,,,,,,,,,,,,,,,,"MET09003/09/20 04:52:02 METAR KCQT 091252Z 01003KT 10SM CLR 12/05 A3008 RMK AO2 SLP185 T01220050","FM-15","7",,,,,,,,,,,,,,,,,,,,,,,,,,,,"2006-02-03"
"72287493134","2020-03-09T05:52:00","FM-15","7",,,"3.89","mi",,,,,,,"PENDING COOP",,,,,,,,,,,,,,,,,,,,,,,,,,,"30.07","40","54","0.00",,,,"59","30.07","CLR:00","29.87","10.00","47","000",,"0",,,,,,,,,,,,,,,,,,,,,,,,,,,,,,,,,,,,,"MET09003/09/20 05:52:02 METAR KCQT 091352Z 00000KT 10SM CLR 12/04 A3007 RMK AO2 SLP183 T01220044","FM-15","7",,,,,,,,,,,,,,,,,,,,,,,,,,,,"2006-02-03"
"72287493134","2020-03-09T06:52:00","FM-15","7",,,"3.89","mi",,,,,,,"PENDING COOP",,,,,,,,,,,,,,,,,,,,,,,,,,,"30.07","39","57","0.00",,"-0.00","0","51","30.07","CLR:00","29.87","9.00","48","000",,"0",,,,,,,,,,,,,,,,,,,,,,,,,,,,,,,,,,,,,"MET09503/09/20 06:52:02 METAR KCQT 091452Z 00000KT 9SM CLR 14/04 A3007 RMK AO2 SLP182 T01390039 50000","FM-15","7",,,,,,,,,,,,,,,,,,,,,,,,,,,,"2006-02-03"
"72287493134","2020-03-09T07:52:00","FM-15","7",,,"3.89","mi",,,,,,,"PENDING COOP",,,,,,,,,,,,,,,,,,,,,,,,,,,"30.09","40","59","0.00",,,,"49","30.09","CLR:00","29.89","10.00","50","VRB",,"3",,,,,,,,,,,,,,,,,,,,,,,,,,,,,,,,,,,,,"MET09003/09/20 07:52:02 METAR KCQT 091552Z VRB03KT 10SM CLR 15/04 A3009 RMK AO2 SLP189 T01500044","FM-15","7",,,,,,,,,,,,,,,,,,,,,,,,,,,,"2006-02-03"
"72287493134","2020-03-09T08:52:00","FM-15","7",,,"3.89","mi",,,,,,,"PENDING COOP",,,,,,,,,,,,,,,,,,,,,,,,,,,"30.10","40","61","0.00",,,,"46","30.10","FEW:02 120","29.90","10.00","51","VRB",,"5",,,,,,,,,,,,,,,,,,,,,,,,,,,,,,,,,,,,,"MET09303/09/20 08:52:02 METAR KCQT 091652Z VRB04KT 10SM FEW120 16/04 A3010 RMK AO2 SLP192 T01610044","FM-15","7",,,,,,,,,,,,,,,,,,,,,,,,,,,,"2006-02-03"
"72287493134","2020-03-09T09:52:00","FM-15","7",,,"3.89","mi",,,,,,,"PENDING COOP",,,,,,,,,,,,,,,,,,,,,,,,,,,"30.11","40","63","0.00",,"-0.04","1","43","30.10","BKN:07 100","29.91","10.00","52","VRB",,"3",,,,,,,,,,,,,,,,,,,,,,,,,,,,,,,,,,,,,"MET11103/09/20 09:52:02 METAR KCQT 091752Z VRB03KT 10SM BKN100 17/04 A3011 RMK AO2 SLP193 T01720044 10172 20122 51013","FM-15","7",,,,,,,,,,,,,,,,,,,,,,,,,,,,"2006-02-03"
"72287493134","2020-03-09T10:52:00","FM-15","7",,,"3.89","mi",,,,,,,"PENDING COOP",,,,,,,,,,,,,,,,,,,,,,,,,,,"30.09","40","65","0.00",,,,"40","30.08","FEW:02 120","29.89","10.00","52","000",,"0",,,,,,,,,,,,,,,,,,,,,,,,,,,,,,,,,,,,,"MET09303/09/20 10:52:02 METAR KCQT 091852Z 00000KT 10SM FEW120 18/04 A3009 RMK AO2 SLP187 T01830044","FM-15","7",,,,,,,,,,,,,,,,,,,,,,,,,,,,"2006-02-03"
"72287493134","2020-03-09T11:52:00","FM-15","7",,,"3.89","mi",,,,,,,"PENDING COOP",,,,,,,,,,,,,,,,,,,,,,,,,,,"30.06","35","70","0.00",,,,"28","30.06","CLR:00","29.86","10.00","53","000",,"0",,,,,,,,,,,,,,,,,,,,,,,,,,,,,,,,,,,,,"MET09003/09/20 11:52:02 METAR KCQT 091952Z 00000KT 10SM CLR 21/02 A3006 RMK AO2 SLP179 T02110017","FM-15","7",,,,,,,,,,,,,,,,,,,,,,,,,,,,"2006-02-03"
"72287493134","2020-03-09T12:52:00","FM-15","7",,,"3.89","mi",,,,,,,"PENDING COOP",,,,,,,,,,,,,,,,,,,,,,,,,,,"30.02","35","71","0.00",,"+0.08","8","27","30.02","CLR:00","29.82","10.00","53","000",,"0",,,,,,,,,,,,,,,,,,,,,,,,,,,,,,,,,,,,,"MET09603/09/20 12:52:02 METAR KCQT 092052Z 00000KT 10SM CLR 22/02 A3002 RMK AO2 SLP165 T02170017 58028","FM-15","7",,,,,,,,,,,,,,,,,,,,,,,,,,,,"2006-02-03"
"72287493134","2020-03-09T13:52:00","FM-15","7",,,"3.89","mi",,,,,,,"PENDING COOP",,,,,,,,,,,,,,,,,,,,,,,,,,,"30.00","35","73","0.00",,,,"25","29.99","CLR:00","29.80","10.00","54","000",,"0",,,,,,,,,,,,,,,,,,,,,,,,,,,,,,,,,,,,,"MET09003/09/20 13:52:02 METAR KCQT 092152Z 00000KT 10SM CLR 23/02 A3000 RMK AO2 SLP157 T02280017","FM-15","7",,,,,,,,,,,,,,,,,,,,,,,,,,,,"2006-02-03"
"72287493134","2020-03-09T14:52:00","FM-15","7",,,"3.89","mi",,,,,,,"PENDING COOP",,,,,,,,,,,,,,,,,,,,,,,,,,,"29.99","39","73","0.00",,,,"29","29.99","CLR:00","29.79","10.00","55","070",,"5",,,,,,,,,,,,,,,,,,,,,,,,,,,,,,,,,,,,,"MET09003/09/20 14:52:02 METAR KCQT 092252Z 07004KT 10SM CLR 23/04 A2999 RMK AO2 SLP155 T02280039","FM-15","7",,,,,,,,,,,,,,,,,,,,,,,,,,,,"2006-02-03"
"72287493134","2020-03-09T15:52:00","FM-15","7",,,"3.89","mi",,,,,,,"PENDING COOP",,,,,,,,,,,,,,,,,,,,,,,,,,,"29.98","37","74","0.00",,"+0.05","6","26","29.97","CLR:00","29.78","10.00","55","100",,"6",,,,,,,,,,,,,,,,,,,,,,,,,,,,,,,,,,,,,"MET10803/09/20 15:52:02 METAR KCQT 092352Z 10005KT 10SM CLR 23/03 A2998 RMK AO2 SLP149 T02330028 10239 20172 56017","FM-15","7",,,,,,,,,,,,,,,,,,,,,,,,,,,,"2006-02-03"
"72287493134","2020-03-09T16:52:00","FM-15","7",,,"3.89","mi",,,,,,,"PENDING COOP",,,,,,,,,,,,,,,,,,,,,,,,,,,"30.00","39","73","0.00",,,,"29","29.99","CLR:00","29.80","10.00","55","000",,"0",,,,,,,,,,,,,,,,,,,,,,,,,,,,,,,,,,,,,"MET09003/09/20 16:52:01 METAR KCQT 100052Z 00000KT 10SM CLR 23/04 A3000 RMK AO2 SLP156 T02280039","FM-15","7",,,,,,,,,,,,,,,,,,,,,,,,,,,,"2006-02-03"
"72287493134","2020-03-09T17:52:00","FM-15","7",,,"3.89","mi",,,,,,,"PENDING COOP",,,,,,,,,,,,,,,,,,,,,,,,,,,"29.99","44","71","0.00",,,,"38","29.99","CLR:00","29.79","10.00","57","000",,"0",,,,,,,,,,,,,,,,,,,,,,,,,,,,,,,,,,,,,"MET09003/09/20 17:52:01 METAR KCQT 100152Z 00000KT 10SM CLR 22/07 A2999 RMK AO2 SLP155 T02170067","FM-15","7",,,,,,,,,,,,,,,,,,,,,,,,,,,,"2006-02-03"
"72287493134","2020-03-09T18:52:00","FM-15","7",,,"3.89","mi",,,,,,,"PENDING COOP",,,,,,,,,,,,,,,,,,,,,,,,,,,"29.99","37","71","0.00",,"-0.01","0","29","29.98","CLR:00","29.79","10.00","54","VRB","17","6",,,,,,,,,,,,,,,,,,,,,,,,,,,,,,,,,,,,,"MET09903/09/20 18:52:01 METAR KCQT 100252Z VRB05G15KT 10SM CLR 22/03 A2999 RMK AO2 SLP153 T02170028 50004","FM-15","7",,,,,,,,,,,,,,,,,,,,,,,,,,,,"2006-02-03"
"72287493134","2020-03-09T19:52:00","FM-15","7",,,"3.89","mi",,,,,,,"PENDING COOP",,,,,,,,,,,,,,,,,,,,,,,,,,,"30.07","50","65","0.00",,,,"59","30.07","CLR:00","29.87","10.00","57","VRB",,"9",,,,,,,,,,,,,,,,,,,,,,,,,,,,,,,,,,,,,"MET09003/09/20 19:52:01 METAR KCQT 100352Z 16008KT 10SM CLR 18/10 A3007 RMK AO2 SLP183 T01830100","FM-15","7",,,,,,,,,,,,,,,,,,,,,,,,,,,,"2006-02-03"
"72287493134","2020-03-09T20:52:00","FM-15","7",,,"3.89","mi",,,,,,,"PENDING COOP",,,,,,,,,,,,,,,,,,,,,,,,,,,"30.04","51","64","0.00",,,,"63","30.03","CLR:00","29.84","10.00","57","090",,"7",,,,,,,,,,,,,,,,,,,,,,,,,,,,,,,,,,,,,"MET09003/09/20 20:52:01 METAR KCQT 100452Z 09006KT 10SM CLR 18/11 A3004 RMK AO2 SLP169 T01780106","FM-15","7",,,,,,,,,,,,,,,,,,,,,,,,,,,,"2006-02-03"
"72287493134","2020-03-09T21:52:00","FM-15","7",,,"3.89","mi",,,,,,,"PENDING COOP",,,,,,,,,,,,,,,,,,,,,,,,,,,"30.08","50","64","0.00",,"-0.09","1","60","30.08","FEW:02 30 BKN:07 80","29.88","10.00","56","000",,"0",,,,,,,,,,,,,,,,,,,,,,,,,,,,,,,,,,,,,"MET11803/09/20 21:52:01 METAR KCQT 100552Z 00000KT 10SM FEW030 BKN080 18/10 A3008 RMK AO2 SLP185 T01780100 10233 20178 51032","FM-15","7",,,,,,,,,,,,,,,,,,,,,,,,,,,,"2006-02-03"
"72287493134","2020-03-09T22:52:00","FM-15","6",,,"3.89","mi",,,,,,,"PENDING COOP",,,,,,,,,,,,,,,,,,,,,,,,,,,"30.05","51","64","T","-RA:02 |RA |RA",,,"63","30.05","OVC:08 75","29.85","10.00","57",,,,,,,,,,,,,,,,,,,,,,,,,,,,,,,,,,,,,,,,"MET10903/09/20 22:52:01 METAR KCQT 100652Z      KT 10SM -RA OVC075 18/11 A3005 RMK AO2 RAB12 SLP175 P0000 T01780106","FM-15","6",,,,,,,,,,,,,,,,,,,,,,,,,,,,"2006-02-03"
"72287493134","2020-03-09T23:52:00","FM-15","7",,,"3.89","mi",,,,,,,"PENDING COOP",,,,,,,,,,,,,,,,,,,,,,,,,,,"30.06","52","62","0.04","RA:02 |RA |RA",,,"70","30.05","OVC:08 75","29.86","7.00","56","090",,"3",,,,,,,,,,,,,,,,,,,,,,,,,,,,,,,,,,,,,"MET11103/09/20 23:52:01 METAR KCQT 100752Z 09003KT 7SM RA OVC075 17/11 A3006 RMK AO2 SLP176 P0002 T01670111 402390117","FM-15","7",,,,,,,,,,,,,,,,,,,,,,,,,,,,"2006-02-03"
"72287493134","2020-03-09T23:59:00","SOD  ","6",,,"3.89","mi",,,,,,,"PENDING COOP",,,,"42","64","47","30.05","29.85","53","2.5","0","3.7","1","75","53","160","22","0.04",,,"160","12","RA",,,,,,,,,,,,,,,,,,,,,,,,,,,,,,,,,,,,,,,,,,,,,,,,,,,,,,,,"SOD74324 HR PRECIPITATION (IN): 0.04 SNOW DEPTH (IN):0     24 HR SNOWFALL (IN):0.0  24 HR MAX TEMP (F): 7524 HR MIN TEMP (F): 53AVERAGE STATION PRESSURE(D):29.854 MINIMUM SEA LEVEL PRESSURE:29.96 TIME OF OCCURRENCE:1840 PEAK WIND SPEED (MPH): 22 PEAK WIND DIR (DEG):160 PEAK WIND TIME (LST):      FASTEST 2MIN SPEED (MPH): 12FASTEST 2MIN DIR (DEG):160 FASTEST 2MIN TIME (LST):     AVERAGE WIND SPEED (MPH): 2.5 24 HR AVG TEMP (F): 64DEPART FROM NORMAL:  4  HEATING DEGREE DAYS:  1 COOLING DEGREE DAYS:  0 LATEST DAY MAX TEMP (0700-1900 LST): 75 LATEST NIGHT MIN TEMP(1900-0800 LST):53 HOURLY INCREMENTAL PRECIPITATION VALUES (IN):0.00 0.00 0.00 0.00 0.00 0.00 0.00 0.00 0.00 0.00 0.00 0.00 0.00 0.00 0.00 0.00 0.00 0.00 0.00 0.00 0.00 0.00T     0.04","SOD  ","6",,,,,,,,,,,,,,,,,,,,,,,,,"0611","1757",,"2006-02-03"
"72287493134","2020-03-10T00:52:00","FM-15","7",,,"3.89","mi",,,,,,,"PENDING COOP",,,,,,,,,,,,,,,,,,,,,,,,,,,"30.02","54","61","0.05","-RA:02 |RA |RA","+0.06","8","78","30.01","BKN:07 85 OVC:08 100","29.82","9.00","57","000",,"0",,,,,,,,,,,,,,,,,,,,,,,,,,,,,,,,,,,,,"MET12103/10/20 00:52:01 METAR KCQT 100852Z 00000KT 9SM -RA BKN085 OVC100 16/12 A3002 RMK AO2 SLP163 P0007 60009 T01610122 58022","FM-15","7",,,,,,,,,,,,,,,,,,,,,,,,,,,,"2006-02-03"
"72287493134","2020-03-10T01:52:00","FM-15","7",,,"3.89","mi",,,,,,,"PENDING COOP",,,,,,,,,,,,,,,,,,,,,,,,,,,"29.99","53","60","0.01",,,,"78","29.98","OVC:08 100","29.79","10.00","56","020",,"3",,,,,,,,,,,,,,,,,,,,,,,,,,,,,,,,,,,,,"MET10503/10/20 01:52:01 METAR KCQT 100952Z 02003KT 10SM OVC100 16/12 A2999 RMK AO2 RAE37 SLP153 P0001 T01560117","FM-15","7",,,,,,,,,,,,,,,,,,,,,,,,,,,,"2006-02-03"
"72287493134","2020-03-10T02:52:00","FM-15","7",,,"3.89","mi",,,,,,,"PENDING COOP",,,,,,,,,,,,,,,,,,,,,,,,,,,"29.98","51","61","0.01","-RA:02 |RA |RA",,,"70","29.98","OVC:08 85","29.78","10.00","56","090",,"5",,,,,,,,,,,,,,,,,,,,,,,,,,,,,,,,,,,,,"MET10903/10/20 02:52:01 METAR KCQT 101052Z 09004KT 10SM -RA OVC085 16/11 A2998 RMK AO2 RAB28 SLP152 P0001 T01610106","FM-15","7",,,,,,,,,,,,,,,,,,,,,,,,,,,,"2006-02-03"
"72287493134","2020-03-10T03:52:00","FM-15","7",,,"3.89","mi",,,,,,,"PENDING COOP",,,,,,,,,,,,,,,,,,,,,,,,,,,"29.99","52","61","T","-RA:02 |RA |RA","+0.02","5","72","29.99","SCT:04 36 BKN:07 47 OVC:08 70","29.79","10.00","56","090",,"8",,,,,,,,,,,,,,,,,,,,,,,,,,,,,,,,,,,,,"MET14703/10/20 03:52:01 METAR KCQT 101152Z 09007KT 10SM -RA SCT036 BKN047 OVC070 16/11 A2999 RMK AO2 SLP155 P0000 60011 70011 T01610111 10178 20156 55008","FM-15","7",,,,,,,,,,,,,,,,,,,,,,,,,,,,"2006-02-03"
"72287493134","2020-03-10T04:24:00","FM-16","7",,,"3.89","mi",,,,,,,"PENDING COOP",,,,,,,,,,,,,,,,,,,,,,,,,,,"30.00","53","60","T","-RA:02 |RA |RA",,,"78",,"BKN:07 26 OVC:08 35","29.80","6.00","56","VRB",,"9",,,,,,,,,,,,,,,,,,,,,,,,,,,,,,,,,,,,,"MET10203/10/20 04:24:02 SPECI KCQT 101224Z 09008KT 6SM -RA BKN026 OVC035 16/12 A3000 RMK AO2 P0000 T01560117","FM-16","7",,,,,,,,,,,,,,,,,,,,,,,,,,,,"2006-02-03"
"72287493134","2020-03-10T04:52:00","FM-15","7",,,"3.89","mi",,,,,,,"PENDING COOP",,,,,,,,,,,,,,,,,,,,,,,,,,,"30.00","53","59","0.01","-RA:02 |RA |RA",,,"81","29.99","FEW:02 10 BKN:07 19 OVC:08 32","29.80","7.00","56","090","18","9",,,,,,,,,,,,,,,,,,,,,,,,,,,,,,,,,,,,,"MET11903/10/20 04:52:02 METAR KCQT 101252Z 09008G16KT 7SM -RA FEW010 BKN019 OVC032 15/12 A3000 RMK AO2 SLP157 P0001 T01500117","FM-15","7",,,,,,,,,,,,,,,,,,,,,,,,,,,,"2006-02-03"
"72287493134","2020-03-10T05:52:00","FM-15","7",,,"3.89","mi",,,,,,,"PENDING COOP",,,,,,,,,,,,,,,,,,,,,,,,,,,"30.01","53","60","T","-RA:02 |RA |RA",,,"78","30.01","SCT:04 16 OVC:08 24","29.81","9.00","56","090","20","11",,,,,,,,,,,,,,,,,,,,,,,,,,,,,,,,,,,,,"MET12103/10/20 05:52:02 METAR KCQT 101352Z 09010G17KT 9SM -RA SCT016 OVC024 16/12 A3001 RMK AO2 RAE09B25 SLP162 P0000 T01560117","FM-15","7",,,,,,,,,,,,,,,,,,,,,,,,,,,,"2006-02-03"
"72287493134","2020-03-10T05:58:00","FM-16","7",,,"3.89","mi",,,,,,,"PENDING COOP",,,,,,,,,,,,,,,,,,,,,,,,,,,"30.01","53","60","T","-RA:02 |RA |RA",,,"78",,"BKN:07 14 BKN:07 24 OVC:08 30","29.81","6.00","56","080","22","15",,,,,,,,,,,,,,,,,,,,,,,,,,,,,,,,,,,,,"MET11203/10/20 05:58:02 SPECI KCQT 101358Z 08013G19KT 6SM -RA BKN014 BKN024 OVC030 16/12 A3001 RMK AO2 P0000 T01560117","FM-16","7",,,,,,,,,,,,,,,,,,,,,,,,,,,,"2006-02-03"
"72287493134","2020-03-10T06:03:00","FM-16","7",,,"3.89","mi",,,,,,,"PENDING COOP",,,,,,,,,,,,,,,,,,,,,,,,,,,"30.01","53","60","T","-RA:02 |RA |RA",,,"78",,"SCT:04 11 BKN:07 16 OVC:08 24","29.81","4.00","56","090","22","9",,,,,,,,,,,,,,,,,,,,,,,,,,,,,,,,,,,,,"MET11203/10/20 06:03:02 SPECI KCQT 101403Z 09008G19KT 4SM -RA SCT011 BKN016 OVC024 16/12 A3001 RMK AO2 P0000 T01560117","FM-16","7",,,,,,,,,,,,,,,,,,,,,,,,,,,,"2006-02-03"
"72287493134","2020-03-10T06:07:00","FM-16","7",,,"3.89","mi",,,,,,,"PENDING COOP",,,,,,,,,,,,,,,,,,,,,,,,,,,"30.01","54","60","0.01","-RA:02 |RA |RA",,,"80",,"SCT:04 8 BKN:07 14 OVC:08 24","29.81","3.00","57","090","22","9",,,,,,,,,,,,,,,,,,,,,,,,,,,,,,,,,,,,,"MET11203/10/20 06:07:02 SPECI KCQT 101407Z 09008G19KT 3SM -RA SCT008 BKN014 OVC024 16/12 A3001 RMK AO2 P0001 T01560122","FM-16","7",,,,,,,,,,,,,,,,,,,,,,,,,,,,"2006-02-03"
"72287493134","2020-03-10T06:29:00","FM-16","7",,,"3.89","mi",,,,,,,"PENDING COOP",,,,,,,,,,,,,,,,,,,,,,,,,,,"30.01","54","59","0.02","-RA:02 |RA |RA",,,"83",,"SCT:04 10 BKN:07 18 OVC:08 29","29.81","2.50","56","080",,"8",,,,,,,,,,,,,,,,,,,,,,,,,,,,,,,,,,,,,"MET11303/10/20 06:29:02 SPECI KCQT 101429Z 08007KT 2 1/2SM -RA SCT010 BKN018 OVC029 15/12 A3001 RMK AO2 P0002 T01500122","FM-16","7",,,,,,,,,,,,,,,,,,,,,,,,,,,,"2006-02-03"
"72287493134","2020-03-10T06:33:00","FM-16","7",,,"3.89","mi",,,,,,,"PENDING COOP",,,,,,,,,,,,,,,,,,,,,,,,,,,"30.01","54","59","0.02","-RA:02 |RA |RA",,,"83",,"SCT:04 10 BKN:07 18 OVC:08 29","29.81","3.00","56","080","18","9",,,,,,,,,,,,,,,,,,,,,,,,,,,,,,,,,,,,,"MET11203/10/20 06:33:02 SPECI KCQT 101433Z 08008G16KT 3SM -RA SCT010 BKN018 OVC029 15/12 A3001 RMK AO2 P0002 T01500122","FM-16","7",,,,,,,,,,,,,,,,,,,,,,,,,,,,"2006-02-03"
"72287493134","2020-03-10T06:52:00","FM-15","7",,,"3.89","mi",,,,,,,"PENDING COOP",,,,,,,,,,,,,,,,,,,,,,,,,,,"30.01","54","60","0.02","HZ:7 |FU |HZ","-0.02","0","80","30.01","OVC:08 22","29.81","6.00","57","080","17","10",,,,,,,,,,,,,,,,,,,,,,,,,,,,,,,,,,,,,"MET12203/10/20 06:52:02 METAR KCQT 101452Z 08009G15KT 6SM HZ OVC022 16/12 A3001 RMK AO2 RAE40 SLP161 P0002 60003 T01560122 50006","FM-15","7",,,,,,,,,,,,,,,,,,,,,,,,,,,,"2006-02-03"
"72287493134","2020-03-10T07:52:00","FM-15","7",,,"3.89","mi",,,,,,,"PENDING COOP",,,,,,,,,,,,,,,,,,,,,,,,,,,"30.03","54","61","T",,,,"78","30.03","OVC:08 19","29.83","10.00","57","070",,"8",,,,,,,,,,,,,,,,,,,,,,,,,,,,,,,,,,,,,"MET10803/10/20 07:52:02 METAR KCQT 101552Z 07007KT 10SM OVC019 16/12 A3003 RMK AO2 RAB11E21 SLP168 P0000 T01610122","FM-15","7",,,,,,,,,,,,,,,,,,,,,,,,,,,,"2006-02-03"
"72287493134","2020-03-10T08:52:00","FM-15","7",,,"3.89","mi",,,,,,,"PENDING COOP",,,,,,,,,,,,,,,,,,,,,,,,,,,"30.04","54","64","0.00",,,,"70","30.03","OVC:08 20","29.84","10.00","58","VRB",,"8",,,,,,,,,,,,,,,,,,,,,,,,,,,,,,,,,,,,,"MET09303/10/20 08:52:02 METAR KCQT 101652Z 08007KT 10SM OVC020 18/12 A3004 RMK AO2 SLP171 T01780122","FM-15","7",,,,,,,,,,,,,,,,,,,,,,,,,,,,"2006-02-03"
"72287493134","2020-03-10T09:52:00","FM-15","7",,,"3.89","mi",,,,,,,"PENDING COOP",,,,,,,,,,,,,,,,,,,,,,,,,,,"30.04","54","66","0.00",,"-0.03","1","65","30.03","BKN:07 20 OVC:08 31","29.84","10.00","59","VRB",,"9",,,,,,,,,,,,,,,,,,,,,,,,,,,,,,,,,,,,,"MET12403/10/20 09:52:02 METAR KCQT 101752Z 08008KT 10SM BKN020 OVC031 19/12 A3004 RMK AO2 SLP171 60003 T01890122 10189 20150 51010","FM-15","7",,,,,,,,,,,,,,,,,,,,,,,,,,,,"2006-02-03"
"72287493134","2020-03-10T10:52:00","FM-15","7",,,"3.89","mi",,,,,,,"PENDING COOP",,,,,,,,,,,,,,,,,,,,,,,,,,,"30.02","57","67","0.01","-RA:02 |RA |RA",,,"71","30.01","OVC:08 21","29.82","4.00","61","VRB",,"7",,,,,,,,,,,,,,,,,,,,,,,,,,,,,,,,,,,,,"MET10803/10/20 10:52:02 METAR KCQT 101852Z VRB06KT 4SM -RA OVC021 19/14 A3002 RMK AO2 RAB47 SLP164 P0001 T01940139","FM-15","7",,,,,,,,,,,,,,,,,,,,,,,,,,,,"2006-02-03"
"72287493134","2020-03-10T11:52:00","FM-15","7",,,"3.89","mi",,,,,,,"PENDING COOP",,,,,,,,,,,,,,,,,,,,,,,,,,,"30.01","58","66","T","-RA:02 |RA |RA",,,"75","30.01","OVC:08 19","29.81","5.00","61","110",,"5",,,,,,,,,,,,,,,,,,,,,,,,,,,,,,,,,,,,,"MET10203/10/20 11:52:02 METAR KCQT 101952Z 11004KT 5SM -RA OVC019 19/14 A3001 RMK AO2 SLP162 P0000 T01890144","FM-15","7",,,,,,,,,,,,,,,,,,,,,,,,,,,,"2006-02-03"
"72287493134","2020-03-10T12:07:00","FM-16","7",,,"3.89","mi",,,,,,,"PENDING COOP",,,,,,,,,,,,,,,,,,,,,,,,,,,"30.01","59","67","T",,,,"76",,"BKN:07 14 OVC:08 20","29.81","10.00","62","VRB",,"5",,,,,,,,,,,,,,,,,,,,,,,,,,,,,,,,,,,,,"MET10703/10/20 12:07:02 SPECI KCQT 102007Z VRB04KT 10SM BKN014 OVC020 19/15 A3001 RMK AO2 RAE1954 P0000 T01940150","FM-16","7",,,,,,,,,,,,,,,,,,,,,,,,,,,,"2006-02-03"
"72287493134","2020-03-10T12:49:00","FM-16","7",,,"3.89","mi",,,,,,,"PENDING COOP",,,,,,,,,,,,,,,,,,,,,,,,,,,"29.98","60","66","0.01","-RA:02 |RA |RA",,,"81",,"SCT:04 10 OVC:08 14","29.78","2.50","62","120",,"5",,,,,,,,,,,,,,,,,,,,,,,,,,,,,,,,,,,,,"MET11703/10/20 12:49:02 SPECI KCQT 102049Z 12004KT 2 1/2SM -RA SCT010 OVC014 19/16 A2998 RMK AO2 RAE1954B12 P0001 T01890156","FM-16","7",,,,,,,,,,,,,,,,,,,,,,,,,,,,"2006-02-03"
"72287493134","2020-03-10T12:52:00","FM-15","7",,,"3.89","mi",,,,,,,"PENDING COOP",,,,,,,,,,,,,,,,,,,,,,,,,,,"29.98","60","66","0.01","-RA:02 |RA |RA","+0.06","8","81","29.98","FEW:02 7 OVC:08 14","29.78","2.50","62","VRB",,"5",,,,,,,,,,,,,,,,,,,,,,,,,,,,,,,,,,,,,"MET13603/10/20 12:52:02 METAR KCQT 102052Z VRB04KT 2 1/2SM -RA FEW007 OVC014 19/16 A2998 RMK AO2 RAE1954B12 SLP151 P0001 60002 T01890156 58020","FM-15","7",,,,,,,,,,,,,,,,,,,,,,,,,,,,"2006-02-03"
"72287493134","2020-03-10T12:56:00","FM-16","7",,,"3.89","mi",,,,,,,"PENDING COOP",,,,,,,,,,,,,,,,,,,,,,,,,,,"29.98","60","66","T","-RA:02 |RA |RA",,,"81",,"SCT:04 9 OVC:08 16","29.78","2.50","62","VRB",,"8",,,,,,,,,,,,,,,,,,,,,,,,,,,,,,,,,,,,,"MET10603/10/20 12:56:02 SPECI KCQT 102056Z 12007KT 2 1/2SM -RA SCT009 OVC016 19/16 A2998 RMK AO2 P0000 T01890156","FM-16","7",,,,,,,,,,,,,,,,,,,,,,,,,,,,"2006-02-03"
"72287493134","2020-03-10T12:58:00","FM-16","7",,,"3.89","mi",,,,,,,"PENDING COOP",,,,,,,,,,,,,,,,,,,,,,,,,,,"29.98","60","65","T","-RA:02 |RA |RA",,,"84",,"BKN:07 9 OVC:08 16","29.78","3.00","62","VRB",,"5",,,,,,,,,,,,,,,,,,,,,,,,,,,,,,,,,,,,,"MET11403/10/20 12:58:02 SPECI KCQT 102058Z VRB04KT 3SM -RA BKN009 OVC016 18/16 A2998 RMK AO2 CIG 006V012 P0000 T01830156","FM-16","7",,,,,,,,,,,,,,,,,,,,,,,,,,,,"2006-02-03"
"72287493134","2020-03-10T13:04:00","FM-16","7",,,"3.89","mi",,,,,,,"PENDING COOP",,,,,,,,,,,,,,,,,,,,,,,,,,,"29.98","60","65","T","RA:02 |RA |RA",,,"84",,"BKN:07 9 OVC:08 16","29.78","2.00","62","VRB",,"3",,,,,,,,,,,,,,,,,,,,,,,,,,,,,,,,,,,,,"MET10103/10/20 13:04:02 SPECI KCQT 102104Z VRB03KT 2SM RA BKN009 OVC016 18/16 A2998 RMK AO2 P0000 T01830156","FM-16","7",,,,,,,,,,,,,,,,,,,,,,,,,,,,"2006-02-03"
"72287493134","2020-03-10T13:09:00","FM-16","7",,,"3.89","mi",,,,,,,"PENDING COOP",,,,,,,,,,,,,,,,,,,,,,,,,,,"29.98","60","65","0.03","+RA:02 |RA |RA",,,"84",,"SCT:04 9 BKN:07 14 OVC:08 20","29.78","1.50","62","VRB",,"5",,,,,,,,,,,,,,,,,,,,,,,,,,,,,,,,,,,,,"MET11303/10/20 13:09:02 SPECI KCQT 102109Z VRB04KT 1 1/2SM +RA SCT009 BKN014 OVC020 18/16 A2998 RMK AO2 P0003 T01830156","FM-16","7",,,,,,,,,,,,,,,,,,,,,,,,,,,,"2006-02-03"
"72287493134","2020-03-10T13:12:00","FM-16","7",,,"3.89","mi",,,,,,,"PENDING COOP",,,,,,,,,,,,,,,,,,,,,,,,,,,"29.97","60","65","0.06","+RA:02 |RA |RA",,,"84",,"SCT:04 9 OVC:08 16","29.77","1.25","62","100",,"6",,,,,,,,,,,,,,,,,,,,,,,,,,,,,,,,,,,,,"MET10603/10/20 13:12:02 SPECI KCQT 102112Z 10005KT 1 1/4SM +RA SCT009 OVC016 18/16 A2997 RMK AO2 P0006 T01830156","FM-16","7",,,,,,,,,,,,,,,,,,,,,,,,,,,,"2006-02-03"
"72287493134","2020-03-10T13:21:00","FM-16","6",,,"3.89","mi",,,,,,,"PENDING COOP",,,,,,,,,,,,,,,,,,,,,,,,,,,"29.97","59","65",,,,,"81",,,"29.77",,"61",,,,,,,,,,,,,,,,,,,,,,,,,,,,,,,,,,,,,,,,"MET07703/10/20 13:21:02 SPECI KCQT 102121Z      KT NO A2997 RMK AO2 P0009 T01830150","FM-16","6",,,,,,,,,,,,,,,,,,,,,,,,,,,,"2006-02-03"
"72287493134","2020-03-10T13:34:00","FM-16","7",,,"3.89","mi",,,,,,,"PENDING COOP",,,,,,,,,,,,,,,,,,,,,,,,,,,"29.97","60","66","0.09","-RA:02 |RA |RA",,,"81",,"BKN:07 14 OVC:08 19","29.77","9.00","62","VRB",,"3",,,,,,,,,,,,,,,,,,,,,,,,,,,,,,,,,,,,,"MET10203/10/20 13:34:02 SPECI KCQT 102134Z VRB03KT 9SM -RA BKN014 OVC019 19/16 A2997 RMK AO2 P0009 T01890156","FM-16","7",,,,,,,,,,,,,,,,,,,,,,,,,,,,"2006-02-03"
"72287493134","2020-03-10T13:52:00","FM-15","7",,,"3.89","mi",,,,,,,"PENDING COOP",,,,,,,,,,,,,,,,,,,,,,,,,,,"29.97","60","66","0.09",,,,"81","29.97","OVC:08 14","29.77","10.00","62","VRB",,"3",,,,,,,,,,,,,,,,,,,,,,,,,,,,,,,,,,,,,"MET10503/10/20 13:52:02 METAR KCQT 102152Z VRB03KT 10SM OVC014 19/16 A2997 RMK AO2 RAE35 SLP148 P0009 T01890156","FM-15","7",,,,,,,,,,,,,,,,,,,,,,,,,,,,"2006-02-03"
"72287493134","2020-03-10T14:20:00","FM-16","7",,,"3.89","mi",,,,,,,"PENDING COOP",,,,,,,,,,,,,,,,,,,,,,,,,,,"29.97","61","67","0.01","RA:02 |RA |RA",,,"81",,"OVC:08 13","29.77","2.50V","63","VRB",,"3",,,,,,,,,,,,,,,,,,,,,,,,,,,,,,,,,,,,,"MET11603/10/20 14:20:02 SPECI KCQT 102220Z VRB03KT 2 1/2SM RA OVC013 19/16 A2997 RMK AO2 VIS 1 1/2V4 RAB03 P0001 T01940161","FM-16","7",,,,,,,,,,,,,,,,,,,,,,,,,,,,"2006-02-03"
"72287493134","2020-03-10T14:28:00","FM-16","7",,,"3.89","mi",,,,,,,"PENDING COOP",,,,,,,,,,,,,,,,,,,,,,,,,,,"29.97","61","66","0.02","-RA:02 |RA |RA",,,"84",,"BKN:07 13 OVC:08 18","29.77","4.00","63","130",,"5",,,,,,,,,,,,,,,,,,,,,,,,,,,,,,,,,,,,,"MET10803/10/20 14:28:02 SPECI KCQT 102228Z 13004KT 4SM -RA BKN013 OVC018 19/16 A2997 RMK AO2 RAB03 P0002 T01890161","FM-16","7",,,,,,,,,,,,,,,,,,,,,,,,,,,,"2006-02-03"
"72287493134","2020-03-10T14:35:00","FM-16","7",,,"3.89","mi",,,,,,,"PENDING COOP",,,,,,,,,,,,,,,,,,,,,,,,,,,"29.97","61","66","0.03","RA:02 |RA |RA",,,"84",,"SCT:04 8 BKN:07 11 OVC:08 17","29.77","3.00","63","VRB",,"3",,,,,,,,,,,,,,,,,,,,,,,,,,,,,,,,,,,,,"MET11403/10/20 14:35:02 SPECI KCQT 102235Z VRB03KT 3SM RA SCT008 BKN011 OVC017 19/16 A2997 RMK AO2 RAB03 P0003 T01890161","FM-16","7",,,,,,,,,,,,,,,,,,,,,,,,,,,,"2006-02-03"
"72287493134","2020-03-10T14:40:00","FM-16","6",,,"3.89","mi",,,,,,,"PENDING COOP",,,,,,,,,,,,,,,,,,,,,,,,,,,"29.97","61","66",,"-RA:02 |RA |RA",,,"84",,"BKN:07 8 OVC:08 17","29.77","4.00","63",,,,,,,,,,,,,,,,,,,,,,,,,,,,,,,,,,,,,,,,"MET10803/10/20 14:40:02 SPECI KCQT 102240Z      KT 4SM -RA BKN008 OVC017 19/16 A2997 RMK AO2 RAB03 P0004 T01890161","FM-16","6",,,,,,,,,,,,,,,,,,,,,,,,,,,,"2006-02-03"
"72287493134","2020-03-10T14:52:00","FM-15","7",,,"3.89","mi",,,,,,,"PENDING COOP",,,,,,,,,,,,,,,,,,,,,,,,,,,"29.97","61","66","0.04","-RA:02 |RA |RA",,,"84","29.96","BKN:07 10 OVC:08 17","29.77","5.00","63","VRB",,"3",,,,,,,,,,,,,,,,,,,,,,,,,,,,,,,,,,,,,"MET11503/10/20 14:52:02 METAR KCQT 102252Z VRB03KT 5SM -RA BKN010 OVC017 19/16 A2997 RMK AO2 RAB03 SLP146 P0004 T01890161","FM-15","7",,,,,,,,,,,,,,,,,,,,,,,,,,,,"2006-02-03"
"72287493134","2020-03-10T15:52:00","FM-15","7",,,"3.89","mi",,,,,,,"PENDING COOP",,,,,,,,,,,,,,,,,,,,,,,,,,,"29.97","60","66","T",,"+0.01","5","81","29.97","BKN:07 13 OVC:08 19","29.77","10.00","62","VRB",,"3",,,,,,,,,,,,,,,,,,,,,,,,,,,,,,,,,,,,,"MET13603/10/20 15:52:02 METAR KCQT 102352Z VRB03KT 10SM BKN013 OVC019 19/16 A2997 RMK AO2 RAE00 SLP148 P0000 60015 T01890156 10194 20183 55002","FM-15","7",,,,,,,,,,,,,,,,,,,,,,,,,,,,"2006-02-03"
"72287493134","2020-03-10T16:00:00","FM-16","7",,,"3.89","mi",,,,,,,"PENDING COOP",,,,,,,,,,,,,,,,,,,,,,,,,,,"29.97","60","66",,,,,"81",,"SCT:04 13 BKN:07 17 OVC:08 25","29.77","10.00","62","VRB",,"5",,,,,,,,,,,,,,,,,,,,,,,,,,,,,,,,,,,,,"MET10003/10/20 16:00:01 SPECI KCQT 110000Z VRB04KT 10SM SCT013 BKN017 OVC025 19/16 A2997 RMK AO2 T01890156","FM-16","7",,,,,,,,,,,,,,,,,,,,,,,,,,,,"2006-02-03"
"72287493134","2020-03-10T16:35:00","FM-16","7",,,"3.89","mi",,,,,,,"PENDING COOP",,,,,,,,,,,,,,,,,,,,,,,,,,,"29.98","58","66",,,,,"75",,"BKN:07 14 OVC:08 22","29.78","10.00","61","VRB",,"3",,,,,,,,,,,,,,,,,,,,,,,,,,,,,,,,,,,,,"MET09303/10/20 16:35:01 SPECI KCQT 110035Z VRB03KT 10SM BKN014 OVC022 19/14 A2998 RMK AO2 T01890144","FM-16","7",,,,,,,,,,,,,,,,,,,,,,,,,,,,"2006-02-03"
"72287493134","2020-03-10T16:43:00","FM-16","7",,,"3.89","mi",,,,,,,"PENDING COOP",,,,,,,,,,,,,,,,,,,,,,,,,,,"29.98","59","66",,,,,"78",,"BKN:07 15 OVC:08 19","29.78","10.00","62","150",,"3",,,,,,,,,,,,,,,,,,,,,,,,,,,,,,,,,,,,,"MET09303/10/20 16:43:01 SPECI KCQT 110043Z 15003KT 10SM BKN015 OVC019 19/15 A2998 RMK AO2 T01890150","FM-16","7",,,,,,,,,,,,,,,,,,,,,,,,,,,,"2006-02-03"
"72287493134","2020-03-10T16:52:00","FM-15","7",,,"3.89","mi",,,,,,,"PENDING COOP",,,,,,,,,,,,,,,,,,,,,,,,,,,"29.98","58","66","0.00",,,,"75","29.98","BKN:07 15 OVC:08 20","29.78","10.00","61","VRB",,"3",,,,,,,,,,,,,,,,,,,,,,,,,,,,,,,,,,,,,"MET10003/10/20 16:52:01 METAR KCQT 110052Z VRB03KT 10SM BKN015 OVC020 19/14 A2998 RMK AO2 SLP151 T01890144","FM-15","7",,,,,,,,,,,,,,,,,,,,,,,,,,,,"2006-02-03"
"72287493134","2020-03-10T17:46:00","FM-16","7",,,"3.89","mi",,,,,,,"PENDING COOP",,,,,,,,,,,,,,,,,,,,,,,,,,,"29.99","57","66",,,,,"73",,"SCT:04 23 BKN:07 65","29.79","10.00","61","130",,"3",,,,,,,,,,,,,,,,,,,,,,,,,,,,,,,,,,,,,"MET09303/10/20 17:46:01 SPECI KCQT 110146Z 13003KT 10SM SCT023 BKN065 19/14 A2999 RMK AO2 T01890139","FM-16","7",,,,,,,,,,,,,,,,,,,,,,,,,,,,"2006-02-03"
"72287493134","2020-03-10T17:52:00","FM-15","7",,,"3.89","mi",,,,,,,"PENDING COOP",,,,,,,,,,,,,,,,,,,,,,,,,,,"29.99","57","66","0.00",,,,"73","29.98","SCT:04 23","29.79","10.00","61","VRB",,"5",,,,,,,,,,,,,,,,,,,,,,,,,,,,,,,,,,,,,"MET09303/10/20 17:52:01 METAR KCQT 110152Z VRB04KT 10SM SCT023 19/14 A2999 RMK AO2 SLP153 T01890139","FM-15","7",,,,,,,,,,,,,,,,,,,,,,,,,,,,"2006-02-03"
"72287493134","2020-03-10T17:58:00","FM-16","7",,,"3.89","mi",,,,,,,"PENDING COOP",,,,,,,,,,,,,,,,,,,,,,,,,,,"29.99","57","65",,,,,"76",,"BKN:07 23","29.79","10.00","60","VRB",,"5",,,,,,,,,,,,,,,,,,,,,,,,,,,,,,,,,,,,,"MET08603/10/20 17:58:01 SPECI KCQT 110158Z VRB04KT 10SM BKN023 18/14 A2999 RMK AO2 T01830139","FM-16","7",,,,,,,,,,,,,,,,,,,,,,,,,,,,"2006-02-03"
"72287493134","2020-03-10T18:02:00","FM-16","7",,,"3.89","mi",,,,,,,"PENDING COOP",,,,,,,,,,,,,,,,,,,,,,,,,,,"29.99","57","65",,,,,"76",,"SCT:04 23","29.79","10.00","60","000",,"0",,,,,,,,,,,,,,,,,,,,,,,,,,,,,,,,,,,,,"MET08603/10/20 18:02:01 SPECI KCQT 110202Z 00000KT 10SM SCT023 18/14 A2999 RMK AO2 T01830139","FM-16","7",,,,,,,,,,,,,,,,,,,,,,,,,,,,"2006-02-03"
"72287493134","2020-03-10T18:52:00","FM-15","7",,,"3.89","mi",,,,,,,"PENDING COOP",,,,,,,,,,,,,,,,,,,,,,,,,,,"30.00","57","64","0.00",,"-0.03","3","78","30.00","FEW:02 21","29.80","10.00","60","000",,"0",,,,,,,,,,,,,,,,,,,,,,,,,,,,,,,,,,,,,"MET09903/10/20 18:52:01 METAR KCQT 110252Z 00000KT 10SM FEW021 18/14 A3000 RMK AO2 SLP158 T01780139 53009","FM-15","7",,,,,,,,,,,,,,,,,,,,,,,,,,,,"2006-02-03"
"72287493134","2020-03-10T19:28:00","FM-16","7",,,"3.89","mi",,,,,,,"PENDING COOP",,,,,,,,,,,,,,,,,,,,,,,,,,,"30.02","57","64",,,,,"78",,"SCT:04 12 BKN:07 20","29.82","10.00","60","000",,"0",,,,,,,,,,,,,,,,,,,,,,,,,,,,,,,,,,,,,"MET09303/10/20 19:28:01 SPECI KCQT 110328Z 00000KT 10SM SCT012 BKN020 18/14 A3002 RMK AO2 T01780139","FM-16","7",,,,,,,,,,,,,,,,,,,,,,,,,,,,"2006-02-03"
"72287493134","2020-03-10T19:38:00","FM-16","7",,,"3.89","mi",,,,,,,"PENDING COOP",,,,,,,,,,,,,,,,,,,,,,,,,,,"30.01","57","64",,,,,"78",,"BKN:07 12 BKN:07 20","29.81","10.00","60","000",,"0",,,,,,,,,,,,,,,,,,,,,,,,,,,,,,,,,,,,,"MET09303/10/20 19:38:01 SPECI KCQT 110338Z 00000KT 10SM BKN012 BKN020 18/14 A3001 RMK AO2 T01780139","FM-16","7",,,,,,,,,,,,,,,,,,,,,,,,,,,,"2006-02-03"
"72287493134","2020-03-10T19:52:00","FM-15","7",,,"3.89","mi",,,,,,,"PENDING COOP",,,,,,,,,,,,,,,,,,,,,,,,,,,"30.01","58","64","0.00",,,,"81","30.01","BKN:07 11 BKN:07 20 OVC:08 55","29.81","10.00","60","130",,"3",,,,,,,,,,,,,,,,,,,,,,,,,,,,,,,,,,,,,"MET10703/10/20 19:52:01 METAR KCQT 110352Z 13003KT 10SM BKN011 BKN020 OVC055 18/14 A3001 RMK AO2 SLP162 T01780144","FM-15","7",,,,,,,,,,,,,,,,,,,,,,,,,,,,"2006-02-03"
"72287493134","2020-03-10T19:58:00","FM-16","7",,,"3.89","mi",,,,,,,"PENDING COOP",,,,,,,,,,,,,,,,,,,,,,,,,,,"30.02","57","64",,,,,"78",,"SCT:04 12 SCT:04 18 OVC:08 55","29.82","10.00","60","000",,"0",,,,,,,,,,,,,,,,,,,,,,,,,,,,,,,,,,,,,"MET10003/10/20 19:58:01 SPECI KCQT 110358Z 00000KT 10SM SCT012 SCT018 OVC055 18/14 A3002 RMK AO2 T01780139","FM-16","7",,,,,,,,,,,,,,,,,,,,,,,,,,,,"2006-02-03"
"72287493134","2020-03-10T20:23:00","FM-16","7",,,"3.89","mi",,,,,,,"PENDING COOP",,,,,,,,,,,,,,,,,,,,,,,,,,,"30.02","57","64",,,,,"78",,"BKN:07 24 OVC:08 60","29.82","10.00","60","000",,"0",,,,,,,,,,,,,,,,,,,,,,,,,,,,,,,,,,,,,"MET09303/10/20 20:23:01 SPECI KCQT 110423Z 00000KT 10SM BKN024 OVC060 18/14 A3002 RMK AO2 T01780139","FM-16","7",,,,,,,,,,,,,,,,,,,,,,,,,,,,"2006-02-03"
"72287493134","2020-03-10T20:52:00","FM-15","7",,,"3.89","mi",,,,,,,"PENDING COOP",,,,,,,,,,,,,,,,,,,,,,,,,,,"30.02","57","64","0.00",,,,"78","30.02","BKN:07 26 BKN:07 32 OVC:08 60","29.82","10.00","60","000",,"0",,,,,,,,,,,,,,,,,,,,,,,,,,,,,,,,,,,,,"MET10703/10/20 20:52:01 METAR KCQT 110452Z 00000KT 10SM BKN026 BKN032 OVC060 18/14 A3002 RMK AO2 SLP165 T01780139","FM-15","7",,,,,,,,,,,,,,,,,,,,,,,,,,,,"2006-02-03"
"72287493134","2020-03-10T20:57:00","FM-16","7",,,"3.89","mi",,,,,,,"PENDING COOP",,,,,,,,,,,,,,,,,,,,,,,,,,,"30.02","57","64",,,,,"78",,"SCT:04 26 BKN:07 32 BKN:07 60","29.82","10.00","60","VRB",,"5",,,,,,,,,,,,,,,,,,,,,,,,,,,,,,,,,,,,,"MET10003/10/20 20:57:01 SPECI KCQT 110457Z VRB04KT 10SM SCT026 BKN032 BKN060 18/14 A3002 RMK AO2 T01780139","FM-16","7",,,,,,,,,,,,,,,,,,,,,,,,,,,,"2006-02-03"
"72287493134","2020-03-10T21:47:00","FM-16","7",,,"3.89","mi",,,,,,,"PENDING COOP",,,,,,,,,,,,,,,,,,,,,,,,,,,"30.03","58","64",,,,,"81",,"BKN:07 25 BKN:07 32 OVC:08 55","29.83","10.00","60","000",,"0",,,,,,,,,,,,,,,,,,,,,,,,,,,,,,,,,,,,,"MET10003/10/20 21:47:01 SPECI KCQT 110547Z 00000KT 10SM BKN025 BKN032 OVC055 18/14 A3003 RMK AO2 T01780144","FM-16","7",,,,,,,,,,,,,,,,,,,,,,,,,,,,"2006-02-03"
"72287493134","2020-03-10T21:52:00","FM-15","7",,,"3.89","mi",,,,,,,"PENDING COOP",,,,,,,,,,,,,,,,,,,,,,,,,,,"30.04","58","64","0.00",,"-0.04","1","81","30.03","BKN:07 25 OVC:08 31","29.84","10.00","60","000",,"0",,,,,,,,,,,,,,,,,,,,,,,,,,,,,,,,,,,,,"MET11803/10/20 21:52:01 METAR KCQT 110552Z 00000KT 10SM BKN025 OVC031 18/14 A3004 RMK AO2 SLP169 T01780144 10194 20172 51012","FM-15","7",,,,,,,,,,,,,,,,,,,,,,,,,,,,"2006-02-03"
"72287493134","2020-03-10T22:40:00","FM-16","7",,,"3.89","mi",,,,,,,"PENDING COOP",,,,,,,,,,,,,,,,,,,,,,,,,,,"30.03","57","64",,,,,"78",,"SCT:04 26 BKN:07 55","29.83","10.00","60","000",,"0",,,,,,,,,,,,,,,,,,,,,,,,,,,,,,,,,,,,,"MET09303/10/20 22:40:01 SPECI KCQT 110640Z 00000KT 10SM SCT026 BKN055 18/14 A3003 RMK AO2 T01780139","FM-16","7",,,,,,,,,,,,,,,,,,,,,,,,,,,,"2006-02-03"
"72287493134","2020-03-10T22:52:00","FM-15","7",,,"3.89","mi",,,,,,,"PENDING COOP",,,,,,,,,,,,,,,,,,,,,,,,,,,"30.04","57","63","0.00",,,,"81","30.03","FEW:02 26 BKN:07 38 BKN:07 55","29.84","10.00","60","000",,"0",,,,,,,,,,,,,,,,,,,,,,,,,,,,,,,,,,,,,"MET10703/10/20 22:52:01 METAR KCQT 110652Z 00000KT 10SM FEW026 BKN038 BKN055 17/14 A3004 RMK AO2 SLP169 T01720139","FM-15","7",,,,,,,,,,,,,,,,,,,,,,,,,,,,"2006-02-03"
"72287493134","2020-03-10T23:52:00","FM-15","7",,,"3.89","mi",,,,,,,"PENDING COOP",,,,,,,,,,,,,,,,,,,,,,,,,,,"30.03","57","63","0.00",,,,"81","30.03","OVC:08 32","29.83","10.00","60","000",,"0",,,,,,,,,,,,,,,,,,,,,,,,,,,,,,,,,,,,,"MET10303/10/20 23:52:01 METAR KCQT 110752Z 00000KT 10SM OVC032 17/14 A3003 RMK AO2 SLP169 T01720139 401940150","FM-15","7",,,,,,,,,,,,,,,,,,,,,,,,,,,,"2006-02-03"
"72287493134","2020-03-10T23:59:00","SOD  ","6",,,"3.89","mi",,,,,,,"PENDING COOP",,,,"56","63","77","30.00","29.80","59","4.8","0","2.7","2","67","59","080","22","0.25",,,"080","15","RA HZ",,,,,,,,,,,,,,,,,,,,,,,,,,,,,,,,,,,,,,,,,,,,,,,,,,,,,,,,"SOD76024 HR PRECIPITATION (IN): 0.25 SNOW DEPTH (IN):0     24 HR SNOWFALL (IN):0.0  WEATHER(CODE):8  24 HR MAX TEMP (F): 6724 HR MIN TEMP (F): 59AVERAGE STATION PRESSURE(D):29.801 MINIMUM SEA LEVEL PRESSURE:29.96 TIME OF OCCURRENCE:1527 PEAK WIND SPEED (MPH): 22 PEAK WIND DIR (DEG): 80 PEAK WIND TIME (LST):      FASTEST 2MIN SPEED (MPH): 15FASTEST 2MIN DIR (DEG): 80 FASTEST 2MIN TIME (LST):     AVERAGE WIND SPEED (MPH): 4.8 24 HR AVG TEMP (F): 63DEPART FROM NORMAL:  3  HEATING DEGREE DAYS:  2 COOLING DEGREE DAYS:  0 LATEST DAY MAX TEMP (0700-1900 LST): 67 LATEST NIGHT MIN TEMP(1900-0800 LST):59 HOURLY INCREMENTAL PRECIPITATION VALUES (IN):0.05 0.01 0.01T     0.01T     0.02T     0.00 0.00 0.01T     0.01 0.09 0.04T     0.00 0.00 0.00 0.00 0.00 0.00 0.00 0.00","SOD  ","6",,,,,,,,,,,,,,,,,,,,,,,,,"0609","1758",,"2006-02-03"
"72287493134","2020-03-11T00:35:00","FM-16","7",,,"3.89","mi",,,,,,,"PENDING COOP",,,,,,,,,,,,,,,,,,,,,,,,,,,"30.04","57","63",,,,,"81",,"BKN:07 26 BKN:07 55 OVC:08 70","29.84","10.00","60","000",,"0",,,,,,,,,,,,,,,,,,,,,,,,,,,,,,,,,,,,,"MET10003/11/20 00:35:01 SPECI KCQT 110835Z 00000KT 10SM BKN026 BKN055 OVC070 17/14 A3004 RMK AO2 T01720139","FM-16","7",,,,,,,,,,,,,,,,,,,,,,,,,,,,"2006-02-03"
"72287493134","2020-03-11T00:52:00","FM-15","7",,,"3.89","mi",,,,,,,"PENDING COOP",,,,,,,,,,,,,,,,,,,,,,,,,,,"30.03","57","63","0.00",,"+0.00","8","81","30.03","BKN:07 24 OVC:08 29","29.83","10.00","60","090",,"3",,,,,,,,,,,,,,,,,,,,,,,,,,,,,,,,,,,,,"MET10603/11/20 00:52:01 METAR KCQT 110852Z 09003KT 10SM BKN024 OVC029 17/14 A3003 RMK AO2 SLP168 T01720139 58001","FM-15","7",,,,,,,,,,,,,,,,,,,,,,,,,,,,"2006-02-03"
"72287493134","2020-03-11T00:58:00","FM-16","7",,,"3.89","mi",,,,,,,"PENDING COOP",,,,,,,,,,,,,,,,,,,,,,,,,,,"30.03","57","63",,,,,"81",,"FEW:02 8 OVC:08 24","29.83","10.00","60","070",,"3",,,,,,,,,,,,,,,,,,,,,,,,,,,,,,,,,,,,,"MET09303/11/20 00:58:01 SPECI KCQT 110858Z 07003KT 10SM FEW008 OVC024 17/14 A3003 RMK AO2 T01720139","FM-16","7",,,,,,,,,,,,,,,,,,,,,,,,,,,,"2006-02-03"
"72287493134","2020-03-11T01:52:00","FM-15","6",,,"3.89","mi",,,,,,,"PENDING COOP",,,,,,,,,,,,,,,,,,,,,,,,,,,"30.03","57","63","0.00",,,,"81","30.03","BKN:07 19 OVC:08 26","29.83","10.00","60","VRB",,"3",,,,,,,,,,,,,,,,,,,,,,,,,,,,,,,,,,,,,"MET10003/11/20 01:52:01 METAR KCQT 110952Z VRB03KT 10SM BKN019 OVC026 17/14 A3003 RMK AO2 SLP168 T01720139","FM-15","6",,,,,,,,,,,,,,,,,,,,,,,,,,,,"2006-02-03"
"72287493134","2020-03-11T02:52:00","FM-15","6",,,"3.89","mi",,,,,,,"PENDING COOP",,,,,,,,,,,,,,,,,,,,,,,,,,,"30.02","56","63","0.00",,,,"78","30.01","SCT:04 22 OVC:08 31","29.82","10.00","59","000",,"0",,,,,,,,,,,,,,,,,,,,,,,,,,,,,,,,,,,,,"MET10003/11/20 02:52:01 METAR KCQT 111052Z 00000KT 10SM SCT022 OVC031 17/13 A3002 RMK AO2 SLP163 T01720133","FM-15","6",,,,,,,,,,,,,,,,,,,,,,,,,,,,"2006-02-03"
"72287493134","2020-03-11T03:12:00","FM-16","6",,,"3.89","mi",,,,,,,"PENDING COOP",,,,,,,,,,,,,,,,,,,,,,,,,,,"30.02","56","63",,,,,"78",,"BKN:07 12 OVC:08 31","29.82","10.00","59","000",,"0",,,,,,,,,,,,,,,,,,,,,,,,,,,,,,,,,,,,,"MET09303/11/20 03:12:01 SPECI KCQT 111112Z 00000KT 10SM BKN012 OVC031 17/13 A3002 RMK AO2 T01720133","FM-16","6",,,,,,,,,,,,,,,,,,,,,,,,,,,,"2006-02-03"
"72287493134","2020-03-11T03:33:00","FM-16","6",,,"3.89","mi",,,,,,,"PENDING COOP",,,,,,,,,,,,,,,,,,,,,,,,,,,"30.02","56","63",,,,,"78",,"SCT:04 11 OVC:08 30","29.82","10.00","59","000",,"0",,,,,,,,,,,,,,,,,,,,,,,,,,,,,,,,,,,,,"MET09303/11/20 03:33:01 SPECI KCQT 111133Z 00000KT 10SM SCT011 OVC030 17/13 A3002 RMK AO2 T01720133","FM-16","6",,,,,,,,,,,,,,,,,,,,,,,,,,,,"2006-02-03"
"72287493134","2020-03-11T03:52:00","FM-15","6",,,"3.89","mi",,,,,,,"PENDING COOP",,,,,,,,,,,,,,,,,,,,,,,,,,,"30.02","56","63","0.00",,"+0.01","5","78","30.01","OVC:08 32","29.82","10.00","59","000",,"0",,,,,,,,,,,,,,,,,,,,,,,,,,,,,,,,,,,,,"MET11703/11/20 03:52:02 METAR KCQT 111152Z 00000KT 10SM OVC032 17/13 A3002 RMK AO2 SLP163 70018 T01720133 10178 20172 55005","FM-15","6",,,,,,,,,,,,,,,,,,,,,,,,,,,,"2006-02-03"
"72287493134","2020-03-11T04:48:00","FM-16","6",,,"3.89","mi",,,,,,,"PENDING COOP",,,,,,,,,,,,,,,,,,,,,,,,,,,"30.02","56","62",,,,,"80",,"BKN:07 28","29.82","10.00","59","000",,"0",,,,,,,,,,,,,,,,,,,,,,,,,,,,,,,,,,,,,"MET08603/11/20 04:48:02 SPECI KCQT 111248Z 00000KT 10SM BKN028 17/13 A3002 RMK AO2 T01670133","FM-16","6",,,,,,,,,,,,,,,,,,,,,,,,,,,,"2006-02-03"
"72287493134","2020-03-11T04:52:00","FM-15","6",,,"3.89","mi",,,,,,,"PENDING COOP",,,,,,,,,,,,,,,,,,,,,,,,,,,"30.02","56","62","0.00",,,,"80","30.01","BKN:07 27","29.82","10.00","59","000",,"0",,,,,,,,,,,,,,,,,,,,,,,,,,,,,,,,,,,,,"MET09303/11/20 04:52:02 METAR KCQT 111252Z 00000KT 10SM BKN027 17/13 A3002 RMK AO2 SLP163 T01670133","FM-15","6",,,,,,,,,,,,,,,,,,,,,,,,,,,,"2006-02-03"
"72287493134","2020-03-11T05:52:00","FM-15","6",,,"3.89","mi",,,,,,,"PENDING COOP",,,,,,,,,,,,,,,,,,,,,,,,,,,"30.02","55","62","0.00",,,,"78","30.02","SCT:04 17 BKN:07 35","29.82","10.00","58","000",,"0",,,,,,,,,,,,,,,,,,,,,,,,,,,,,,,,,,,,,"MET10003/11/20 05:52:02 METAR KCQT 111352Z 00000KT 10SM SCT017 BKN035 17/13 A3002 RMK AO2 SLP165 T01670128","FM-15","6",,,,,,,,,,,,,,,,,,,,,,,,,,,,"2006-02-03"
"72287493134","2020-03-11T06:52:00","FM-15","6",,,"3.89","mi",,,,,,,"PENDING COOP",,,,,,,,,,,,,,,,,,,,,,,,,,,"30.02","55","62","0.00",,"-0.01","3","78","30.02","CLR:00","29.82","10.00","58","090",,"3",,,,,,,,,,,,,,,,,,,,,,,,,,,,,,,,,,,,,"MET09603/11/20 06:52:02 METAR KCQT 111452Z 09003KT 10SM CLR 17/13 A3002 RMK AO2 SLP165 T01670128 53002","FM-15","6",,,,,,,,,,,,,,,,,,,,,,,,,,,,"2006-02-03"
"72287493134","2020-03-11T07:52:00","FM-15","7",,,"3.89","mi",,,,,,,"PENDING COOP",,,,,,,,,,,,,,,,,,,,,,,,,,,"30.04","56","65","0.00",,,,"73","30.03","FEW:02 15","29.84","10.00","60","VRB",,"5",,,,,,,,,,,,,,,,,,,,,,,,,,,,,,,,,,,,,"MET09303/11/20 07:52:02 METAR KCQT 111552Z VRB04KT 10SM FEW015 18/13 A3004 RMK AO2 SLP169 T01830133","FM-15","7",,,,,,,,,,,,,,,,,,,,,,,,,,,,"2006-02-03"
"72287493134","2020-03-11T08:12:00","FM-16","7",,,"3.89","mi",,,,,,,"PENDING COOP",,,,,,,,,,,,,,,,,,,,,,,,,,,"30.04","55","65",,,,,"70",,"BKN:07 15","29.84","10.00","59","VRB",,"5",,,,,,,,,,,,,,,,,,,,,,,,,,,,,,,,,,,,,"MET08603/11/20 08:12:02 SPECI KCQT 111612Z VRB04KT 10SM BKN015 18/13 A3004 RMK AO2 T01830128","FM-16","7",,,,,,,,,,,,,,,,,,,,,,,,,,,,"2006-02-03"
"72287493134","2020-03-11T08:52:00","FM-15","7",,,"3.89","mi",,,,,,,"PENDING COOP",,,,,,,,,,,,,,,,,,,,,,,,,,,"30.05","55","67","0.00",,,,"66","30.04","FEW:02 17 SCT:04 25","29.85","10.00","60","VRB",,"3",,,,,,,,,,,,,,,,,,,,,,,,,,,,,,,,,,,,,"MET10003/11/20 08:52:02 METAR KCQT 111652Z VRB03KT 10SM FEW017 SCT025 19/13 A3005 RMK AO2 SLP174 T01940128","FM-15","7",,,,,,,,,,,,,,,,,,,,,,,,,,,,"2006-02-03"
"72287493134","2020-03-11T09:52:00","FM-15","7",,,"3.89","mi",,,,,,,"PENDING COOP",,,,,,,,,,,,,,,,,,,,,,,,,,,"30.05","54","70","0.00",,"-0.03","1","57","30.04","FEW:02 25","29.85","10.00","61","VRB",,"3",,,,,,,,,,,,,,,,,,,,,,,,,,,,,,,,,,,,,"MET11103/11/20 09:52:02 METAR KCQT 111752Z VRB03KT 10SM FEW025 21/12 A3005 RMK AO2 SLP174 T02110122 10211 20167 51009","FM-15","7",,,,,,,,,,,,,,,,,,,,,,,,,,,,"2006-02-03"
"72287493134","2020-03-11T10:24:00","FM-16","7",,,"3.89","mi",,,,,,,"PENDING COOP",,,,,,,,,,,,,,,,,,,,,,,,,,,"30.04","54","69",,,,,"59",,"BKN:07 27","29.84","10.00","60","000",,"0",,,,,,,,,,,,,,,,,,,,,,,,,,,,,,,,,,,,,"MET08603/11/20 10:24:02 SPECI KCQT 111824Z 00000KT 10SM BKN027 21/12 A3004 RMK AO2 T02060122","FM-16","7",,,,,,,,,,,,,,,,,,,,,,,,,,,,"2006-02-03"
"72287493134","2020-03-11T10:52:00","FM-15","7",,,"3.89","mi",,,,,,,"PENDING COOP",,,,,,,,,,,,,,,,,,,,,,,,,,,"30.03","54","70","0.00",,,,"57","30.02","BKN:07 29 BKN:07 35","29.83","10.00","61","VRB",,"3",,,,,,,,,,,,,,,,,,,,,,,,,,,,,,,,,,,,,"MET10003/11/20 10:52:02 METAR KCQT 111852Z VRB03KT 10SM BKN029 BKN035 21/12 A3003 RMK AO2 SLP167 T02110122","FM-15","7",,,,,,,,,,,,,,,,,,,,,,,,,,,,"2006-02-03"
"72287493134","2020-03-11T10:55:00","FM-16","7",,,"3.89","mi",,,,,,,"PENDING COOP",,,,,,,,,,,,,,,,,,,,,,,,,,,"30.03","53","71",,,,,"53",,"BKN:07 31","29.83","10.00","61","VRB",,"3",,,,,,,,,,,,,,,,,,,,,,,,,,,,,,,,,,,,,"MET08603/11/20 10:55:02 SPECI KCQT 111855Z VRB03KT 10SM BKN031 22/12 A3003 RMK AO2 T02170117","FM-16","7",,,,,,,,,,,,,,,,,,,,,,,,,,,,"2006-02-03"
"72287493134","2020-03-11T11:52:00","FM-15","7",,,"3.89","mi",,,,,,,"PENDING COOP",,,,,,,,,,,,,,,,,,,,,,,,,,,"30.01","54","69","0.00",,,,"59","30.01","FEW:02 35 SCT:04 43","29.81","10.00","60","250",,"6",,,,,,,,,,,,,,,,,,,,,,,,,,,,,,,,,,,,,"MET10003/11/20 11:52:02 METAR KCQT 111952Z 25005KT 10SM FEW035 SCT043 21/12 A3001 RMK AO2 SLP161 T02060122","FM-15","7",,,,,,,,,,,,,,,,,,,,,,,,,,,,"2006-02-03"
"72287493134","2020-03-11T12:52:00","FM-15","6",,,"3.89","mi",,,,,,,"PENDING COOP",,,,,,,,,,,,,,,,,,,,,,,,,,,"29.98","53","71","0.00",,"+0.07","8","53","29.97","FEW:02 31","29.78","10.00","61",,,,,,,,,,,,,,,,,,,,,,,,,,,,,,,,,,,,,,,,"MET09903/11/20 12:52:02 METAR KCQT 112052Z      KT 10SM FEW031 22/12 A2998 RMK AO2 SLP150 T02170117 58024","FM-15","6",,,,,,,,,,,,,,,,,,,,,,,,,,,,"2006-02-03"
"72287493134","2020-03-11T13:52:00","FM-15","7",,,"3.89","mi",,,,,,,"PENDING COOP",,,,,,,,,,,,,,,,,,,,,,,,,,,"29.96","53","72","0.00",,,,"52","29.95","CLR:00","29.76","10.00","61","250",,"7",,,,,,,,,,,,,,,,,,,,,,,,,,,,,,,,,,,,,"MET09003/11/20 13:52:02 METAR KCQT 112152Z 25006KT 10SM CLR 22/12 A2996 RMK AO2 SLP143 T02220117","FM-15","7",,,,,,,,,,,,,,,,,,,,,,,,,,,,"2006-02-03"
"72287493134","2020-03-11T14:52:00","FM-15","7",,,"3.89","mi",,,,,,,"PENDING COOP",,,,,,,,,,,,,,,,,,,,,,,,,,,"29.94","52","72","0.00",,,,"50","29.93","CLR:00","29.74","10.00","61","000",,"0",,,,,,,,,,,,,,,,,,,,,,,,,,,,,,,,,,,,,"MET09003/11/20 14:52:02 METAR KCQT 112252Z 00000KT 10SM CLR 22/11 A2994 RMK AO2 SLP137 T02220111","FM-15","7",,,,,,,,,,,,,,,,,,,,,,,,,,,,"2006-02-03"
"72287493134","2020-03-11T15:52:00","FM-15","7",,,"3.89","mi",,,,,,,"PENDING COOP",,,,,,,,,,,,,,,,,,,,,,,,,,,"29.94","53","71","0.00",,"+0.04","6","53","29.93","CLR:00","29.74","10.00","61","260",,"5",,,,,,,,,,,,,,,,,,,,,,,,,,,,,,,,,,,,,"MET10803/11/20 15:52:02 METAR KCQT 112352Z 26004KT 10SM CLR 22/12 A2994 RMK AO2 SLP137 T02170117 10228 20200 56013","FM-15","7",,,,,,,,,,,,,,,,,,,,,,,,,,,,"2006-02-03"
"72287493134","2020-03-11T16:52:00","FM-15","7",,,"3.89","mi",,,,,,,"PENDING COOP",,,,,,,,,,,,,,,,,,,,,,,,,,,"29.94","52","69","0.00",,,,"55","29.93","CLR:00","29.74","10.00","59","VRB",,"6",,,,,,,,,,,,,,,,,,,,,,,,,,,,,,,,,,,,,"MET09003/11/20 16:52:01 METAR KCQT 120052Z VRB05KT 10SM CLR 21/11 A2994 RMK AO2 SLP136 T02060111","FM-15","7",,,,,,,,,,,,,,,,,,,,,,,,,,,,"2006-02-03"
"72287493134","2020-03-11T17:52:00","FM-15","7",,,"3.89","mi",,,,,,,"PENDING COOP",,,,,,,,,,,,,,,,,,,,,,,,,,,"29.94","52","66","0.00",,,,"61","29.93","CLR:00","29.74","10.00","58","250",,"3",,,,,,,,,,,,,,,,,,,,,,,,,,,,,,,,,,,,,"MET09003/11/20 17:52:01 METAR KCQT 120152Z 25003KT 10SM CLR 19/11 A2994 RMK AO2 SLP136 T01890111","FM-15","7",,,,,,,,,,,,,,,,,,,,,,,,,,,,"2006-02-03"
"72287493134","2020-03-11T18:52:00","FM-15","7",,,"3.89","mi",,,,,,,"PENDING COOP",,,,,,,,,,,,,,,,,,,,,,,,,,,"29.94","53","64","0.00",,"+0.00","6","68","29.93","FEW:02 75","29.74","10.00","58","000",,"0",,,,,,,,,,,,,,,,,,,,,,,,,,,,,,,,,,,,,"MET09903/11/20 18:52:01 METAR KCQT 120252Z 00000KT 10SM FEW075 18/12 A2994 RMK AO2 SLP136 T01780117 56001","FM-15","7",,,,,,,,,,,,,,,,,,,,,,,,,,,,"2006-02-03"
"72287493134","2020-03-11T19:52:00","FM-15","7",,,"3.89","mi",,,,,,,"PENDING COOP",,,,,,,,,,,,,,,,,,,,,,,,,,,"29.95","53","63","0.00",,,,"70","29.95","CLR:00","29.75","10.00","57","000",,"0",,,,,,,,,,,,,,,,,,,,,,,,,,,,,,,,,,,,,"MET09003/11/20 19:52:01 METAR KCQT 120352Z 00000KT 10SM CLR 17/12 A2995 RMK AO2 SLP141 T01720117","FM-15","7",,,,,,,,,,,,,,,,,,,,,,,,,,,,"2006-02-03"
"72287493134","2020-03-11T20:52:00","FM-15","7",,,"3.89","mi",,,,,,,"PENDING COOP",,,,,,,,,,,,,,,,,,,,,,,,,,,"29.96","52","62","0.00",,,,"70","29.95","BKN:07 75","29.76","10.00","56","000",,"0",,,,,,,,,,,,,,,,,,,,,,,,,,,,,,,,,,,,,"MET09303/11/20 20:52:01 METAR KCQT 120452Z 00000KT 10SM BKN075 17/11 A2996 RMK AO2 SLP143 T01670111","FM-15","7",,,,,,,,,,,,,,,,,,,,,,,,,,,,"2006-02-03"
"72287493134","2020-03-11T21:52:00","FM-15","7",,,"3.89","mi",,,,,,,"PENDING COOP",,,,,,,,,,,,,,,,,,,,,,,,,,,"29.95","54","62","0.00",,"-0.01","0","75","29.95","BKN:07 75","29.75","10.00","58","000",,"0",,,,,,,,,,,,,,,,,,,,,,,,,,,,,,,,,,,,,"MET11103/11/20 21:52:01 METAR KCQT 120552Z 00000KT 10SM BKN075 17/12 A2995 RMK AO2 SLP142 T01670122 10217 20167 50005","FM-15","7",,,,,,,,,,,,,,,,,,,,,,,,,,,,"2006-02-03"
"72287493134","2020-03-11T22:52:00","FM-15","7",,,"3.89","mi",,,,,,,"PENDING COOP",,,,,,,,,,,,,,,,,,,,,,,,,,,"29.94","54","60","0.00",,,,"80","29.94","CLR:00","29.74","10.00","57","000",,"0",,,,,,,,,,,,,,,,,,,,,,,,,,,,,,,,,,,,,"MET09003/11/20 22:52:01 METAR KCQT 120652Z 00000KT 10SM CLR 16/12 A2994 RMK AO2 SLP138 T01560122","FM-15","7",,,,,,,,,,,,,,,,,,,,,,,,,,,,"2006-02-03"
"72287493134","2020-03-11T23:52:00","FM-15","7",,,"3.89","mi",,,,,,,"PENDING COOP",,,,,,,,,,,,,,,,,,,,,,,,,,,"29.93","55","60","0.00",,,,"84","29.92","SCT:04 65","29.73","10.00","57","000",,"0",,,,,,,,,,,,,,,,,,,,,,,,,,,,,,,,,,,,,"MET10303/11/20 23:52:01 METAR KCQT 120752Z 00000KT 10SM SCT065 16/13 A2993 RMK AO2 SLP133 T01560128 402280156","FM-15","7",,,,,,,,,,,,,,,,,,,,,,,,,,,,"2006-02-03"
"72287493134","2020-03-11T23:59:00","SOD  ","6",,,"3.89","mi",,,,,,,"PENDING COOP",,,,"54","67","68","29.98","29.80","59","2.3","2","6.6","0","73","60","270","14","0.00",,,"270","9",,,,,,,,,,,,,,,,,,,,,,,,,,,,,,,,,,,,,,,,,,,,,,,,,,,,,,,,,"SOD74324 HR PRECIPITATION (IN): 0.00 SNOW DEPTH (IN):0     24 HR SNOWFALL (IN):0.0  24 HR MAX TEMP (F): 7324 HR MIN TEMP (F): 60AVERAGE STATION PRESSURE(D):29.800 MINIMUM SEA LEVEL PRESSURE:29.92 TIME OF OCCURRENCE:2359 PEAK WIND SPEED (MPH): 14 PEAK WIND DIR (DEG):270 PEAK WIND TIME (LST):      FASTEST 2MIN SPEED (MPH):  9FASTEST 2MIN DIR (DEG):270 FASTEST 2MIN TIME (LST):     AVERAGE WIND SPEED (MPH): 2.3 24 HR AVG TEMP (F): 67DEPART FROM NORMAL:  7  HEATING DEGREE DAYS:  0 COOLING DEGREE DAYS:  2 LATEST DAY MAX TEMP (0700-1900 LST): 73 LATEST NIGHT MIN TEMP(1900-0800 LST):62 HOURLY INCREMENTAL PRECIPITATION VALUES (IN):0.00 0.00 0.00 0.00 0.00 0.00 0.00 0.00 0.00 0.00 0.00 0.00 0.00 0.00 0.00 0.00 0.00 0.00 0.00 0.00 0.00 0.00 0.00 0.00","SOD  ","6",,,,,,,,,,,,,,,,,,,,,,,,,"0608","1759",,"2006-02-03"
"72287493134","2020-03-12T00:52:00","FM-15","7",,,"3.89","mi",,,,,,,"PENDING COOP",,,,,,,,,,,,,,,,,,,,,,,,,,,"29.92","54","60","0.00",,"+0.04","8","80","29.91","CLR:00","29.72","10.00","57","000",,"0",,,,,,,,,,,,,,,,,,,,,,,,,,,,,,,,,,,,,"MET09603/12/20 00:52:01 METAR KCQT 120852Z 00000KT 10SM CLR 16/12 A2992 RMK AO2 SLP129 T01560122 58013","FM-15","7",,,,,,,,,,,,,,,,,,,,,,,,,,,,"2006-02-03"
"72287493134","2020-03-12T01:52:00","FM-15","7",,,"3.89","mi",,,,,,,"PENDING COOP",,,,,,,,,,,,,,,,,,,,,,,,,,,"29.89","54","59","0.00",,,,"83","29.89","CLR:00","29.69","9.00","56","000",,"0",,,,,,,,,,,,,,,,,,,,,,,,,,,,,,,,,,,,,"MET08903/12/20 01:52:01 METAR KCQT 120952Z 00000KT 9SM CLR 15/12 A2989 RMK AO2 SLP121 T01500122","FM-15","7",,,,,,,,,,,,,,,,,,,,,,,,,,,,"2006-02-03"
"72287493134","2020-03-12T02:52:00","FM-15","7",,,"3.89","mi",,,,,,,"PENDING COOP",,,,,,,,,,,,,,,,,,,,,,,,,,,"29.86","53","58","0.00",,,,"84","29.85","CLR:00","29.66","10.00","55","000",,"0",,,,,,,,,,,,,,,,,,,,,,,,,,,,,,,,,,,,,"MET09003/12/20 02:52:01 METAR KCQT 121052Z 00000KT 10SM CLR 14/12 A2986 RMK AO2 SLP109 T01440117","FM-15","7",,,,,,,,,,,,,,,,,,,,,,,,,,,,"2006-02-03"
"72287493134","2020-03-12T03:52:00","FM-15","7",,,"3.89","mi",,,,,,,"PENDING COOP",,,,,,,,,,,,,,,,,,,,,,,,,,,"29.83","52","57","0.00",,"+0.09","8","83","29.82","CLR:00","29.63","10.00","54","000",,"0",,,,,,,,,,,,,,,,,,,,,,,,,,,,,,,,,,,,,"MET10803/12/20 03:52:02 METAR KCQT 121152Z 00000KT 10SM CLR 14/11 A2983 RMK AO2 SLP098 T01390111 10167 20139 58030","FM-15","7",,,,,,,,,,,,,,,,,,,,,,,,,,,,"2006-02-03"
"72287493134","2020-03-12T04:52:00","FM-15","7",,,"3.89","mi",,,,,,,"PENDING COOP",,,,,,,,,,,,,,,,,,,,,,,,,,,"29.80","51","57","0.00",,,,"81","29.79","CLR:00","29.60","10.00","54","000",,"0",,,,,,,,,,,,,,,,,,,,,,,,,,,,,,,,,,,,,"MET09003/12/20 04:52:02 METAR KCQT 121252Z 00000KT 10SM CLR 14/11 A2980 RMK AO2 SLP089 T01390106","FM-15","7",,,,,,,,,,,,,,,,,,,,,,,,,,,,"2006-02-03"
"72287493134","2020-03-12T05:52:00","FM-15","7",,,"3.89","mi",,,,,,,"PENDING COOP",,,,,,,,,,,,,,,,,,,,,,,,,,,"29.80","51","57","0.00",,,,"81","29.79","CLR:00","29.60","10.00","54","000",,"0",,,,,,,,,,,,,,,,,,,,,,,,,,,,,,,,,,,,,"MET09003/12/20 05:52:02 METAR KCQT 121352Z 00000KT 10SM CLR 14/11 A2980 RMK AO2 SLP088 T01390106","FM-15","7",,,,,,,,,,,,,,,,,,,,,,,,,,,,"2006-02-03"
"72287493134","2020-03-12T06:52:00","FM-15","7",,,"3.89","mi",,,,,,,"PENDING COOP",,,,,,,,,,,,,,,,,,,,,,,,,,,"29.82","52","58","0.00",,"+0.01","5","81","29.81","CLR:00","29.62","9.00","55","000",,"0",,,,,,,,,,,,,,,,,,,,,,,,,,,,,,,,,,,,,"MET09503/12/20 06:52:02 METAR KCQT 121452Z 00000KT 9SM CLR 14/11 A2982 RMK AO2 SLP095 T01440111 55003","FM-15","7",,,,,,,,,,,,,,,,,,,,,,,,,,,,"2006-02-03"
"72287493134","2020-03-12T07:52:00","FM-15","7",,,"3.89","mi",,,,,,,"PENDING COOP",,,,,,,,,,,,,,,,,,,,,,,,,,,"29.83","50","61","0.00",,,,"67","29.83","CLR:00","29.63","10.00","55","090",,"5",,,,,,,,,,,,,,,,,,,,,,,,,,,,,,,,,,,,,"MET09003/12/20 07:52:02 METAR KCQT 121552Z 09004KT 10SM CLR 16/10 A2983 RMK AO2 SLP101 T01610100","FM-15","7",,,,,,,,,,,,,,,,,,,,,,,,,,,,"2006-02-03"
"72287493134","2020-03-12T08:52:00","FM-15","7",,,"3.89","mi",,,,,,,"PENDING COOP",,,,,,,,,,,,,,,,,,,,,,,,,,,"29.84","50","64","0.00",,,,"60","29.84","CLR:00","29.64","10.00","56","110",,"3",,,,,,,,,,,,,,,,,,,,,,,,,,,,,,,,,,,,,"MET09003/12/20 08:52:02 METAR KCQT 121652Z 11003KT 10SM CLR 18/10 A2984 RMK AO2 SLP104 T01780100","FM-15","7",,,,,,,,,,,,,,,,,,,,,,,,,,,,"2006-02-03"
"72287493134","2020-03-12T09:52:00","FM-15","7",,,"3.89","mi",,,,,,,"PENDING COOP",,,,,,,,,,,,,,,,,,,,,,,,,,,"29.85","52","62","T","-RA:02 |RA |RA","-0.03","1","70","29.84","FEW:02 48 OVC:08 85","29.65","9.00","56","000",,"0",,,,,,,,,,,,,,,,,,,,,,,,,,,,,,,,,,,,,"MET13903/12/20 09:52:02 METAR KCQT 121752Z 00000KT 9SM -RA FEW048 OVC085 17/11 A2985 RMK AO2 RAB23 SLP105 P0000 60000 T01670111 10178 20133 51010","FM-15","7",,,,,,,,,,,,,,,,,,,,,,,,,,,,"2006-02-03"
"72287493134","2020-03-12T10:21:00","FM-16","7",,,"3.89","mi",,,,,,,"PENDING COOP",,,,,,,,,,,,,,,,,,,,,,,,,,,"29.85","53","60","0.03","RA:02 |RA |RA",,,"78",,"OVC:08 75","29.65","2.50","56","000",,"0",,,,,,,,,,,,,,,,,,,,,,,,,,,,,,,,,,,,,"MET09803/12/20 10:21:02 SPECI KCQT 121821Z 00000KT 2 1/2SM RA OVC075 16/12 A2985 RMK AO2 P0003 T01560117","FM-16","7",,,,,,,,,,,,,,,,,,,,,,,,,,,,"2006-02-03"
"72287493134","2020-03-12T10:44:00","FM-16","7",,,"3.89","mi",,,,,,,"PENDING COOP",,,,,,,,,,,,,,,,,,,,,,,,,,,"29.86","54","60","0.09","RA:02 |RA |RA",,,"80",,"OVC:08 70","29.66","1.75","57","000",,"0",,,,,,,,,,,,,,,,,,,,,,,,,,,,,,,,,,,,,"MET09803/12/20 10:44:02 SPECI KCQT 121844Z 00000KT 1 3/4SM RA OVC070 16/12 A2986 RMK AO2 P0009 T01560122","FM-16","7",,,,,,,,,,,,,,,,,,,,,,,,,,,,"2006-02-03"
"72287493134","2020-03-12T10:52:00","FM-15","7",,,"3.89","mi",,,,,,,"PENDING COOP",,,,,,,,,,,,,,,,,,,,,,,,,,,"29.85","54","60","0.15","+RA:02 |RA |RA",,,"80","29.85","OVC:08 65","29.65","1.50","57","270",,"7",,,,,,,,,,,,,,,,,,,,,,,,,,,,,,,,,,,,,"MET10603/12/20 10:52:02 METAR KCQT 121852Z 27006KT 1 1/2SM +RA OVC065 16/12 A2985 RMK AO2 SLP109 P0012 T01560122","FM-15","7",,,,,,,,,,,,,,,,,,,,,,,,,,,,"2006-02-03"
"72287493134","2020-03-12T11:05:00","FM-16","7",,,"3.89","mi",,,,,,,"PENDING COOP",,,,,,,,,,,,,,,,,,,,,,,,,,,"29.84","55","60","0.08","+RA:02 |RA |RA",,,"84",,"BKN:07 55 OVC:08 70","29.64","0.75","57","280",,"3",,,,,,,,,,,,,,,,,,,,,,,,,,,,,,,,,,,,,"MET10403/12/20 11:05:02 SPECI KCQT 121905Z 28003KT 3/4SM +RA BKN055 OVC070 16/13 A2984 RMK AO2 P0008 T01560128","FM-16","7",,,,,,,,,,,,,,,,,,,,,,,,,,,,"2006-02-03"
"72287493134","2020-03-12T11:11:00","FM-16","7",,,"3.89","mi",,,,,,,"PENDING COOP",,,,,,,,,,,,,,,,,,,,,,,,,,,"29.84","55","60","0.12","RA:02 |RA |RA",,,"84",,"BKN:07 50 OVC:08 70","29.64","1.00","57","280",,"3",,,,,,,,,,,,,,,,,,,,,,,,,,,,,,,,,,,,,"MET10103/12/20 11:11:02 SPECI KCQT 121911Z 28003KT 1SM RA BKN050 OVC070 16/13 A2984 RMK AO2 P0012 T01560128","FM-16","7",,,,,,,,,,,,,,,,,,,,,,,,,,,,"2006-02-03"
"72287493134","2020-03-12T11:19:00","FM-16","7",,,"3.89","mi",,,,,,,"PENDING COOP",,,,,,,,,,,,,,,,,,,,,,,,,,,"29.85","55","60","0.13","-RA:02 |RA |RA",,,"84",,"SCT:04 50 OVC:08 70","29.65","2.50","57","000",,"0",,,,,,,,,,,,,,,,,,,,,,,,,,,,,,,,,,,,,"MET10603/12/20 11:19:02 SPECI KCQT 121919Z 00000KT 2 1/2SM -RA SCT050 OVC070 16/13 A2985 RMK AO2 P0013 T01560128","FM-16","7",,,,,,,,,,,,,,,,,,,,,,,,,,,,"2006-02-03"
"72287493134","2020-03-12T11:22:00","FM-16","7",,,"3.89","mi",,,,,,,"PENDING COOP",,,,,,,,,,,,,,,,,,,,,,,,,,,"29.85","55","60","0.13","-RA:02 |RA |RA",,,"84",,"SCT:04 55 OVC:08 70","29.65","3.00","57","000",,"0",,,,,,,,,,,,,,,,,,,,,,,,,,,,,,,,,,,,,"MET10203/12/20 11:22:02 SPECI KCQT 121922Z 00000KT 3SM -RA SCT055 OVC070 16/13 A2985 RMK AO2 P0013 T01560128","FM-16","7",,,,,,,,,,,,,,,,,,,,,,,,,,,,"2006-02-03"
"72287493134","2020-03-12T11:27:00","FM-16","7",,,"3.89","mi",,,,,,,"PENDING COOP",,,,,,,,,,,,,,,,,,,,,,,,,,,"29.86","55","60","0.14","RA:02 |RA |RA",,,"84",,"BKN:07 60 OVC:08 70","29.66","2.00","57","000",,"0",,,,,,,,,,,,,,,,,,,,,,,,,,,,,,,,,,,,,"MET10103/12/20 11:27:02 SPECI KCQT 121927Z 00000KT 2SM RA BKN060 OVC070 16/13 A2986 RMK AO2 P0014 T01560128","FM-16","7",,,,,,,,,,,,,,,,,,,,,,,,,,,,"2006-02-03"
"72287493134","2020-03-12T11:31:00","FM-16","7",,,"3.89","mi",,,,,,,"PENDING COOP",,,,,,,,,,,,,,,,,,,,,,,,,,,"29.86","55","60","0.16","+RA:02 |RA |RA",,,"84",,"BKN:07 60 OVC:08 75","29.66","1.50","57","280",,"3",,,,,,,,,,,,,,,,,,,,,,,,,,,,,,,,,,,,,"MET10603/12/20 11:31:02 SPECI KCQT 121931Z 28003KT 1 1/2SM +RA BKN060 OVC075 16/13 A2986 RMK AO2 P0016 T01560128","FM-16","7",,,,,,,,,,,,,,,,,,,,,,,,,,,,"2006-02-03"
"72287493134","2020-03-12T11:52:00","FM-15","7",,,"3.89","mi",,,,,,,"PENDING COOP",,,,,,,,,,,,,,,,,,,,,,,,,,,"29.85","55","59","0.24","+RA:02 BR:1 |RA |RA",,,"87","29.85","OVC:08 65","29.65","1.25","57","280",,"5",,,,,,,,,,,,,,,,,,,,,,,,,,,,,,,,,,,,,"MET10903/12/20 11:52:02 METAR KCQT 121952Z 28004KT 1 1/4SM +RA BR OVC065 15/13 A2985 RMK AO2 SLP107 P0024 T01500128","FM-15","7",,,,,,,,,,,,,,,,,,,,,,,,,,,,"2006-02-03"
"72287493134","2020-03-12T12:52:00","FM-15","7",,,"3.89","mi",,,,,,,"PENDING COOP",,,,,,,,,,,,,,,,,,,,,,,,,,,"29.83","51","57","0.32","+RA:02 |RA |RA","+0.01","8","81","29.83","BKN:07 60 OVC:08 70","29.63","1.25","54","270",,"7",,,,,,,,,,,,,,,,,,,,,,,,,,,,,,,,,,,,,"MET12503/12/20 12:52:02 METAR KCQT 122052Z 27006KT 1 1/4SM +RA BKN060 OVC070 14/11 A2983 RMK AO2 SLP102 P0030 60066 T01390106 58004","FM-15","7",,,,,,,,,,,,,,,,,,,,,,,,,,,,"2006-02-03"
"72287493134","2020-03-12T13:09:00","FM-16","7",,,"3.89","mi",,,,,,,"PENDING COOP",,,,,,,,,,,,,,,,,,,,,,,,,,,"29.82","51","57","0.08","RA:02 |RA |RA",,,"81",,"OVC:08 60","29.62","2.50","54","280",,"6",,,,,,,,,,,,,,,,,,,,,,,,,,,,,,,,,,,,,"MET09803/12/20 13:09:02 SPECI KCQT 122109Z 28005KT 2 1/2SM RA OVC060 14/11 A2982 RMK AO2 P0008 T01390106","FM-16","7",,,,,,,,,,,,,,,,,,,,,,,,,,,,"2006-02-03"
"72287493134","2020-03-12T13:13:00","FM-16","7",,,"3.89","mi",,,,,,,"PENDING COOP",,,,,,,,,,,,,,,,,,,,,,,,,,,"29.82","51","57","0.08","RA:02 |RA |RA",,,"81",,"OVC:08 60","29.62","3.00","54","260",,"7",,,,,,,,,,,,,,,,,,,,,,,,,,,,,,,,,,,,,"MET09403/12/20 13:13:02 SPECI KCQT 122113Z 26006KT 3SM RA OVC060 14/11 A2982 RMK AO2 P0008 T01390106","FM-16","7",,,,,,,,,,,,,,,,,,,,,,,,,,,,"2006-02-03"
"72287493134","2020-03-12T13:17:00","FM-16","7",,,"3.89","mi",,,,,,,"PENDING COOP",,,,,,,,,,,,,,,,,,,,,,,,,,,"29.82","51","57","0.10","RA:02 |RA |RA",,,"81",,"OVC:08 60","29.62","2.50","54","270",,"8",,,,,,,,,,,,,,,,,,,,,,,,,,,,,,,,,,,,,"MET09803/12/20 13:17:02 SPECI KCQT 122117Z 27007KT 2 1/2SM RA OVC060 14/11 A2982 RMK AO2 P0010 T01390106","FM-16","7",,,,,,,,,,,,,,,,,,,,,,,,,,,,"2006-02-03"
"72287493134","2020-03-12T13:28:00","FM-16","7",,,"3.89","mi",,,,,,,"PENDING COOP",,,,,,,,,,,,,,,,,,,,,,,,,,,"29.81","51","57","0.13","RA:02 |RA |RA",,,"81",,"OVC:08 65","29.61","3.00","54","260",,"6",,,,,,,,,,,,,,,,,,,,,,,,,,,,,,,,,,,,,"MET09403/12/20 13:28:02 SPECI KCQT 122128Z 26005KT 3SM RA OVC065 14/11 A2981 RMK AO2 P0013 T01390106","FM-16","7",,,,,,,,,,,,,,,,,,,,,,,,,,,,"2006-02-03"
"72287493134","2020-03-12T13:44:00","FM-16","7",,,"3.89","mi",,,,,,,"PENDING COOP",,,,,,,,,,,,,,,,,,,,,,,,,,,"29.81","51","57","0.16","+RA:02 |RA |RA",,,"81",,"OVC:08 60","29.61","2.00","54","260",,"5",,,,,,,,,,,,,,,,,,,,,,,,,,,,,,,,,,,,,"MET09503/12/20 13:44:02 SPECI KCQT 122144Z 26004KT 2SM +RA OVC060 14/11 A2981 RMK AO2 P0016 T01390106","FM-16","7",,,,,,,,,,,,,,,,,,,,,,,,,,,,"2006-02-03"
"72287493134","2020-03-12T13:47:00","FM-16","7",,,"3.89","mi",,,,,,,"PENDING COOP",,,,,,,,,,,,,,,,,,,,,,,,,,,"29.81","51","57","0.18","+RA:02 |RA |RA",,,"81",,"BKN:07 55 OVC:08 70","29.61","1.50","54","270",,"6",,,,,,,,,,,,,,,,,,,,,,,,,,,,,,,,,,,,,"MET10603/12/20 13:47:02 SPECI KCQT 122147Z 27005KT 1 1/2SM +RA BKN055 OVC070 14/11 A2981 RMK AO2 P0018 T01390106","FM-16","7",,,,,,,,,,,,,,,,,,,,,,,,,,,,"2006-02-03"
"72287493134","2020-03-12T13:52:00","FM-15","7",,,"3.89","mi",,,,,,,"PENDING COOP",,,,,,,,,,,,,,,,,,,,,,,,,,,"29.82","51","57","0.20","RA:02 |RA |RA",,,"81","29.81","BKN:07 55 OVC:08 70","29.62","1.25","54","260",,"3",,,,,,,,,,,,,,,,,,,,,,,,,,,,,,,,,,,,,"MET11203/12/20 13:52:02 METAR KCQT 122152Z 26003KT 1 1/4SM RA BKN055 OVC070 14/11 A2982 RMK AO2 SLP096 P0021 T01390106","FM-15","7",,,,,,,,,,,,,,,,,,,,,,,,,,,,"2006-02-03"
"72287493134","2020-03-12T14:09:00","FM-16","7",,,"3.89","mi",,,,,,,"PENDING COOP",,,,,,,,,,,,,,,,,,,,,,,,,,,"29.82","51","56","0.11","+RA:02 |RA |RA",,,"84",,"BKN:07 48 OVC:08 60","29.62","0.75","53","000",,"0",,,,,,,,,,,,,,,,,,,,,,,,,,,,,,,,,,,,,"MET10403/12/20 14:09:02 SPECI KCQT 122209Z 00000KT 3/4SM +RA BKN048 OVC060 13/11 A2982 RMK AO2 P0011 T01330106","FM-16","7",,,,,,,,,,,,,,,,,,,,,,,,,,,,"2006-02-03"
"72287493134","2020-03-12T14:20:00","FM-16","7",,,"3.89","mi",,,,,,,"PENDING COOP",,,,,,,,,,,,,,,,,,,,,,,,,,,"29.83","52","56","0.21","+RA:02 BR:1 |RA |RA",,,"87",,"BKN:07 47 OVC:08 60","29.63","1.00","54","000",,"0",,,,,,,,,,,,,,,,,,,,,,,,,,,,,,,,,,,,,"MET10503/12/20 14:20:02 SPECI KCQT 122220Z 00000KT 1SM +RA BR BKN047 OVC060 13/11 A2983 RMK AO2 P0021 T01330111","FM-16","7",,,,,,,,,,,,,,,,,,,,,,,,,,,,"2006-02-03"
"72287493134","2020-03-12T14:28:00","FM-16","7",,,"3.89","mi",,,,,,,"PENDING COOP",,,,,,,,,,,,,,,,,,,,,,,,,,,"29.83","52","56","0.25","+RA:02 BR:1 |RA |RA",,,"87",,"OVC:08 49","29.63","2.00","54","000",,"0",,,,,,,,,,,,,,,,,,,,,,,,,,,,,,,,,,,,,"MET09803/12/20 14:28:02 SPECI KCQT 122228Z 00000KT 2SM +RA BR OVC049 13/11 A2983 RMK AO2 P0025 T01330111","FM-16","7",,,,,,,,,,,,,,,,,,,,,,,,,,,,"2006-02-03"
"72287493134","2020-03-12T14:38:00","FM-16","7",,,"3.89","mi",,,,,,,"PENDING COOP",,,,,,,,,,,,,,,,,,,,,,,,,,,"29.83","52","57","0.28","RA:02 |RA |RA",,,"83",,"OVC:08 55","29.63","3.00","54","000",,"0",,,,,,,,,,,,,,,,,,,,,,,,,,,,,,,,,,,,,"MET09403/12/20 14:38:02 SPECI KCQT 122238Z 00000KT 3SM RA OVC055 14/11 A2983 RMK AO2 P0028 T01390111","FM-16","7",,,,,,,,,,,,,,,,,,,,,,,,,,,,"2006-02-03"
"72287493134","2020-03-12T14:43:00","FM-16","7",,,"3.89","mi",,,,,,,"PENDING COOP",,,,,,,,,,,,,,,,,,,,,,,,,,,"29.82","51","57","0.30","+RA:02 |RA |RA",,,"81",,"OVC:08 50","29.62","2.00","54","000",,"0",,,,,,,,,,,,,,,,,,,,,,,,,,,,,,,,,,,,,"MET09503/12/20 14:43:02 SPECI KCQT 122243Z 00000KT 2SM +RA OVC050 14/11 A2982 RMK AO2 P0030 T01390106","FM-16","7",,,,,,,,,,,,,,,,,,,,,,,,,,,,"2006-02-03"
"72287493134","2020-03-12T14:47:00","FM-16","7",,,"3.89","mi",,,,,,,"PENDING COOP",,,,,,,,,,,,,,,,,,,,,,,,,,,"29.82","52","56","0.33","+RA:02 BR:1 |RA |RA",,,"87",,"OVC:08 50","29.62","1.50","54","360",,"5",,,,,,,,,,,,,,,,,,,,,,,,,,,,,,,,,,,,,"MET10203/12/20 14:47:02 SPECI KCQT 122247Z 36004KT 1 1/2SM +RA BR OVC050 13/11 A2982 RMK AO2 P0033 T01330111","FM-16","7",,,,,,,,,,,,,,,,,,,,,,,,,,,,"2006-02-03"
"72287493134","2020-03-12T14:52:00","FM-15","7",,,"3.89","mi",,,,,,,"PENDING COOP",,,,,,,,,,,,,,,,,,,,,,,,,,,"29.81","52","57","0.34","+RA:02 |RA |RA",,,"83","29.81","BKN:07 55 OVC:08 70","29.61","1.75","54","350",,"5",,,,,,,,,,,,,,,,,,,,,,,,,,,,,,,,,,,,,"MET11303/12/20 14:52:02 METAR KCQT 122252Z 35004KT 1 3/4SM +RA BKN055 OVC070 14/11 A2981 RMK AO2 SLP094 P0036 T01390111","FM-15","7",,,,,,,,,,,,,,,,,,,,,,,,,,,,"2006-02-03"
"72287493134","2020-03-12T14:56:00","FM-16","7",,,"3.89","mi",,,,,,,"PENDING COOP",,,,,,,,,,,,,,,,,,,,,,,,,,,"29.80","52","57","0.01","RA:02 |RA |RA",,,"83",,"BKN:07 55 OVC:08 70","29.60","2.00","54","350",,"8",,,,,,,,,,,,,,,,,,,,,,,,,,,,,,,,,,,,,"MET10803/12/20 14:56:02 SPECI KCQT 122256Z 35007KT 2SM RA BKN055 OVC070 14/11 A2980 RMK AO2 PRESFR P0001 T01390111","FM-16","7",,,,,,,,,,,,,,,,,,,,,,,,,,,,"2006-02-03"
"72287493134","2020-03-12T15:14:00","FM-16","7",,,"3.89","mi",,,,,,,"PENDING COOP",,,,,,,,,,,,,,,,,,,,,,,,,,,"29.79","51","56","0.06","-RA:02 |RA |RA",,,"84",,"SCT:04 55 BKN:07 70 OVC:08 90","29.59","4.00","53","VRB",,"3",,,,,,,,,,,,,,,,,,,,,,,,,,,,,,,,,,,,,"MET10903/12/20 15:14:02 SPECI KCQT 122314Z VRB03KT 4SM -RA SCT055 BKN070 OVC090 13/11 A2979 RMK AO2 P0006 T01330106","FM-16","7",,,,,,,,,,,,,,,,,,,,,,,,,,,,"2006-02-03"
"72287493134","2020-03-12T15:52:00","FM-15","7",,,"3.89","mi",,,,,,,"PENDING COOP",,,,,,,,,,,,,,,,,,,,,,,,,,,"29.79","51","57","0.04",,"+0.04","8","81","29.79","FEW:02 16 OVC:08 100","29.59","10.00","54","000",,"0",,,,,,,,,,,,,,,,,,,,,,,,,,,,,,,,,,,,,"MET13603/12/20 15:52:02 METAR KCQT 122352Z 00000KT 10SM FEW016 OVC100 14/11 A2979 RMK AO2 RAE23 SLP087 P0006 60129 T01390106 10167 20133 58014","FM-15","7",,,,,,,,,,,,,,,,,,,,,,,,,,,,"2006-02-03"
"72287493134","2020-03-12T16:52:00","FM-15","7",,,"3.89","mi",,,,,,,"PENDING COOP",,,,,,,,,,,,,,,,,,,,,,,,,,,"29.78","51","57","0.00",,,,"81","29.78","FEW:02 75 BKN:07 120","29.58","10.00","54","000",,"0",,,,,,,,,,,,,,,,,,,,,,,,,,,,,,,,,,,,,"MET10003/12/20 16:52:01 METAR KCQT 130052Z 00000KT 10SM FEW075 BKN120 14/11 A2978 RMK AO2 SLP084 T01390106","FM-15","7",,,,,,,,,,,,,,,,,,,,,,,,,,,,"2006-02-03"
"72287493134","2020-03-12T17:52:00","FM-15","7",,,"3.89","mi",,,,,,,"PENDING COOP",,,,,,,,,,,,,,,,,,,,,,,,,,,"29.80","51","57","0.00",,,,"81","29.79","OVC:08 60","29.60","10.00","54","000",,"0",,,,,,,,,,,,,,,,,,,,,,,,,,,,,,,,,,,,,"MET09303/12/20 17:52:01 METAR KCQT 130152Z 00000KT 10SM OVC060 14/11 A2980 RMK AO2 SLP089 T01390106","FM-15","7",,,,,,,,,,,,,,,,,,,,,,,,,,,,"2006-02-03"
"72287493134","2020-03-12T18:52:00","FM-15","7",,,"3.89","mi",,,,,,,"PENDING COOP",,,,,,,,,,,,,,,,,,,,,,,,,,,"29.81","51","57","0.00",,"-0.02","3","81","29.80","BKN:07 65 OVC:08 90","29.61","10.00","54","000",,"0",,,,,,,,,,,,,,,,,,,,,,,,,,,,,,,,,,,,,"MET10603/12/20 18:52:01 METAR KCQT 130252Z 00000KT 10SM BKN065 OVC090 14/11 A2981 RMK AO2 SLP093 T01390106 53006","FM-15","7",,,,,,,,,,,,,,,,,,,,,,,,,,,,"2006-02-03"
"72287493134","2020-03-12T19:52:00","FM-15","7",,,"3.89","mi",,,,,,,"PENDING COOP",,,,,,,,,,,,,,,,,,,,,,,,,,,"29.82","51","57","0.00",,,,"81","29.82","OVC:08 65","29.62","10.00","54","000",,"0",,,,,,,,,,,,,,,,,,,,,,,,,,,,,,,,,,,,,"MET09303/12/20 19:52:02 METAR KCQT 130352Z 00000KT 10SM OVC065 14/11 A2982 RMK AO2 SLP097 T01390106","FM-15","7",,,,,,,,,,,,,,,,,,,,,,,,,,,,"2006-02-03"
"72287493134","2020-03-12T20:52:00","FM-15","6",,,"3.89","mi",,,,,,,"PENDING COOP",,,,,,,,,,,,,,,,,,,,,,,,,,,"29.82","49","58","0.00",,,,"72","29.82","OVC:08 55","29.62","10.00","53","000",,"0",,,,,,,,,,,,,,,,,,,,,,,,,,,,,,,,,,,,,"MET09303/12/20 20:52:02 METAR KCQT 130452Z 00000KT 10SM OVC055 14/09 A2982 RMK AO2 SLP097 T01440094","FM-15","6",,,,,,,,,,,,,,,,,,,,,,,,,,,,"2006-02-03"
"72287493134","2020-03-12T21:52:00","FM-15","6",,,"3.89","mi",,,,,,,"PENDING COOP",,,,,,,,,,,,,,,,,,,,,,,,,,,"29.83","50","57","0.01","-RA:02 |RA |RA","-0.02","1","78","29.83","OVC:08 55","29.63","10.00","53","000",,"0",,,,,,,,,,,,,,,,,,,,,,,,,,,,,,,,,,,,,"MET13303/12/20 21:52:02 METAR KCQT 130552Z 00000KT 10SM -RA OVC055 14/10 A2983 RMK AO2 RAB18 SLP101 P0001 60001 T01390100 10144 20139 51007","FM-15","6",,,,,,,,,,,,,,,,,,,,,,,,,,,,"2006-02-03"
"72287493134","2020-03-12T22:52:00","FM-15","7",,,"3.89","mi",,,,,,,"PENDING COOP",,,,,,,,,,,,,,,,,,,,,,,,,,,"29.84","49","57","T",,,,"74","29.83","SCT:04 65 OVC:08 95","29.64","10.00","53","000",,"0",,,,,,,,,,,,,,,,,,,,,,,,,,,,,,,,,,,,,"MET11203/12/20 22:52:02 METAR KCQT 130652Z 00000KT 10SM SCT065 OVC095 14/09 A2984 RMK AO2 RAE02 SLP102 P0000 T01390094","FM-15","7",,,,,,,,,,,,,,,,,,,,,,,,,,,,"2006-02-03"
"72287493134","2020-03-12T23:33:00","FM-16","7",,,"3.89","mi",,,,,,,"PENDING COOP",,,,,,,,,,,,,,,,,,,,,,,,,,,"29.83","49","57","T","-RA:02 |RA |RA",,,"74",,"BKN:07 15 OVC:08 100","29.63","10.00","53","000",,"0",,,,,,,,,,,,,,,,,,,,,,,,,,,,,,,,,,,,,"MET10903/12/20 23:33:02 SPECI KCQT 130733Z 00000KT 10SM -RA BKN015 OVC100 14/09 A2983 RMK AO2 RAB00 P0000 T01390094","FM-16","7",,,,,,,,,,,,,,,,,,,,,,,,,,,,"2006-02-03"
"72287493134","2020-03-12T23:52:00","FM-15","7",,,"3.89","mi",,,,,,,"PENDING COOP",,,,,,,,,,,,,,,,,,,,,,,,,,,"29.83","49","57","T","-RA:02 |RA |RA",,,"74","29.83","OVC:08 15","29.63","10.00","53","000",,"0",,,,,,,,,,,,,,,,,,,,,,,,,,,,,,,,,,,,,"MET11903/12/20 23:52:02 METAR KCQT 130752Z 00000KT 10SM -RA OVC015 14/09 A2983 RMK AO2 RAB00 SLP101 P0000 T01390094 401780133","FM-15","7",,,,,,,,,,,,,,,,,,,,,,,,,,,,"2006-02-03"
"72287493134","2020-03-12T23:59:00","SOD  ","6",,,"3.89","mi",,,,,,,"PENDING COOP",,,,"51","60","78","29.83","29.63","55","1.4","0","-0.4","5","64","56","350","17","1.30",,,"350","10","RA BR",,,,,,,,,,,,,,,,,,,,,,,,,,,,,,,,,,,,,,,,,,,,,,,,,,,,,,,,"SOD75624 HR PRECIPITATION (IN): 1.30 SNOW DEPTH (IN):0     24 HR SNOWFALL (IN):0.0  WEATHER(CODE):1  24 HR MAX TEMP (F): 6424 HR MIN TEMP (F): 56AVERAGE STATION PRESSURE(D):29.632 MINIMUM SEA LEVEL PRESSURE:29.76 TIME OF OCCURRENCE:1507 PEAK WIND SPEED (MPH): 17 PEAK WIND DIR (DEG):350 PEAK WIND TIME (LST):      FASTEST 2MIN SPEED (MPH): 10FASTEST 2MIN DIR (DEG):350 FASTEST 2MIN TIME (LST):     AVERAGE WIND SPEED (MPH): 1.4 24 HR AVG TEMP (F): 60DEPART FROM NORMAL:  0  HEATING DEGREE DAYS:  5 COOLING DEGREE DAYS:  0 LATEST DAY MAX TEMP (0700-1900 LST): 64 LATEST NIGHT MIN TEMP(1900-0800 LST):56 HOURLY INCREMENTAL PRECIPITATION VALUES (IN):0.00 0.00 0.00 0.00 0.00 0.00 0.00 0.00 0.00T     0.15 0.24 0.32 0.20 0.34 0.04 0.00 0.00 0.00 0.00 0.00 0.01T    T","SOD  ","6",,,,,,,,,,,,,,,,,,,,,,,,,"0607","1759",,"2006-02-03"
"72287493134","2020-03-13T00:00:00","FM-16","7",,,"3.89","mi",,,,,,,"PENDING COOP",,,,,,,,,,,,,,,,,,,,,,,,,,,"29.83","49","57","T","-RA:02 |RA |RA",,,"74",,"OVC:08 14","29.63","10.00","53","050",,"5",,,,,,,,,,,,,,,,,,,,,,,,,,,,,,,,,,,,,"MET09603/13/20 00:00:02 SPECI KCQT 130800Z 05004KT 10SM -RA OVC014 14/09 A2983 RMK AO2 P0000 T01390094","FM-16","7",,,,,,,,,,,,,,,,,,,,,,,,,,,,"2006-02-03"
"72287493134","2020-03-13T00:37:00","FM-16","7",,,"3.89","mi",,,,,,,"PENDING COOP",,,,,,,,,,,,,,,,,,,,,,,,,,,"29.82","50","57","0.01","-RA:02 |RA |RA",,,"78",,"SCT:04 13 OVC:08 23","29.62","9.00","53","040",,"5",,,,,,,,,,,,,,,,,,,,,,,,,,,,,,,,,,,,,"MET10203/13/20 00:37:02 SPECI KCQT 130837Z 04004KT 9SM -RA SCT013 OVC023 14/10 A2982 RMK AO2 P0001 T01390100","FM-16","7",,,,,,,,,,,,,,,,,,,,,,,,,,,,"2006-02-03"
"72287493134","2020-03-13T00:48:00","FM-16","6",,,"3.89","mi",,,,,,,"PENDING COOP",,,,,,,,,,,,,,,,,,,,,,,,,,,"29.82","50","56",,"-RA:02 |RA |RA",,,"81",,"BKN:07 12 BKN:07 20 OVC:08 25","29.62","7.00","53","000",,"0",,,,,,,,,,,,,,,,,,,,,,,,,,,,,,,,,,,,,"MET10903/13/20 00:48:02 SPECI KCQT 130848Z 00000KT 7SM -RA BKN012 BKN020 OVC025 13/10 A2982 RMK AO2 P0002 T01330100","FM-16","6",,,,,,,,,,,,,,,,,,,,,,,,,,,,"2006-02-03"
"72287493134","2020-03-13T00:52:00","FM-15","6",,,"3.89","mi",,,,,,,"PENDING COOP",,,,,,,,,,,,,,,,,,,,,,,,,,,"29.82","50","56","0.03s","-RA:02 |RA |RA","+0.01","8","81","29.82","BKN:07 12 BKN:07 20 OVC:08 25","29.62","7.00","53","000",,"0",,,,,,,,,,,,,,,,,,,,,,,,,,,,,,,,,,,,,"MET12803/13/20 00:52:02 METAR KCQT 130852Z 00000KT 7SM -RA BKN012 BKN020 OVC025 13/10 A2982 RMK AO2 SLP098 P0002 60002 T01330100 58002","FM-15","6",,,,,,,,,,,,,,,,,,,,,,,,,,,,"2006-02-03"
"72287493134","2020-03-13T01:52:00","FM-15","7",,,"3.89","mi",,,,,,,"PENDING COOP",,,,,,,,,,,,,,,,,,,,,,,,,,,"29.83","51","56","0.04","RA:02 |RA |RA",,,"84","29.82","OVC:08 11","29.63","4.00","53","000",,"0",,,,,,,,,,,,,,,,,,,,,,,,,,,,,,,,,,,,,"MET10103/13/20 01:52:02 METAR KCQT 130952Z 00000KT 4SM RA OVC011 13/11 A2983 RMK AO2 SLP099 P0004 T01330106","FM-15","7",,,,,,,,,,,,,,,,,,,,,,,,,,,,"2006-02-03"
"72287493134","2020-03-13T02:23:00","FM-16","6",,,"3.89","mi",,,,,,,"PENDING COOP",,,,,,,,,,,,,,,,,,,,,,,,,,,"29.82","50","56",,"RA:02 |RA |RA",,,"81",,"BKN:07 8 OVC:08 12","29.62","4.00","53","000",,"0",,,,,,,,,,,,,,,,,,,,,,,,,,,,,,,,,,,,,"MET11303/13/20 02:23:02 SPECI KCQT 131023Z 00000KT 4SM RA BKN008 OVC012 13/10 A2982 RMK AO2 CIG 007V010 P0004 T01330100","FM-16","6",,,,,,,,,,,,,,,,,,,,,,,,,,,,"2006-02-03"
"72287493134","2020-03-13T02:35:00","FM-16","7",,,"3.89","mi",,,,,,,"PENDING COOP",,,,,,,,,,,,,,,,,,,,,,,,,,,"29.82","50","56","0.05","-RA:02 |RA |RA",,,"81",,"SCT:04 8 OVC:08 13","29.62","5.00","53","000",,"0",,,,,,,,,,,,,,,,,,,,,,,,,,,,,,,,,,,,,"MET10203/13/20 02:35:02 SPECI KCQT 131035Z 00000KT 5SM -RA SCT008 OVC013 13/10 A2982 RMK AO2 P0005 T01330100","FM-16","7",,,,,,,,,,,,,,,,,,,,,,,,,,,,"2006-02-03"
"72287493134","2020-03-13T02:43:00","FM-16","6",,,"3.89","mi",,,,,,,"PENDING COOP",,,,,,,,,,,,,,,,,,,,,,,,,,,"29.82","51","56",,"-RA:02 |RA |RA",,,"84",,"BKN:07 8 OVC:08 13","29.62","5.00","53","000",,"0",,,,,,,,,,,,,,,,,,,,,,,,,,,,,,,,,,,,,"MET11403/13/20 02:43:02 SPECI KCQT 131043Z 00000KT 5SM -RA BKN008 OVC013 13/11 A2982 RMK AO2 CIG 007V010 P0006 T01330106","FM-16","6",,,,,,,,,,,,,,,,,,,,,,,,,,,,"2006-02-03"
"72287493134","2020-03-13T02:52:00","FM-15","7",,,"3.89","mi",,,,,,,"PENDING COOP",,,,,,,,,,,,,,,,,,,,,,,,,,,"29.82","51","56","0.07","-RA:02 |RA |RA",,,"84","29.82","SCT:04 8 OVC:08 13","29.62","5.00","53","000",,"0",,,,,,,,,,,,,,,,,,,,,,,,,,,,,,,,,,,,,"MET10903/13/20 02:52:02 METAR KCQT 131052Z 00000KT 5SM -RA SCT008 OVC013 13/11 A2982 RMK AO2 SLP098 P0008 T01330106","FM-15","7",,,,,,,,,,,,,,,,,,,,,,,,,,,,"2006-02-03"
"72287493134","2020-03-13T03:18:00","FM-16","7",,,"3.89","mi",,,,,,,"PENDING COOP",,,,,,,,,,,,,,,,,,,,,,,,,,,"29.82","50","55","0.02","RA:02 |RA |RA",,,"83",,"FEW:02 9 OVC:08 15","29.62","6.00","52","080",,"3",,,,,,,,,,,,,,,,,,,,,,,,,,,,,,,,,,,,,"MET10103/13/20 03:18:02 SPECI KCQT 131118Z 08003KT 6SM RA FEW009 OVC015 13/10 A2982 RMK AO2 P0002 T01280100","FM-16","7",,,,,,,,,,,,,,,,,,,,,,,,,,,,"2006-02-03"
"72287493134","2020-03-13T03:22:00","FM-16","7",,,"3.89","mi",,,,,,,"PENDING COOP",,,,,,,,,,,,,,,,,,,,,,,,,,,"29.82","50","55","0.03","RA:02 |RA |RA",,,"83",,"OVC:08 13","29.62","6.00","52","060",,"3",,,,,,,,,,,,,,,,,,,,,,,,,,,,,,,,,,,,,"MET09403/13/20 03:22:02 SPECI KCQT 131122Z 06003KT 6SM RA OVC013 13/10 A2982 RMK AO2 P0003 T01280100","FM-16","7",,,,,,,,,,,,,,,,,,,,,,,,,,,,"2006-02-03"
"72287493134","2020-03-13T03:52:00","FM-15","6",,,"3.89","mi",,,,,,,"PENDING COOP",,,,,,,,,,,,,,,,,,,,,,,,,,,"29.83","50","55","0.08","-RA:02 |RA |RA","-0.01","3","83","29.83","OVC:08 14","29.63","6.00","52","000",,"0",,,,,,,,,,,,,,,,,,,,,,,,,,,,,,,,,,,,,"MET13203/13/20 03:52:02 METAR KCQT 131152Z 00000KT 6SM -RA OVC014 13/10 A2983 RMK AO2 SLP101 P0007 60021 70151 T01280100 10139 20128 53003","FM-15","6",,,,,,,,,,,,,,,,,,,,,,,,,,,,"2006-02-03"
"72287493134","2020-03-13T03:55:00","FM-16","6",,,"3.89","mi",,,,,,,"PENDING COOP",,,,,,,,,,,,,,,,,,,,,,,,,,,"29.83","50","55",,"-RA:02 |RA |RA",,,"83",,"FEW:02 7 OVC:08 14","29.63","7.00","52","000",,"0",,,,,,,,,,,,,,,,,,,,,,,,,,,,,,,,,,,,,"MET10203/13/20 03:55:02 SPECI KCQT 131155Z 00000KT 7SM -RA FEW007 OVC014 13/10 A2983 RMK AO2 P0001 T01280100","FM-16","6",,,,,,,,,,,,,,,,,,,,,,,,,,,,"2006-02-03"
"72287493134","2020-03-13T03:58:00","FM-16","6",,,"3.89","mi",,,,,,,"PENDING COOP",,,,,,,,,,,,,,,,,,,,,,,,,,,"29.83","50","55",,"-RA:02 |RA |RA",,,"83",,"FEW:02 7 OVC:08 15","29.63","7.00","52","000",,"0",,,,,,,,,,,,,,,,,,,,,,,,,,,,,,,,,,,,,"MET10203/13/20 03:58:02 SPECI KCQT 131158Z 00000KT 7SM -RA FEW007 OVC015 13/10 A2983 RMK AO2 P0001 T01280100","FM-16","6",,,,,,,,,,,,,,,,,,,,,,,,,,,,"2006-02-03"
"72287493134","2020-03-13T04:25:00","FM-16","6",,,"3.89","mi",,,,,,,"PENDING COOP",,,,,,,,,,,,,,,,,,,,,,,,,,,"29.84","50","55",,"RA:02 |RA |RA",,,"83",,"FEW:02 9 SCT:04 16 OVC:08 65","29.64","6.00","52","000",,"0",,,,,,,,,,,,,,,,,,,,,,,,,,,,,,,,,,,,,"MET10803/13/20 04:25:02 SPECI KCQT 131225Z 00000KT 6SM RA FEW009 SCT016 OVC065 13/10 A2984 RMK AO2 P0004 T01280100","FM-16","6",,,,,,,,,,,,,,,,,,,,,,,,,,,,"2006-02-03"
"72287493134","2020-03-13T04:52:00","FM-15","6",,,"3.89","mi",,,,,,,"PENDING COOP",,,,,,,,,,,,,,,,,,,,,,,,,,,"29.84","50","55","0.10","RA:02 |RA |RA",,,"83","29.83","OVC:08 65","29.64","5.00","52","000",,"0",,,,,,,,,,,,,,,,,,,,,,,,,,,,,,,,,,,,,"MET10103/13/20 04:52:02 METAR KCQT 131252Z 00000KT 5SM RA OVC065 13/10 A2984 RMK AO2 SLP103 P0008 T01280100","FM-15","6",,,,,,,,,,,,,,,,,,,,,,,,,,,,"2006-02-03"
"72287493134","2020-03-13T05:52:00","FM-15","7",,,"3.89","mi",,,,,,,"PENDING COOP",,,,,,,,,,,,,,,,,,,,,,,,,,,"29.85","51","55","0.07","-RA:02 BR:1 |RA |RA",,,"87","29.85","FEW:02 50 OVC:08 70","29.65","6.00","53","000",,"0",,,,,,,,,,,,,,,,,,,,,,,,,,,,,,,,,,,,,"MET11203/13/20 05:52:02 METAR KCQT 131352Z 00000KT 6SM -RA BR FEW050 OVC070 13/11 A2985 RMK AO2 SLP108 P0009 T01280106","FM-15","7",,,,,,,,,,,,,,,,,,,,,,,,,,,,"2006-02-03"
"72287493134","2020-03-13T06:17:00","FM-16","7",,,"3.89","mi",,,,,,,"PENDING COOP",,,,,,,,,,,,,,,,,,,,,,,,,,,"29.86","51","55","0.01","-RA:02 |RA |RA",,,"87",,"SCT:04 13 BKN:07 26 OVC:08 85","29.66","8.00","53","000",,"0",,,,,,,,,,,,,,,,,,,,,,,,,,,,,,,,,,,,,"MET10903/13/20 06:17:02 SPECI KCQT 131417Z 00000KT 8SM -RA SCT013 BKN026 OVC085 13/11 A2986 RMK AO2 P0001 T01280106","FM-16","7",,,,,,,,,,,,,,,,,,,,,,,,,,,,"2006-02-03"
"72287493134","2020-03-13T06:29:00","FM-16","7",,,"3.89","mi",,,,,,,"PENDING COOP",,,,,,,,,,,,,,,,,,,,,,,,,,,"29.86","51","55","0.02","-RA:02 BR:1 |RA |RA",,,"87",,"BKN:07 12 BKN:07 26 OVC:08 85","29.66","5.00","53","000",,"0",,,,,,,,,,,,,,,,,,,,,,,,,,,,,,,,,,,,,"MET11203/13/20 06:29:02 SPECI KCQT 131429Z 00000KT 5SM -RA BR BKN012 BKN026 OVC085 13/11 A2986 RMK AO2 P0002 T01280106","FM-16","7",,,,,,,,,,,,,,,,,,,,,,,,,,,,"2006-02-03"
"72287493134","2020-03-13T06:52:00","FM-15","7",,,"3.89","mi",,,,,,,"PENDING COOP",,,,,,,,,,,,,,,,,,,,,,,,,,,"29.86","51","55","0.03","-RA:02 BR:1 |RA |RA","-0.03","3","87","29.86","BKN:07 13 BKN:07 26 OVC:08 60","29.66","6.00","53","000",,"0",,,,,,,,,,,,,,,,,,,,,,,,,,,,,,,,,,,,,"MET13103/13/20 06:52:02 METAR KCQT 131452Z 00000KT 6SM -RA BR BKN013 BKN026 OVC060 13/11 A2986 RMK AO2 SLP112 P0003 60020 T01280106 53011","FM-15","7",,,,,,,,,,,,,,,,,,,,,,,,,,,,"2006-02-03"
"72287493134","2020-03-13T06:56:00","FM-16","7",,,"3.89","mi",,,,,,,"PENDING COOP",,,,,,,,,,,,,,,,,,,,,,,,,,,"29.87","51","55","T","-RA:02 BR:1 |RA |RA",,,"87",,"SCT:04 13 SCT:04 26 OVC:08 60","29.67","5.00","53","000",,"0",,,,,,,,,,,,,,,,,,,,,,,,,,,,,,,,,,,,,"MET11203/13/20 06:56:02 SPECI KCQT 131456Z 00000KT 5SM -RA BR SCT013 SCT026 OVC060 13/11 A2987 RMK AO2 P0000 T01280106","FM-16","7",,,,,,,,,,,,,,,,,,,,,,,,,,,,"2006-02-03"
"72287493134","2020-03-13T07:52:00","FM-15","7",,,"3.89","mi",,,,,,,"PENDING COOP",,,,,,,,,,,,,,,,,,,,,,,,,,,"29.88","51","56","0.01","-RA:02 |RA |RA",,,"84","29.88","OVC:08 50","29.68","9.00","53","000",,"0",,,,,,,,,,,,,,,,,,,,,,,,,,,,,,,,,,,,,"MET10203/13/20 07:52:02 METAR KCQT 131552Z 00000KT 9SM -RA OVC050 13/11 A2988 RMK AO2 SLP118 P0002 T01330106","FM-15","7",,,,,,,,,,,,,,,,,,,,,,,,,,,,"2006-02-03"
"72287493134","2020-03-13T08:52:00","FM-15","7",,,"3.89","mi",,,,,,,"PENDING COOP",,,,,,,,,,,,,,,,,,,,,,,,,,,"29.90","51","57","T","-RA:02 |RA |RA",,,"81","29.90","OVC:08 55","29.70","10.00","54","100",,"3",,,,,,,,,,,,,,,,,,,,,,,,,,,,,,,,,,,,,"MET11203/13/20 08:52:02 METAR KCQT 131652Z 10003KT 10SM -RA OVC055 14/11 A2990 RMK AO2 RAE19B48 SLP124 P0000 T01390106","FM-15","7",,,,,,,,,,,,,,,,,,,,,,,,,,,,"2006-02-03"
"72287493134","2020-03-13T09:27:00","FM-16","7",,,"3.89","mi",,,,,,,"PENDING COOP",,,,,,,,,,,,,,,,,,,,,,,,,,,"29.91","51","57","T",,,,"81",,"FEW:02 9 OVC:08 48","29.71","7.00","54","000",,"0",,,,,,,,,,,,,,,,,,,,,,,,,,,,,,,,,,,,,"MET10403/13/20 09:27:02 SPECI KCQT 131727Z 00000KT 7SM FEW009 OVC048 14/11 A2991 RMK AO2 RAE04 P0000 T01390106","FM-16","7",,,,,,,,,,,,,,,,,,,,,,,,,,,,"2006-02-03"
"72287493134","2020-03-13T09:45:00","FM-16","7",,,"3.89","mi",,,,,,,"PENDING COOP",,,,,,,,,,,,,,,,,,,,,,,,,,,"29.92","52","57","T",,,,"83",,"SCT:04 8 BKN:07 15 OVC:08 46","29.72","7.00","54","000",,"0",,,,,,,,,,,,,,,,,,,,,,,,,,,,,,,,,,,,,"MET11103/13/20 09:45:02 SPECI KCQT 131745Z 00000KT 7SM SCT008 BKN015 OVC046 14/11 A2992 RMK AO2 RAE04 P0000 T01390111","FM-16","7",,,,,,,,,,,,,,,,,,,,,,,,,,,,"2006-02-03"
"72287493134","2020-03-13T09:56:00","FM-16","7",,,"3.89","mi",,,,,,,"PENDING COOP",,,,,,,,,,,,,,,,,,,,,,,,,,,"29.92","52","58",,"HZ:7 |FU |HZ",,,"81",,"SCT:04 8 OVC:08 49","29.72","6.00","55","000",,"0",,,,,,,,,,,,,,,,,,,,,,,,,,,,,,,,,,,,,"MET09503/13/20 09:56:02 SPECI KCQT 131756Z 00000KT 6SM HZ SCT008 OVC049 14/11 A2992 RMK AO2 T01440111","FM-16","7",,,,,,,,,,,,,,,,,,,,,,,,,,,,"2006-02-03"
"72287493134","2020-03-13T10:07:00","FM-16","7",,,"3.89","mi",,,,,,,"PENDING COOP",,,,,,,,,,,,,,,,,,,,,,,,,,,"29.92","52","58",,"HZ:7 |FU |HZ",,,"81",,"FEW:02 8 BKN:07 25 OVC:08 50","29.72","4.00","55","000",,"0",,,,,,,,,,,,,,,,,,,,,,,,,,,,,,,,,,,,,"MET10203/13/20 10:07:02 SPECI KCQT 131807Z 00000KT 4SM HZ FEW008 BKN025 OVC050 14/11 A2992 RMK AO2 T01440111","FM-16","7",,,,,,,,,,,,,,,,,,,,,,,,,,,,"2006-02-03"
"72287493134","2020-03-13T10:44:00","FM-16","7",,,"3.89","mi",,,,,,,"PENDING COOP",,,,,,,,,,,,,,,,,,,,,,,,,,,"29.93","52","57","T","-RA:02 |RA |RA",,,"83",,"FEW:02 8 BKN:07 17 OVC:08 37","29.73","2.50","54","000",,"0",,,,,,,,,,,,,,,,,,,,,,,,,,,,,,,,,,,,,"MET11903/13/20 10:44:02 SPECI KCQT 131844Z 00000KT 2 1/2SM -RA FEW008 BKN017 OVC037 14/11 A2993 RMK AO2 RAB24 P0000 T01390111","FM-16","7",,,,,,,,,,,,,,,,,,,,,,,,,,,,"2006-02-03"
"72287493134","2020-03-13T10:52:00","FM-15","7",,,"3.89","mi",,,,,,,"PENDING COOP",,,,,,,,,,,,,,,,,,,,,,,,,,,"29.93","52","57","0.01","-RA:02 |RA |RA",,,"83","29.93","SCT:04 8 BKN:07 17 OVC:08 34","29.73","2.00","54","000",,"0",,,,,,,,,,,,,,,,,,,,,,,,,,,,,,,,,,,,,"MET12203/13/20 10:52:02 METAR KCQT 131852Z 00000KT 2SM -RA SCT008 BKN017 OVC034 14/11 A2993 RMK AO2 RAB24 SLP135 P0000 T01390111","FM-15","7",,,,,,,,,,,,,,,,,,,,,,,,,,,,"2006-02-03"
"72287493134","2020-03-13T11:01:00","FM-16","7",,,"3.89","mi",,,,,,,"PENDING COOP",,,,,,,,,,,,,,,,,,,,,,,,,,,"29.93","52","57","0.01","-RA:02 |RA |RA",,,"83",,"SCT:04 8 BKN:07 17 OVC:08 36","29.73","3.00","54","000",,"0",,,,,,,,,,,,,,,,,,,,,,,,,,,,,,,,,,,,,"MET10903/13/20 11:01:02 SPECI KCQT 131901Z 00000KT 3SM -RA SCT008 BKN017 OVC036 14/11 A2993 RMK AO2 P0001 T01390111","FM-16","7",,,,,,,,,,,,,,,,,,,,,,,,,,,,"2006-02-03"
"72287493134","2020-03-13T11:05:00","FM-16","7",,,"3.89","mi",,,,,,,"PENDING COOP",,,,,,,,,,,,,,,,,,,,,,,,,,,"29.93","51","57","0.01","HZ:7 |FU |HZ",,,"81",,"FEW:02 8 SCT:04 18 OVC:08 36","29.73","5.00","54","000",,"0",,,,,,,,,,,,,,,,,,,,,,,,,,,,,,,,,,,,,"MET11403/13/20 11:05:02 SPECI KCQT 131905Z 00000KT 5SM HZ FEW008 SCT018 OVC036 14/11 A2993 RMK AO2 RAE03 P0001 T01390106","FM-16","7",,,,,,,,,,,,,,,,,,,,,,,,,,,,"2006-02-03"
"72287493134","2020-03-13T11:52:00","FM-15","7",,,"3.89","mi",,,,,,,"PENDING COOP",,,,,,,,,,,,,,,,,,,,,,,,,,,"29.93","51","58","T","-RA:02 |RA |RA",,,"78","29.93","OVC:08 30","29.73","7.00","54","000",,"0",,,,,,,,,,,,,,,,,,,,,,,,,,,,,,,,,,,,,"MET11103/13/20 11:52:02 METAR KCQT 131952Z 00000KT 7SM -RA OVC030 14/11 A2993 RMK AO2 RAE03B29 SLP135 P0001 T01440106","FM-15","7",,,,,,,,,,,,,,,,,,,,,,,,,,,,"2006-02-03"
"72287493134","2020-03-13T12:02:00","FM-16","7",,,"3.89","mi",,,,,,,"PENDING COOP",,,,,,,,,,,,,,,,,,,,,,,,,,,"29.93","51","57","T",,,,"81",,"OVC:08 29","29.73","7.00","54","000",,"0",,,,,,,,,,,,,,,,,,,,,,,,,,,,,,,,,,,,,"MET09703/13/20 12:02:02 SPECI KCQT 132002Z 00000KT 7SM OVC029 14/11 A2993 RMK AO2 RAE00 P0000 T01390106","FM-16","7",,,,,,,,,,,,,,,,,,,,,,,,,,,,"2006-02-03"
"72287493134","2020-03-13T12:52:00","FM-15","7",,,"3.89","mi",,,,,,,"PENDING COOP",,,,,,,,,,,,,,,,,,,,,,,,,,,"29.93","51","58","T",,"-0.01","0","78","29.92","FEW:02 13 SCT:04 20 OVC:08 27","29.73","10.00","54","VRB",,"3",,,,,,,,,,,,,,,,,,,,,,,,,,,,,,,,,,,,,"MET13703/13/20 12:52:02 METAR KCQT 132052Z VRB03KT 10SM FEW013 SCT020 OVC027 14/11 A2993 RMK AO2 RAE00B09E31 SLP133 P0000 60001 T01440106 50003","FM-15","7",,,,,,,,,,,,,,,,,,,,,,,,,,,,"2006-02-03"
"72287493134","2020-03-13T13:08:00","FM-16","7",,,"3.89","mi",,,,,,,"PENDING COOP",,,,,,,,,,,,,,,,,,,,,,,,,,,"29.93","51","59",,,,,"75",,"BKN:07 13 BKN:07 20 OVC:08 27","29.73","10.00","55","110",,"3",,,,,,,,,,,,,,,,,,,,,,,,,,,,,,,,,,,,,"MET10003/13/20 13:08:02 SPECI KCQT 132108Z 11003KT 10SM BKN013 BKN020 OVC027 15/11 A2993 RMK AO2 T01500106","FM-16","7",,,,,,,,,,,,,,,,,,,,,,,,,,,,"2006-02-03"
"72287493134","2020-03-13T13:11:00","FM-16","7",,,"3.89","mi",,,,,,,"PENDING COOP",,,,,,,,,,,,,,,,,,,,,,,,,,,"29.93","51","59",,,,,"75",,"SCT:04 13 BKN:07 20 OVC:08 24","29.73","10.00","55","100",,"3",,,,,,,,,,,,,,,,,,,,,,,,,,,,,,,,,,,,,"MET10003/13/20 13:11:02 SPECI KCQT 132111Z 10003KT 10SM SCT013 BKN020 OVC024 15/11 A2993 RMK AO2 T01500106","FM-16","7",,,,,,,,,,,,,,,,,,,,,,,,,,,,"2006-02-03"
"72287493134","2020-03-13T13:35:00","FM-16","7",,,"3.89","mi",,,,,,,"PENDING COOP",,,,,,,,,,,,,,,,,,,,,,,,,,,"29.93","50","60",,,,,"70",,"FEW:02 16 SCT:04 24 OVC:08 34","29.73","10.00","55","VRB",,"5",,,,,,,,,,,,,,,,,,,,,,,,,,,,,,,,,,,,,"MET10003/13/20 13:35:02 SPECI KCQT 132135Z VRB04KT 10SM FEW016 SCT024 OVC034 16/10 A2993 RMK AO2 T01560100","FM-16","7",,,,,,,,,,,,,,,,,,,,,,,,,,,,"2006-02-03"
"72287493134","2020-03-13T13:43:00","FM-16","7",,,"3.89","mi",,,,,,,"PENDING COOP",,,,,,,,,,,,,,,,,,,,,,,,,,,"29.93","50","60",,,,,"70",,"SCT:04 18 BKN:07 25 OVC:08 35","29.73","10.00","55","VRB",,"3",,,,,,,,,,,,,,,,,,,,,,,,,,,,,,,,,,,,,"MET10003/13/20 13:43:02 SPECI KCQT 132143Z VRB03KT 10SM SCT018 BKN025 OVC035 16/10 A2993 RMK AO2 T01560100","FM-16","7",,,,,,,,,,,,,,,,,,,,,,,,,,,,"2006-02-03"
"72287493134","2020-03-13T13:52:00","FM-15","7",,,"3.89","mi",,,,,,,"PENDING COOP",,,,,,,,,,,,,,,,,,,,,,,,,,,"29.93","50","60","0.00",,,,"70","29.93","BKN:07 18 OVC:08 35","29.73","10.00","55","130",,"3",,,,,,,,,,,,,,,,,,,,,,,,,,,,,,,,,,,,,"MET10003/13/20 13:52:02 METAR KCQT 132152Z 13003KT 10SM BKN018 OVC035 16/10 A2993 RMK AO2 SLP134 T01560100","FM-15","7",,,,,,,,,,,,,,,,,,,,,,,,,,,,"2006-02-03"
"72287493134","2020-03-13T14:37:00","FM-16","7",,,"3.89","mi",,,,,,,"PENDING COOP",,,,,,,,,,,,,,,,,,,,,,,,,,,"29.93","52","59","T","-RA:02 |RA |RA",,,"78",,"OVC:08 16","29.73","2.50","55","000",,"0",,,,,,,,,,,,,,,,,,,,,,,,,,,,,,,,,,,,,"MET10503/13/20 14:37:02 SPECI KCQT 132237Z 00000KT 2 1/2SM -RA OVC016 15/11 A2993 RMK AO2 RAB08 P0000 T01500111","FM-16","7",,,,,,,,,,,,,,,,,,,,,,,,,,,,"2006-02-03"
"72287493134","2020-03-13T14:46:00","FM-16","7",,,"3.89","mi",,,,,,,"PENDING COOP",,,,,,,,,,,,,,,,,,,,,,,,,,,"29.94","52","59","T","-RA:02 |RA |RA",,,"78",,"OVC:08 16","29.74","3.00","55","000",,"0",,,,,,,,,,,,,,,,,,,,,,,,,,,,,,,,,,,,,"MET10103/13/20 14:46:02 SPECI KCQT 132246Z 00000KT 3SM -RA OVC016 15/11 A2994 RMK AO2 RAB08 P0000 T01500111","FM-16","7",,,,,,,,,,,,,,,,,,,,,,,,,,,,"2006-02-03"
"72287493134","2020-03-13T14:52:00","FM-15","7",,,"3.89","mi",,,,,,,"PENDING COOP",,,,,,,,,,,,,,,,,,,,,,,,,,,"29.94","52","58","0.01","-RA:02 |RA |RA",,,"81","29.93","BKN:07 10 OVC:08 16","29.74","3.00","55","000",,"0",,,,,,,,,,,,,,,,,,,,,,,,,,,,,,,,,,,,,"MET12703/13/20 14:52:02 METAR KCQT 132252Z 00000KT 3SM -RA BKN010 OVC016 14/11 A2994 RMK AO2 RAB08 CIG 007V014 SLP137 P0000 T01440111","FM-15","7",,,,,,,,,,,,,,,,,,,,,,,,,,,,"2006-02-03"
"72287493134","2020-03-13T14:56:00","FM-16","7",,,"3.89","mi",,,,,,,"PENDING COOP",,,,,,,,,,,,,,,,,,,,,,,,,,,"29.94","52","58","T","-RA:02 |RA |RA",,,"81",,"SCT:04 8 OVC:08 16","29.74","2.50","55","000",,"0",,,,,,,,,,,,,,,,,,,,,,,,,,,,,,,,,,,,,"MET10603/13/20 14:56:02 SPECI KCQT 132256Z 00000KT 2 1/2SM -RA SCT008 OVC016 14/11 A2994 RMK AO2 P0000 T01440111","FM-16","7",,,,,,,,,,,,,,,,,,,,,,,,,,,,"2006-02-03"
"72287493134","2020-03-13T14:59:00","FM-16","7",,,"3.89","mi",,,,,,,"PENDING COOP",,,,,,,,,,,,,,,,,,,,,,,,,,,"29.94","52","59","0.01","-RA:02 |RA |RA",,,"78",,"BKN:07 8 OVC:08 14","29.74","2.00","55","000",,"0",,,,,,,,,,,,,,,,,,,,,,,,,,,,,,,,,,,,,"MET11403/13/20 14:59:02 SPECI KCQT 132259Z 00000KT 2SM -RA BKN008 OVC014 15/11 A2994 RMK AO2 CIG 007V011 P0001 T01500111","FM-16","7",,,,,,,,,,,,,,,,,,,,,,,,,,,,"2006-02-03"
"72287493134","2020-03-13T15:03:00","FM-16","7",,,"3.89","mi",,,,,,,"PENDING COOP",,,,,,,,,,,,,,,,,,,,,,,,,,,"29.94","52","58","0.01","-RA:02 |RA |RA",,,"81",,"BKN:07 8 OVC:08 14","29.74","1.75","55","000",,"0",,,,,,,,,,,,,,,,,,,,,,,,,,,,,,,,,,,,,"MET11803/13/20 15:03:02 SPECI KCQT 132303Z 00000KT 1 3/4SM -RA BKN008 OVC014 14/11 A2994 RMK AO2 CIG 007V011 P0001 T01440111","FM-16","7",,,,,,,,,,,,,,,,,,,,,,,,,,,,"2006-02-03"
"72287493134","2020-03-13T15:07:00","FM-16","7",,,"3.89","mi",,,,,,,"PENDING COOP",,,,,,,,,,,,,,,,,,,,,,,,,,,"29.94","52","58","0.01","-RA:02 |RA |RA",,,"81",,"BKN:07 10 OVC:08 14","29.74","1.50","55","000",,"0",,,,,,,,,,,,,,,,,,,,,,,,,,,,,,,,,,,,,"MET11803/13/20 15:07:02 SPECI KCQT 132307Z 00000KT 1 1/2SM -RA BKN010 OVC014 14/11 A2994 RMK AO2 CIG 007V014 P0001 T01440111","FM-16","7",,,,,,,,,,,,,,,,,,,,,,,,,,,,"2006-02-03"
"72287493134","2020-03-13T15:22:00","FM-16","7",,,"3.89","mi",,,,,,,"PENDING COOP",,,,,,,,,,,,,,,,,,,,,,,,,,,"29.94","53","58","0.04","-RA:02 |RA |RA",,,"84",,"BKN:07 8 OVC:08 13","29.74","2.00","55","000",,"0",,,,,,,,,,,,,,,,,,,,,,,,,,,,,,,,,,,,,"MET10203/13/20 15:22:02 SPECI KCQT 132322Z 00000KT 2SM -RA BKN008 OVC013 14/12 A2994 RMK AO2 P0004 T01440117","FM-16","7",,,,,,,,,,,,,,,,,,,,,,,,,,,,"2006-02-03"
"72287493134","2020-03-13T15:28:00","FM-16","7",,,"3.89","mi",,,,,,,"PENDING COOP",,,,,,,,,,,,,,,,,,,,,,,,,,,"29.94","52","58","0.04","-RA:02 |RA |RA",,,"81",,"BKN:07 8 OVC:08 13","29.74","3.00","55","000",,"0",,,,,,,,,,,,,,,,,,,,,,,,,,,,,,,,,,,,,"MET10203/13/20 15:28:02 SPECI KCQT 132328Z 00000KT 3SM -RA BKN008 OVC013 14/11 A2994 RMK AO2 P0004 T01440111","FM-16","7",,,,,,,,,,,,,,,,,,,,,,,,,,,,"2006-02-03"
"72287493134","2020-03-13T15:37:00","FM-16","7",,,"3.89","mi",,,,,,,"PENDING COOP",,,,,,,,,,,,,,,,,,,,,,,,,,,"29.94","53","58","0.05","-RA:02 |RA |RA",,,"84",,"BKN:07 6 OVC:08 11","29.74","2.50","55","000",,"0",,,,,,,,,,,,,,,,,,,,,,,,,,,,,,,,,,,,,"MET10603/13/20 15:37:02 SPECI KCQT 132337Z 00000KT 2 1/2SM -RA BKN006 OVC011 14/12 A2994 RMK AO2 P0005 T01440117","FM-16","7",,,,,,,,,,,,,,,,,,,,,,,,,,,,"2006-02-03"
"72287493134","2020-03-13T15:52:00","FM-15","7",,,"3.89","mi",,,,,,,"PENDING COOP",,,,,,,,,,,,,,,,,,,,,,,,,,,"29.94","54","58","0.05","-RA:02 BR:1 |RA |RA","-0.01","1","87","29.94","BKN:07 6 OVC:08 24","29.74","4.00","56","070",,"3",,,,,,,,,,,,,,,,,,,,,,,,,,,,,,,,,,,,,"MET13603/13/20 15:52:02 METAR KCQT 132352Z 07003KT 4SM -RA BR BKN006 OVC024 14/12 A2994 RMK AO2 SLP138 P0006 60007 T01440122 10156 20139 51004","FM-15","7",,,,,,,,,,,,,,,,,,,,,,,,,,,,"2006-02-03"
"72287493134","2020-03-13T16:00:00","FM-16","7",,,"3.89","mi",,,,,,,"PENDING COOP",,,,,,,,,,,,,,,,,,,,,,,,,,,"29.94","53","58","T","HZ:7 |FU |HZ",,,"84",,"SCT:04 6 BKN:07 17 OVC:08 28","29.74","4.00","55","090",,"3",,,,,,,,,,,,,,,,,,,,,,,,,,,,,,,,,,,,,"MET11603/13/20 16:00:01 SPECI KCQT 140000Z 09003KT 4SM HZ SCT006 BKN017 OVC028 14/12 A2994 RMK AO2 RAE2354 P0000 T01440117","FM-16","7",,,,,,,,,,,,,,,,,,,,,,,,,,,,"2006-02-03"
"72287493134","2020-03-13T16:52:00","FM-15","7",,,"3.89","mi",,,,,,,"PENDING COOP",,,,,,,,,,,,,,,,,,,,,,,,,,,"29.95","53","59","T","-RA:02 |RA |RA",,,"81","29.95","OVC:08 20","29.75","8.00","56","000",,"0",,,,,,,,,,,,,,,,,,,,,,,,,,,,,,,,,,,,,"MET11303/13/20 16:52:01 METAR KCQT 140052Z 00000KT 8SM -RA OVC020 15/12 A2995 RMK AO2 RAE2354B18 SLP141 P0000 T01500117","FM-15","7",,,,,,,,,,,,,,,,,,,,,,,,,,,,"2006-02-03"
"72287493134","2020-03-13T17:08:00","FM-16","7",,,"3.89","mi",,,,,,,"PENDING COOP",,,,,,,,,,,,,,,,,,,,,,,,,,,"29.95","52","59","T",,,,"78",,"BKN:07 14 OVC:08 20","29.75","9.00","55","000",,"0",,,,,,,,,,,,,,,,,,,,,,,,,,,,,,,,,,,,,"MET10603/13/20 17:08:01 SPECI KCQT 140108Z 00000KT 9SM BKN014 OVC020 15/11 A2995 RMK AO2 RAE0054 P0000 T01500111","FM-16","7",,,,,,,,,,,,,,,,,,,,,,,,,,,,"2006-02-03"
"72287493134","2020-03-13T17:23:00","FM-16","7",,,"3.89","mi",,,,,,,"PENDING COOP",,,,,,,,,,,,,,,,,,,,,,,,,,,"29.96","53","59","T","-RA:02 |RA |RA",,,"81",,"SCT:04 14 BKN:07 23 OVC:08 36","29.76","8.00","56","000",,"0",,,,,,,,,,,,,,,,,,,,,,,,,,,,,,,,,,,,,"MET12003/13/20 17:23:01 SPECI KCQT 140123Z 00000KT 8SM -RA SCT014 BKN023 OVC036 15/12 A2996 RMK AO2 RAE0054B16 P0000 T01500117","FM-16","7",,,,,,,,,,,,,,,,,,,,,,,,,,,,"2006-02-03"
"72287493134","2020-03-13T17:38:00","FM-16","7",,,"3.89","mi",,,,,,,"PENDING COOP",,,,,,,,,,,,,,,,,,,,,,,,,,,"29.96","53","59","T",,,,"81",,"FEW:02 14 BKN:07 36 OVC:08 45","29.76","9.00","56","000",,"0",,,,,,,,,,,,,,,,,,,,,,,,,,,,,,,,,,,,,"MET11903/13/20 17:38:01 SPECI KCQT 140138Z 00000KT 9SM FEW014 BKN036 OVC045 15/12 A2996 RMK AO2 RAE0054B16E26 P0000 T01500117","FM-16","7",,,,,,,,,,,,,,,,,,,,,,,,,,,,"2006-02-03"
"72287493134","2020-03-13T17:48:00","FM-16","7",,,"3.89","mi",,,,,,,"PENDING COOP",,,,,,,,,,,,,,,,,,,,,,,,,,,"29.97","53","59","T",,,,"81",,"BKN:07 14 BKN:07 26 OVC:08 39","29.77","9.00","56","000",,"0",,,,,,,,,,,,,,,,,,,,,,,,,,,,,,,,,,,,,"MET11903/13/20 17:48:01 SPECI KCQT 140148Z 00000KT 9SM BKN014 BKN026 OVC039 15/12 A2997 RMK AO2 RAE0054B16E26 P0000 T01500117","FM-16","7",,,,,,,,,,,,,,,,,,,,,,,,,,,,"2006-02-03"
"72287493134","2020-03-13T17:52:00","FM-15","7",,,"3.89","mi",,,,,,,"PENDING COOP",,,,,,,,,,,,,,,,,,,,,,,,,,,"29.97","53","59","T",,,,"81","29.96","BKN:07 14 BKN:07 26 OVC:08 42","29.77","9.00","56","000",,"0",,,,,,,,,,,,,,,,,,,,,,,,,,,,,,,,,,,,,"MET12603/13/20 17:52:01 METAR KCQT 140152Z 00000KT 9SM BKN014 BKN026 OVC042 15/12 A2997 RMK AO2 RAE0054B16E26 SLP147 P0000 T01500117","FM-15","7",,,,,,,,,,,,,,,,,,,,,,,,,,,,"2006-02-03"
"72287493134","2020-03-13T18:26:00","FM-16","7",,,"3.89","mi",,,,,,,"PENDING COOP",,,,,,,,,,,,,,,,,,,,,,,,,,,"29.98","53","59",,,,,"81",,"SCT:04 12 SCT:04 28 OVC:08 44","29.78","9.00","56","000",,"0",,,,,,,,,,,,,,,,,,,,,,,,,,,,,,,,,,,,,"MET09903/13/20 18:26:01 SPECI KCQT 140226Z 00000KT 9SM SCT012 SCT028 OVC044 15/12 A2998 RMK AO2 T01500117","FM-16","7",,,,,,,,,,,,,,,,,,,,,,,,,,,,"2006-02-03"
"72287493134","2020-03-13T18:52:00","FM-15","7",,,"3.89","mi",,,,,,,"PENDING COOP",,,,,,,,,,,,,,,,,,,,,,,,,,,"29.98","53","59","0.00",,"-0.04","3","81","29.98","FEW:02 12 BKN:07 41 OVC:08 48","29.78","10.00","56","000",,"0",,,,,,,,,,,,,,,,,,,,,,,,,,,,,,,,,,,,,"MET11903/13/20 18:52:02 METAR KCQT 140252Z 00000KT 10SM FEW012 BKN041 OVC048 15/12 A2998 RMK AO2 SLP153 60000 T01500117 53014","FM-15","7",,,,,,,,,,,,,,,,,,,,,,,,,,,,"2006-02-03"
"72287493134","2020-03-13T18:59:00","FM-16","7",,,"3.89","mi",,,,,,,"PENDING COOP",,,,,,,,,,,,,,,,,,,,,,,,,,,"29.99","53","59",,,,,"81",,"FEW:02 12 BKN:07 21 OVC:08 50","29.79","10.00","56","000",,"0",,,,,,,,,,,,,,,,,,,,,,,,,,,,,,,,,,,,,"MET10003/13/20 18:59:01 SPECI KCQT 140259Z 00000KT 10SM FEW012 BKN021 OVC050 15/12 A2999 RMK AO2 T01500117","FM-16","7",,,,,,,,,,,,,,,,,,,,,,,,,,,,"2006-02-03"
"72287493134","2020-03-13T19:18:00","FM-16","7",,,"3.89","mi",,,,,,,"PENDING COOP",,,,,,,,,,,,,,,,,,,,,,,,,,,"29.99","53","59",,,,,"81",,"BKN:07 13 BKN:07 18 OVC:08 24","29.79","10.00","56","270",,"3",,,,,,,,,,,,,,,,,,,,,,,,,,,,,,,,,,,,,"MET10003/13/20 19:18:01 SPECI KCQT 140318Z 27003KT 10SM BKN013 BKN018 OVC024 15/12 A2999 RMK AO2 T01500117","FM-16","7",,,,,,,,,,,,,,,,,,,,,,,,,,,,"2006-02-03"
"72287493134","2020-03-13T19:25:00","FM-16","7",,,"3.89","mi",,,,,,,"PENDING COOP",,,,,,,,,,,,,,,,,,,,,,,,,,,"29.99","53","59",,,,,"81",,"BKN:07 15 OVC:08 21","29.79","10.00","56","000",,"0",,,,,,,,,,,,,,,,,,,,,,,,,,,,,,,,,,,,,"MET09303/13/20 19:25:01 SPECI KCQT 140325Z 00000KT 10SM BKN015 OVC021 15/12 A2999 RMK AO2 T01500117","FM-16","7",,,,,,,,,,,,,,,,,,,,,,,,,,,,"2006-02-03"
"72287493134","2020-03-13T19:52:00","FM-15","7",,,"3.89","mi",,,,,,,"PENDING COOP",,,,,,,,,,,,,,,,,,,,,,,,,,,"30.00","52","58","0.00",,,,"81","30.00","FEW:02 14 SCT:04 20 BKN:07 50","29.80","10.00","55","000",,"0",,,,,,,,,,,,,,,,,,,,,,,,,,,,,,,,,,,,,"MET10703/13/20 19:52:02 METAR KCQT 140352Z 00000KT 10SM FEW014 SCT020 BKN050 14/11 A3000 RMK AO2 SLP158 T01440111","FM-15","7",,,,,,,,,,,,,,,,,,,,,,,,,,,,"2006-02-03"
"72287493134","2020-03-13T20:03:00","FM-16","7",,,"3.89","mi",,,,,,,"PENDING COOP",,,,,,,,,,,,,,,,,,,,,,,,,,,"30.01","52","58",,,,,"81",,"FEW:02 14 BKN:07 21 BKN:07 50","29.81","10.00","55","000",,"0",,,,,,,,,,,,,,,,,,,,,,,,,,,,,,,,,,,,,"MET10003/13/20 20:03:02 SPECI KCQT 140403Z 00000KT 10SM FEW014 BKN021 BKN050 14/11 A3001 RMK AO2 T01440111","FM-16","7",,,,,,,,,,,,,,,,,,,,,,,,,,,,"2006-02-03"
"72287493134","2020-03-13T20:52:00","FM-15","7",,,"3.89","mi",,,,,,,"PENDING COOP",,,,,,,,,,,,,,,,,,,,,,,,,,,"30.02","52","58","0.00",,,,"81","30.02","SCT:04 15 OVC:08 22","29.82","10.00","55","000",,"0",,,,,,,,,,,,,,,,,,,,,,,,,,,,,,,,,,,,,"MET10003/13/20 20:52:02 METAR KCQT 140452Z 00000KT 10SM SCT015 OVC022 14/11 A3002 RMK AO2 SLP166 T01440111","FM-15","7",,,,,,,,,,,,,,,,,,,,,,,,,,,,"2006-02-03"
"72287493134","2020-03-13T21:35:00","FM-16","7",,,"3.89","mi",,,,,,,"PENDING COOP",,,,,,,,,,,,,,,,,,,,,,,,,,,"30.04","53","58",,,,,"84",,"SCT:04 15 OVC:08 47","29.84","9.00","55","000",,"0",,,,,,,,,,,,,,,,,,,,,,,,,,,,,,,,,,,,,"MET09203/13/20 21:35:02 SPECI KCQT 140535Z 00000KT 9SM SCT015 OVC047 14/12 A3004 RMK AO2 T01440117","FM-16","7",,,,,,,,,,,,,,,,,,,,,,,,,,,,"2006-02-03"
"72287493134","2020-03-13T21:52:00","FM-15","6",,,"3.89","mi",,,,,,,"PENDING COOP",,,,,,,,,,,,,,,,,,,,,,,,,,,"30.04","52","58","0.00",,"-0.05","1","81","30.03","FEW:02 15 OVC:08 47","29.84","8.00","55","000",,"0",,,,,,,,,,,,,,,,,,,,,,,,,,,,,,,,,,,,,"MET12303/13/20 21:52:02 METAR KCQT 140552Z 00000KT 8SM FEW015 OVC047 14/11 A3004 RMK AO2 SLP171 60000 T01440111 10150 20144 51018","FM-15","6",,,,,,,,,,,,,,,,,,,,,,,,,,,,"2006-02-03"
"72287493134","2020-03-13T22:52:00","FM-15","6",,,"3.89","mi",,,,,,,"PENDING COOP",,,,,,,,,,,,,,,,,,,,,,,,,,,"30.05","52","58","0.00",,,,"81","30.04","OVC:08 48","29.85","10.00","55","090",,"3",,,,,,,,,,,,,,,,,,,,,,,,,,,,,,,,,,,,,"MET09303/13/20 22:52:02 METAR KCQT 140652Z 09003KT 10SM OVC048 14/11 A3005 RMK AO2 SLP174 T01440111","FM-15","6",,,,,,,,,,,,,,,,,,,,,,,,,,,,"2006-02-03"
"72287493134","2020-03-13T23:11:00","FM-16","6",,,"3.89","mi",,,,,,,"PENDING COOP",,,,,,,,,,,,,,,,,,,,,,,,,,,"30.05","52","58",,,,,"81",,"BKN:07 18 BKN:07 32 OVC:08 48","29.85","10.00","55","000",,"0",,,,,,,,,,,,,,,,,,,,,,,,,,,,,,,,,,,,,"MET10003/13/20 23:11:02 SPECI KCQT 140711Z 00000KT 10SM BKN018 BKN032 OVC048 14/11 A3005 RMK AO2 T01440111","FM-16","6",,,,,,,,,,,,,,,,,,,,,,,,,,,,"2006-02-03"
"72287493134","2020-03-13T23:33:00","FM-16","6",,,"3.89","mi",,,,,,,"PENDING COOP",,,,,,,,,,,,,,,,,,,,,,,,,,,"30.05","52","58",,,,,"81",,"OVC:08 14","29.85","10.00","55","000",,"0",,,,,,,,,,,,,,,,,,,,,,,,,,,,,,,,,,,,,"MET08603/13/20 23:33:02 SPECI KCQT 140733Z 00000KT 10SM OVC014 14/11 A3005 RMK AO2 T01440111","FM-16","6",,,,,,,,,,,,,,,,,,,,,,,,,,,,"2006-02-03"
"72287493134","2020-03-13T23:49:00","FM-16","6",,,"3.89","mi",,,,,,,"PENDING COOP",,,,,,,,,,,,,,,,,,,,,,,,,,,"30.05","52","58",,,,,"81",,"SCT:04 13 BKN:07 23 OVC:08 55","29.85","10.00","55","000",,"0",,,,,,,,,,,,,,,,,,,,,,,,,,,,,,,,,,,,,"MET10003/13/20 23:49:02 SPECI KCQT 140749Z 00000KT 10SM SCT013 BKN023 OVC055 14/11 A3005 RMK AO2 T01440111","FM-16","6",,,,,,,,,,,,,,,,,,,,,,,,,,,,"2006-02-03"
"72287493134","2020-03-13T23:52:00","FM-15","6",,,"3.89","mi",,,,,,,"PENDING COOP",,,,,,,,,,,,,,,,,,,,,,,,,,,"30.05","52","58","0.00",,,,"81","30.05","SCT:04 13 SCT:04 23 OVC:08 50","29.85","10.00","55","000",,"0",,,,,,,,,,,,,,,,,,,,,,,,,,,,,,,,,,,,,"MET11703/13/20 23:52:02 METAR KCQT 140752Z 00000KT 10SM SCT013 SCT023 OVC050 14/11 A3005 RMK AO2 SLP176 T01440111 401560128","FM-15","6",,,,,,,,,,,,,,,,,,,,,,,,,,,,"2006-02-03"
"72287493134","2020-03-13T23:59:00","SOD  ","6",,,"3.89","mi",,,,,,,"PENDING COOP",,,,"51","58","80","29.93","29.72","54","0.9","0","-2.4","7","60","55","090","9","0.50",,,"100","7","RA BR HZ",,,,,,,,,,,,,,,,,,,,,,,,,,,,,,,,,,,,,,,,,,,,,,,,,,,,,,,,"SOD78824 HR PRECIPITATION (IN): 0.50 SNOW DEPTH (IN):0     24 HR SNOWFALL (IN):0.0  WEATHER(CODE):18  24 HR MAX TEMP (F): 6024 HR MIN TEMP (F): 55AVERAGE STATION PRESSURE(D):29.725 MINIMUM SEA LEVEL PRESSURE:29.82 TIME OF OCCURRENCE:0334 PEAK WIND SPEED (MPH):  9 PEAK WIND DIR (DEG): 90 PEAK WIND TIME (LST):      FASTEST 2MIN SPEED (MPH):  7FASTEST 2MIN DIR (DEG):100 FASTEST 2MIN TIME (LST):     AVERAGE WIND SPEED (MPH): 0.9 24 HR AVG TEMP (F): 58DEPART FROM NORMAL: -2  SKY COVER SR-SS (TENTHS): 1HEATING DEGREE DAYS:  7 COOLING DEGREE DAYS:  0 LATEST DAY MAX TEMP (0700-1900 LST): 60 LATEST NIGHT MIN TEMP(1900-0800 LST):55 HOURLY INCREMENTAL PRECIPITATION VALUES (IN):0.03 0.04 0.07 0.08 0.10 0.07 0.03 0.01T    T     0.01T    T     0.00 0.01 0.05T    T     0.00 0.00 0.00 0.00 0.00 0.00","SOD  ","6",,,,,,,,,,,,,,,,,,,,,,,,,"0605","1800",,"2006-02-03"
"72287493134","2020-03-14T00:52:00","FM-15","6",,,"3.89","mi",,,,,,,"PENDING COOP",,,,,,,,,,,,,,,,,,,,,,,,,,,"30.06","52","58","0.02s","-RA:02 |RA |RA","-0.02","2","81","30.06","FEW:02 15 BKN:07 36 OVC:08 45","29.86","5.00","55","000",,"0",,,,,,,,,,,,,,,,,,,,,,,,,,,,,,,,,,,,,"MET13403/14/20 00:52:02 METAR KCQT 140852Z 00000KT 5SM -RA FEW015 BKN036 OVC045 14/11 A3006 RMK AO2 RAB36 SLP179 P0001 60001 T01440111 52008","FM-15","6",,,,,,,,,,,,,,,,,,,,,,,,,,,,"2006-02-03"
"72287493134","2020-03-14T01:52:00","FM-15","6",,,"3.89","mi",,,,,,,"PENDING COOP",,,,,,,,,,,,,,,,,,,,,,,,,,,"30.06","51","57","T",,,,"81","30.05","BKN:07 40 BKN:07 49 OVC:08 60","29.86","10.00","54","000",,"0",,,,,,,,,,,,,,,,,,,,,,,,,,,,,,,,,,,,,"MET11903/14/20 01:52:02 METAR KCQT 140952Z 00000KT 10SM BKN040 BKN049 OVC060 14/11 A3006 RMK AO2 RAE19 SLP177 P0001 T01390106","FM-15","6",,,,,,,,,,,,,,,,,,,,,,,,,,,,"2006-02-03"
"72287493134","2020-03-14T02:52:00","FM-15","6",,,"3.89","mi",,,,,,,"PENDING COOP",,,,,,,,,,,,,,,,,,,,,,,,,,,"30.04","51","58","0.00",,,,"78","30.04","OVC:08 44","29.84","10.00","54","000",,"0",,,,,,,,,,,,,,,,,,,,,,,,,,,,,,,,,,,,,"MET09303/14/20 02:52:02 METAR KCQT 141052Z 00000KT 10SM OVC044 14/11 A3004 RMK AO2 SLP172 T01440106","FM-15","6",,,,,,,,,,,,,,,,,,,,,,,,,,,,"2006-02-03"
"72287493134","2020-03-14T03:52:00","FM-15","6",,,"3.89","mi",,,,,,,"PENDING COOP",,,,,,,,,,,,,,,,,,,,,,,,,,,"30.04","52","58","0.00",,"+0.02","6","81","30.03","SCT:04 41 OVC:08 60","29.84","10.00","55","000",,"0",,,,,,,,,,,,,,,,,,,,,,,,,,,,,,,,,,,,,"MET13003/14/20 03:52:02 METAR KCQT 141152Z 00000KT 10SM SCT041 OVC060 14/11 A3004 RMK AO2 SLP171 60002 70031 T01440111 10150 20139 56007","FM-15","6",,,,,,,,,,,,,,,,,,,,,,,,,,,,"2006-02-03"
"72287493134","2020-03-14T04:52:00","FM-15","7",,,"3.89","mi",,,,,,,"PENDING COOP",,,,,,,,,,,,,,,,,,,,,,,,,,,"30.05","52","58","0.00",,,,"81","30.05","SCT:04 21 BKN:07 42 OVC:08 70","29.85","10.00","55","130",,"3",,,,,,,,,,,,,,,,,,,,,,,,,,,,,,,,,,,,,"MET10703/14/20 04:52:02 METAR KCQT 141252Z 13003KT 10SM SCT021 BKN042 OVC070 14/11 A3005 RMK AO2 SLP176 T01440111","FM-15","7",,,,,,,,,,,,,,,,,,,,,,,,,,,,"2006-02-03"
"72287493134","2020-03-14T05:28:00","FM-16","7",,,"3.89","mi",,,,,,,"PENDING COOP",,,,,,,,,,,,,,,,,,,,,,,,,,,"30.06","52","57",,,,,"83",,"SCT:04 13 BKN:07 24 OVC:08 65","29.86","8.00","54","000",,"0",,,,,,,,,,,,,,,,,,,,,,,,,,,,,,,,,,,,,"MET09903/14/20 05:28:02 SPECI KCQT 141328Z 00000KT 8SM SCT013 BKN024 OVC065 14/11 A3006 RMK AO2 T01390111","FM-16","7",,,,,,,,,,,,,,,,,,,,,,,,,,,,"2006-02-03"
"72287493134","2020-03-14T05:39:00","FM-16","7",,,"3.89","mi",,,,,,,"PENDING COOP",,,,,,,,,,,,,,,,,,,,,,,,,,,"30.06","52","57",,,,,"83",,"FEW:02 13 BKN:07 32 OVC:08 70","29.86","8.00","54","000",,"0",,,,,,,,,,,,,,,,,,,,,,,,,,,,,,,,,,,,,"MET09903/14/20 05:39:02 SPECI KCQT 141339Z 00000KT 8SM FEW013 BKN032 OVC070 14/11 A3006 RMK AO2 T01390111","FM-16","7",,,,,,,,,,,,,,,,,,,,,,,,,,,,"2006-02-03"
"72287493134","2020-03-14T05:45:00","FM-16","7",,,"3.89","mi",,,,,,,"PENDING COOP",,,,,,,,,,,,,,,,,,,,,,,,,,,"30.06","52","58",,,,,"81",,"FEW:02 13 BKN:07 21 OVC:08 70","29.86","9.00","55","000",,"0",,,,,,,,,,,,,,,,,,,,,,,,,,,,,,,,,,,,,"MET09903/14/20 05:45:02 SPECI KCQT 141345Z 00000KT 9SM FEW013 BKN021 OVC070 14/11 A3006 RMK AO2 T01440111","FM-16","7",,,,,,,,,,,,,,,,,,,,,,,,,,,,"2006-02-03"
"72287493134","2020-03-14T05:52:00","FM-15","7",,,"3.89","mi",,,,,,,"PENDING COOP",,,,,,,,,,,,,,,,,,,,,,,,,,,"30.06","52","58","0.00",,,,"81","30.06","BKN:07 21 OVC:08 31","29.86","10.00","55","000",,"0",,,,,,,,,,,,,,,,,,,,,,,,,,,,,,,,,,,,,"MET10003/14/20 05:52:02 METAR KCQT 141352Z 00000KT 10SM BKN021 OVC031 14/11 A3006 RMK AO2 SLP180 T01440111","FM-15","7",,,,,,,,,,,,,,,,,,,,,,,,,,,,"2006-02-03"
"72287493134","2020-03-14T05:55:00","FM-16","7",,,"3.89","mi",,,,,,,"PENDING COOP",,,,,,,,,,,,,,,,,,,,,,,,,,,"30.06","52","58",,,,,"81",,"SCT:04 21 OVC:08 31","29.86","10.00","55","100",,"3",,,,,,,,,,,,,,,,,,,,,,,,,,,,,,,,,,,,,"MET09303/14/20 05:55:02 SPECI KCQT 141355Z 10003KT 10SM SCT021 OVC031 14/11 A3006 RMK AO2 T01440111","FM-16","7",,,,,,,,,,,,,,,,,,,,,,,,,,,,"2006-02-03"
"72287493134","2020-03-14T06:52:00","FM-15","7",,,"3.89","mi",,,,,,,"PENDING COOP",,,,,,,,,,,,,,,,,,,,,,,,,,,"30.08","52","58","0.00",,"-0.04","1","81","30.07","SCT:04 36 OVC:08 60","29.88","10.00","55","VRB",,"5",,,,,,,,,,,,,,,,,,,,,,,,,,,,,,,,,,,,,"MET10603/14/20 06:52:02 METAR KCQT 141452Z VRB04KT 10SM SCT036 OVC060 14/11 A3008 RMK AO2 SLP184 T01440111 51013","FM-15","7",,,,,,,,,,,,,,,,,,,,,,,,,,,,"2006-02-03"
"72287493134","2020-03-14T07:36:00","FM-16","7",,,"3.89","mi",,,,,,,"PENDING COOP",,,,,,,,,,,,,,,,,,,,,,,,,,,"30.10","52","58","0.01","-RA:02 |RA |RA",,,"81",,"SCT:04 15 BKN:07 22 OVC:08 55","29.90","2.50","55","000",,"0",,,,,,,,,,,,,,,,,,,,,,,,,,,,,,,,,,,,,"MET11903/14/20 07:36:02 SPECI KCQT 141536Z 00000KT 2 1/2SM -RA SCT015 BKN022 OVC055 14/11 A3010 RMK AO2 RAB15 P0001 T01440111","FM-16","7",,,,,,,,,,,,,,,,,,,,,,,,,,,,"2006-02-03"
"72287493134","2020-03-14T07:40:00","FM-16","7",,,"3.89","mi",,,,,,,"PENDING COOP",,,,,,,,,,,,,,,,,,,,,,,,,,,"30.10","52","58","0.03","+RA:02 |RA |RA",,,"81",,"SCT:04 10 BKN:07 15 OVC:08 50","29.90","1.50","55","000",,"0",,,,,,,,,,,,,,,,,,,,,,,,,,,,,,,,,,,,,"MET11903/14/20 07:40:02 SPECI KCQT 141540Z 00000KT 1 1/2SM +RA SCT010 BKN015 OVC050 14/11 A3010 RMK AO2 RAB15 P0003 T01440111","FM-16","7",,,,,,,,,,,,,,,,,,,,,,,,,,,,"2006-02-03"
"72287493134","2020-03-14T07:48:00","FM-16","7",,,"3.89","mi",,,,,,,"PENDING COOP",,,,,,,,,,,,,,,,,,,,,,,,,,,"30.10","53","57","0.06","-RA:02 BR:1 |RA |RA",,,"87",,"FEW:02 12 BKN:07 17 OVC:08 43","29.90","3.00","55","000",,"0",,,,,,,,,,,,,,,,,,,,,,,,,,,,,,,,,,,,,"MET11803/14/20 07:48:02 SPECI KCQT 141548Z 00000KT 3SM -RA BR FEW012 BKN017 OVC043 14/12 A3010 RMK AO2 RAB15 P0006 T01390117","FM-16","7",,,,,,,,,,,,,,,,,,,,,,,,,,,,"2006-02-03"
"72287493134","2020-03-14T07:52:00","FM-15","7",,,"3.89","mi",,,,,,,"PENDING COOP",,,,,,,,,,,,,,,,,,,,,,,,,,,"30.10","52","57","0.06","-RA:02 |RA |RA",,,"83","30.10","BKN:07 14 OVC:08 23","29.90","7.00","54","000",,"0",,,,,,,,,,,,,,,,,,,,,,,,,,,,,,,,,,,,,"MET11503/14/20 07:52:02 METAR KCQT 141552Z 00000KT 7SM -RA BKN014 OVC023 14/11 A3010 RMK AO2 RAB15 SLP194 P0006 T01390111","FM-15","7",,,,,,,,,,,,,,,,,,,,,,,,,,,,"2006-02-03"
"72287493134","2020-03-14T07:58:00","FM-16","7",,,"3.89","mi",,,,,,,"PENDING COOP",,,,,,,,,,,,,,,,,,,,,,,,,,,"30.11","52","57","T",,,,"83",,"FEW:02 10 BKN:07 16 OVC:08 26","29.91","10.00","54","000",,"0",,,,,,,,,,,,,,,,,,,,,,,,,,,,,,,,,,,,,"MET11203/14/20 07:58:02 SPECI KCQT 141558Z 00000KT 10SM FEW010 BKN016 OVC026 14/11 A3011 RMK AO2 RAE57 P0000 T01390111","FM-16","7",,,,,,,,,,,,,,,,,,,,,,,,,,,,"2006-02-03"
"72287493134","2020-03-14T08:03:00","FM-16","7",,,"3.89","mi",,,,,,,"PENDING COOP",,,,,,,,,,,,,,,,,,,,,,,,,,,"30.11","52","58","T",,,,"81",,"BKN:07 14 BKN:07 23 OVC:08 28","29.91","10.00","55","000",,"0",,,,,,,,,,,,,,,,,,,,,,,,,,,,,,,,,,,,,"MET11403/14/20 08:03:02 SPECI KCQT 141603Z 00000KT 10SM BKN014 BKN023 OVC028 14/11 A3011 RMK AO2 RAE1557 P0000 T01440111","FM-16","7",,,,,,,,,,,,,,,,,,,,,,,,,,,,"2006-02-03"
"72287493134","2020-03-14T08:20:00","FM-16","7",,,"3.89","mi",,,,,,,"PENDING COOP",,,,,,,,,,,,,,,,,,,,,,,,,,,"30.11","52","58","T",,,,"81",,"SCT:04 12 BKN:07 18 OVC:08 26","29.91","10.00","55","000",,"0",,,,,,,,,,,,,,,,,,,,,,,,,,,,,,,,,,,,,"MET11403/14/20 08:20:02 SPECI KCQT 141620Z 00000KT 10SM SCT012 BKN018 OVC026 14/11 A3011 RMK AO2 RAE1557 P0000 T01440111","FM-16","7",,,,,,,,,,,,,,,,,,,,,,,,,,,,"2006-02-03"
"72287493134","2020-03-14T08:26:00","FM-16","7",,,"3.89","mi",,,,,,,"PENDING COOP",,,,,,,,,,,,,,,,,,,,,,,,,,,"30.12","53","59","T",,,,"81",,"BKN:07 12 BKN:07 18 OVC:08 28","29.92","10.00","56","000",,"0",,,,,,,,,,,,,,,,,,,,,,,,,,,,,,,,,,,,,"MET11403/14/20 08:26:02 SPECI KCQT 141626Z 00000KT 10SM BKN012 BKN018 OVC028 15/12 A3012 RMK AO2 RAE1557 P0000 T01500117","FM-16","7",,,,,,,,,,,,,,,,,,,,,,,,,,,,"2006-02-03"
"72287493134","2020-03-14T08:39:00","FM-16","7",,,"3.89","mi",,,,,,,"PENDING COOP",,,,,,,,,,,,,,,,,,,,,,,,,,,"30.12","53","59","T",,,,"81",,"SCT:04 13 OVC:08 28","29.92","10.00","56","000",,"0",,,,,,,,,,,,,,,,,,,,,,,,,,,,,,,,,,,,,"MET10703/14/20 08:39:02 SPECI KCQT 141639Z 00000KT 10SM SCT013 OVC028 15/12 A3012 RMK AO2 RAE1557 P0000 T01500117","FM-16","7",,,,,,,,,,,,,,,,,,,,,,,,,,,,"2006-02-03"
"72287493134","2020-03-14T08:52:00","FM-15","7",,,"3.89","mi",,,,,,,"PENDING COOP",,,,,,,,,,,,,,,,,,,,,,,,,,,"30.12","52","59","0.00",,,,"78","30.11","FEW:02 13 BKN:07 28 OVC:08 50","29.92","9.00","55","120",,"3",,,,,,,,,,,,,,,,,,,,,,,,,,,,,,,,,,,,,"MET12003/14/20 08:52:02 METAR KCQT 141652Z 12003KT 9SM FEW013 BKN028 OVC050 15/11 A3012 RMK AO2 RAE1557 SLP198 P0000 T01500111","FM-15","7",,,,,,,,,,,,,,,,,,,,,,,,,,,,"2006-02-03"
"72287493134","2020-03-14T09:11:00","FM-16","7",,,"3.89","mi",,,,,,,"PENDING COOP",,,,,,,,,,,,,,,,,,,,,,,,,,,"30.12","52","59","T","-RA:02 |RA |RA",,,"78",,"SCT:04 11 BKN:07 31 OVC:08 50","29.92","4.00","55","100",,"3",,,,,,,,,,,,,,,,,,,,,,,,,,,,,,,,,,,,,"MET11503/14/20 09:11:02 SPECI KCQT 141711Z 10003KT 4SM -RA SCT011 BKN031 OVC050 15/11 A3012 RMK AO2 RAB05 P0000 T01500111","FM-16","7",,,,,,,,,,,,,,,,,,,,,,,,,,,,"2006-02-03"
"72287493134","2020-03-14T09:18:00","FM-16","7",,,"3.89","mi",,,,,,,"PENDING COOP",,,,,,,,,,,,,,,,,,,,,,,,,,,"30.11","52","59","T","-RA:02 |RA |RA",,,"78",,"SCT:04 11 BKN:07 18 OVC:08 50","29.91","4.00","55","VRB",,"3",,,,,,,,,,,,,,,,,,,,,,,,,,,,,,,,,,,,,"MET11503/14/20 09:18:02 SPECI KCQT 141718Z VRB03KT 4SM -RA SCT011 BKN018 OVC050 15/11 A3011 RMK AO2 RAB05 P0000 T01500111","FM-16","7",,,,,,,,,,,,,,,,,,,,,,,,,,,,"2006-02-03"
"72287493134","2020-03-14T09:34:00","FM-16","7",,,"3.89","mi",,,,,,,"PENDING COOP",,,,,,,,,,,,,,,,,,,,,,,,,,,"30.11","52","58","T","-RA:02 |RA |RA",,,"81",,"FEW:02 10 SCT:04 15 OVC:08 32","29.91","3.00","55","VRB",,"3",,,,,,,,,,,,,,,,,,,,,,,,,,,,,,,,,,,,,"MET11503/14/20 09:34:02 SPECI KCQT 141734Z VRB03KT 3SM -RA FEW010 SCT015 OVC032 14/11 A3011 RMK AO2 RAB05 P0000 T01440111","FM-16","7",,,,,,,,,,,,,,,,,,,,,,,,,,,,"2006-02-03"
"72287493134","2020-03-14T09:52:00","FM-15","7",,,"3.89","mi",,,,,,,"PENDING COOP",,,,,,,,,,,,,,,,,,,,,,,,,,,"30.12","52","58","0.02","-RA:02 |RA |RA","-0.04","0","81","30.11","SCT:04 21 BKN:07 32 OVC:08 42","29.92","5.00","55","000",,"0",,,,,,,,,,,,,,,,,,,,,,,,,,,,,,,,,,,,,"MET14603/14/20 09:52:02 METAR KCQT 141752Z 00000KT 5SM -RA SCT021 BKN032 OVC042 14/11 A3012 RMK AO2 RAB05 SLP198 P0001 60007 T01440111 10150 20139 50013","FM-15","7",,,,,,,,,,,,,,,,,,,,,,,,,,,,"2006-02-03"
"72287493134","2020-03-14T09:55:00","FM-16","7",,,"3.89","mi",,,,,,,"PENDING COOP",,,,,,,,,,,,,,,,,,,,,,,,,,,"30.12","53","58","T","RA:02 |RA |RA",,,"84",,"SCT:04 21 BKN:07 27 OVC:08 33","29.92","4.00","55","000",,"0",,,,,,,,,,,,,,,,,,,,,,,,,,,,,,,,,,,,,"MET10803/14/20 09:55:02 SPECI KCQT 141755Z 00000KT 4SM RA SCT021 BKN027 OVC033 14/12 A3012 RMK AO2 P0000 T01440117","FM-16","7",,,,,,,,,,,,,,,,,,,,,,,,,,,,"2006-02-03"
"72287493134","2020-03-14T10:01:00","FM-16","7",,,"3.89","mi",,,,,,,"PENDING COOP",,,,,,,,,,,,,,,,,,,,,,,,,,,"30.12","52","58","0.01","-RA:02 |RA |RA",,,"81",,"SCT:04 21 BKN:07 29 OVC:08 35","29.92","2.50","55","000",,"0",,,,,,,,,,,,,,,,,,,,,,,,,,,,,,,,,,,,,"MET11303/14/20 10:01:02 SPECI KCQT 141801Z 00000KT 2 1/2SM -RA SCT021 BKN029 OVC035 14/11 A3012 RMK AO2 P0001 T01440111","FM-16","7",,,,,,,,,,,,,,,,,,,,,,,,,,,,"2006-02-03"
"72287493134","2020-03-14T10:06:00","FM-16","7",,,"3.89","mi",,,,,,,"PENDING COOP",,,,,,,,,,,,,,,,,,,,,,,,,,,"30.12","53","58","0.01","-RA:02 |RA |RA",,,"84",,"SCT:04 16 BKN:07 21 OVC:08 29","29.92","4.00","55","000",,"0",,,,,,,,,,,,,,,,,,,,,,,,,,,,,,,,,,,,,"MET10903/14/20 10:06:02 SPECI KCQT 141806Z 00000KT 4SM -RA SCT016 BKN021 OVC029 14/12 A3012 RMK AO2 P0001 T01440117","FM-16","7",,,,,,,,,,,,,,,,,,,,,,,,,,,,"2006-02-03"
"72287493134","2020-03-14T10:29:00","FM-16","7",,,"3.89","mi",,,,,,,"PENDING COOP",,,,,,,,,,,,,,,,,,,,,,,,,,,"30.12","53","59","0.02",,,,"81",,"BKN:07 12 BKN:07 21 OVC:08 36","29.92","8.00","56","000",,"0",,,,,,,,,,,,,,,,,,,,,,,,,,,,,,,,,,,,,"MET11103/14/20 10:29:02 SPECI KCQT 141829Z 00000KT 8SM BKN012 BKN021 OVC036 15/12 A3012 RMK AO2 RAE20 P0002 T01500117","FM-16","7",,,,,,,,,,,,,,,,,,,,,,,,,,,,"2006-02-03"
"72287493134","2020-03-14T10:41:00","FM-16","7",,,"3.89","mi",,,,,,,"PENDING COOP",,,,,,,,,,,,,,,,,,,,,,,,,,,"30.12","53","59","0.03","RA:02 |RA |RA",,,"81",,"BKN:07 12 OVC:08 21","29.92","2.50","56","000",,"0",,,,,,,,,,,,,,,,,,,,,,,,,,,,,,,,,,,,,"MET11403/14/20 10:41:02 SPECI KCQT 141841Z 00000KT 2 1/2SM RA BKN012 OVC021 15/12 A3012 RMK AO2 RAE20B36 P0003 T01500117","FM-16","7",,,,,,,,,,,,,,,,,,,,,,,,,,,,"2006-02-03"
"72287493134","2020-03-14T10:52:00","FM-15","7",,,"3.89","mi",,,,,,,"PENDING COOP",,,,,,,,,,,,,,,,,,,,,,,,,,,"30.11","53","58","0.05","-RA:02 |RA |RA",,,"84","30.11","BKN:07 11 OVC:08 14","29.91","2.50","55","000",,"0",,,,,,,,,,,,,,,,,,,,,,,,,,,,,,,,,,,,,"MET12203/14/20 10:52:02 METAR KCQT 141852Z 00000KT 2 1/2SM -RA BKN011 OVC014 14/12 A3011 RMK AO2 RAE20B36 SLP197 P0006 T01440117","FM-15","7",,,,,,,,,,,,,,,,,,,,,,,,,,,,"2006-02-03"
"72287493134","2020-03-14T10:58:00","FM-16","7",,,"3.89","mi",,,,,,,"PENDING COOP",,,,,,,,,,,,,,,,,,,,,,,,,,,"30.11","53","59","T","-RA:02 |RA |RA",,,"81",,"OVC:08 11","29.91","3.00","56","000",,"0",,,,,,,,,,,,,,,,,,,,,,,,,,,,,,,,,,,,,"MET10703/14/20 10:58:02 SPECI KCQT 141858Z 00000KT 3SM -RA OVC011 15/12 A3011 RMK AO2 CIG 008V014 P0000 T01500117","FM-16","7",,,,,,,,,,,,,,,,,,,,,,,,,,,,"2006-02-03"
"72287493134","2020-03-14T11:15:00","FM-16","7",,,"3.89","mi",,,,,,,"PENDING COOP",,,,,,,,,,,,,,,,,,,,,,,,,,,"30.12","53","60","T",,,,"78",,"SCT:04 10 BKN:07 27 OVC:08 42","29.92","10.00","56","040",,"3",,,,,,,,,,,,,,,,,,,,,,,,,,,,,,,,,,,,,"MET11203/14/20 11:15:02 SPECI KCQT 141915Z 04003KT 10SM SCT010 BKN027 OVC042 16/12 A3012 RMK AO2 RAE05 P0000 T01560117","FM-16","7",,,,,,,,,,,,,,,,,,,,,,,,,,,,"2006-02-03"
"72287493134","2020-03-14T11:51:00","FM-15","7",,,"3.89","mi",,,,,,,"PENDING COOP",,,,,,,,,,,,,,,,,,,,,,,,,,,"30.11","54","60","0.05","+RA:02 |RA |RA",,,"80","30.11","BKN:07 13 BKN:07 21 OVC:08 43","29.91","2.00","57","000",,"0",,,,,,,,,,,,,,,,,,,,,,,,,,,,,,,,,,,,,"MET12503/14/20 11:51:02 METAR KCQT 141951Z 00000KT 2SM +RA BKN013 BKN021 OVC043 16/12 A3011 RMK AO2 RAE05B41 SLP197 P0002 T01560122","FM-15","7",,,,,,,,,,,,,,,,,,,,,,,,,,,,"2006-02-03"
"72287493134","2020-03-14T11:54:00","FM-16","7",,,"3.89","mi",,,,,,,"PENDING COOP",,,,,,,,,,,,,,,,,,,,,,,,,,,"30.11","54","59","0.01","RA:02 |RA |RA",,,"83",,"BKN:07 13 OVC:08 21","29.91","1.50","56","000",,"0",,,,,,,,,,,,,,,,,,,,,,,,,,,,,,,,,,,,,"MET10503/14/20 11:54:02 SPECI KCQT 141954Z 00000KT 1 1/2SM RA BKN013 OVC021 15/12 A3011 RMK AO2 P0001 T01500122","FM-16","7",,,,,,,,,,,,,,,,,,,,,,,,,,,,"2006-02-03"
"72287493134","2020-03-14T12:03:00","FM-16","7",,,"3.89","mi",,,,,,,"PENDING COOP",,,,,,,,,,,,,,,,,,,,,,,,,,,"30.11","53","58","0.04","-RA:02 |RA |RA",,,"84",,"BKN:07 14 OVC:08 21","29.91","2.00","55","000",,"0",,,,,,,,,,,,,,,,,,,,,,,,,,,,,,,,,,,,,"MET10203/14/20 12:03:02 SPECI KCQT 142003Z 00000KT 2SM -RA BKN014 OVC021 14/12 A3011 RMK AO2 P0004 T01440117","FM-16","7",,,,,,,,,,,,,,,,,,,,,,,,,,,,"2006-02-03"
"72287493134","2020-03-14T12:08:00","FM-16","7",,,"3.89","mi",,,,,,,"PENDING COOP",,,,,,,,,,,,,,,,,,,,,,,,,,,"30.11","53","59","0.04","-RA:02 |RA |RA",,,"81",,"BKN:07 14 OVC:08 19","29.91","3.00","56","VRB",,"3",,,,,,,,,,,,,,,,,,,,,,,,,,,,,,,,,,,,,"MET10203/14/20 12:08:02 SPECI KCQT 142008Z VRB03KT 3SM -RA BKN014 OVC019 15/12 A3011 RMK AO2 P0004 T01500117","FM-16","7",,,,,,,,,,,,,,,,,,,,,,,,,,,,"2006-02-03"
"72287493134","2020-03-14T12:22:00","FM-16","7",,,"3.89","mi",,,,,,,"PENDING COOP",,,,,,,,,,,,,,,,,,,,,,,,,,,"30.11","53","58","0.05","-RA:02 |RA |RA",,,"84",,"BKN:07 12 BKN:07 19 OVC:08 28","29.91","2.50","55","250",,"3",,,,,,,,,,,,,,,,,,,,,,,,,,,,,,,,,,,,,"MET11303/14/20 12:22:02 SPECI KCQT 142022Z 25003KT 2 1/2SM -RA BKN012 BKN019 OVC028 14/12 A3011 RMK AO2 P0005 T01440117","FM-16","7",,,,,,,,,,,,,,,,,,,,,,,,,,,,"2006-02-03"
"72287493134","2020-03-14T12:28:00","FM-16","7",,,"3.89","mi",,,,,,,"PENDING COOP",,,,,,,,,,,,,,,,,,,,,,,,,,,"30.11","53","58","0.06","-RA:02 |RA |RA",,,"84",,"SCT:04 9 BKN:07 14 OVC:08 37","29.91","2.00","55","260",,"5",,,,,,,,,,,,,,,,,,,,,,,,,,,,,,,,,,,,,"MET10903/14/20 12:28:02 SPECI KCQT 142028Z 26004KT 2SM -RA SCT009 BKN014 OVC037 14/12 A3011 RMK AO2 P0006 T01440117","FM-16","7",,,,,,,,,,,,,,,,,,,,,,,,,,,,"2006-02-03"
"72287493134","2020-03-14T12:33:00","FM-16","7",,,"3.89","mi",,,,,,,"PENDING COOP",,,,,,,,,,,,,,,,,,,,,,,,,,,"30.11","54","58","0.06","-RA:02 BR:1 |RA |RA",,,"87",,"FEW:02 9 BKN:07 28 OVC:08 37","29.91","3.00","56","250",,"5",,,,,,,,,,,,,,,,,,,,,,,,,,,,,,,,,,,,,"MET11203/14/20 12:33:02 SPECI KCQT 142033Z 25004KT 3SM -RA BR FEW009 BKN028 OVC037 14/12 A3011 RMK AO2 P0006 T01440122","FM-16","7",,,,,,,,,,,,,,,,,,,,,,,,,,,,"2006-02-03"
"72287493134","2020-03-14T12:38:00","FM-16","7",,,"3.89","mi",,,,,,,"PENDING COOP",,,,,,,,,,,,,,,,,,,,,,,,,,,"30.11","54","58","0.06","BR:1 ||",,,"87",,"FEW:02 9 SCT:04 13 OVC:08 37","29.91","5.00","56","260",,"5",,,,,,,,,,,,,,,,,,,,,,,,,,,,,,,,,,,,,"MET11403/14/20 12:38:02 SPECI KCQT 142038Z 26004KT 5SM BR FEW009 SCT013 OVC037 14/12 A3011 RMK AO2 RAE35 P0006 T01440122","FM-16","7",,,,,,,,,,,,,,,,,,,,,,,,,,,,"2006-02-03"
"72287493134","2020-03-14T12:48:00","FM-16","7",,,"3.89","mi",,,,,,,"PENDING COOP",,,,,,,,,,,,,,,,,,,,,,,,,,,"30.11","54","59","0.06",,,,"83",,"SCT:04 9 BKN:07 13 OVC:08 38","29.91","9.00","56","260",,"5",,,,,,,,,,,,,,,,,,,,,,,,,,,,,,,,,,,,,"MET11103/14/20 12:48:02 SPECI KCQT 142048Z 26004KT 9SM SCT009 BKN013 OVC038 15/12 A3011 RMK AO2 RAE35 P0006 T01500122","FM-16","7",,,,,,,,,,,,,,,,,,,,,,,,,,,,"2006-02-03"
"72287493134","2020-03-14T12:52:00","FM-15","7",,,"3.89","mi",,,,,,,"PENDING COOP",,,,,,,,,,,,,,,,,,,,,,,,,,,"30.11","54","59","0.03",,"+0.00","6","83","30.11","SCT:04 9 BKN:07 14 OVC:08 38","29.91","10.00","56","250",,"5",,,,,,,,,,,,,,,,,,,,,,,,,,,,,,,,,,,,,"MET13103/14/20 12:52:02 METAR KCQT 142052Z 25004KT 10SM SCT009 BKN014 OVC038 15/12 A3011 RMK AO2 RAE35 SLP196 P0006 60014 T01500122 56001","FM-15","7",,,,,,,,,,,,,,,,,,,,,,,,,,,,"2006-02-03"
"72287493134","2020-03-14T13:25:00","FM-16","6",,,"3.89","mi",,,,,,,"PENDING COOP",,,,,,,,,,,,,,,,,,,,,,,,,,,"30.11","53","60",,,,,"78",,"SCT:04 12 BKN:07 40 OVC:08 50","29.91","10.00","56",,,,,,,,,,,,,,,,,,,,,,,,,,,,,,,,,,,,,,,,"MET10003/14/20 13:25:02 SPECI KCQT 142125Z      KT 10SM SCT012 BKN040 OVC050 16/12 A3011 RMK AO2 T01560117","FM-16","6",,,,,,,,,,,,,,,,,,,,,,,,,,,,"2006-02-03"
"72287493134","2020-03-14T13:52:00","FM-15","7",,,"3.89","mi",,,,,,,"PENDING COOP",,,,,,,,,,,,,,,,,,,,,,,,,,,"30.11","51","60","0.00",,,,"72","30.11","SCT:04 17 BKN:07 28 OVC:08 37","29.91","10.00","55","VRB",,"5",,,,,,,,,,,,,,,,,,,,,,,,,,,,,,,,,,,,,"MET10703/14/20 13:52:02 METAR KCQT 142152Z VRB04KT 10SM SCT017 BKN028 OVC037 16/11 A3011 RMK AO2 SLP195 T01560106","FM-15","7",,,,,,,,,,,,,,,,,,,,,,,,,,,,"2006-02-03"
"72287493134","2020-03-14T14:35:00","FM-16","7",,,"3.89","mi",,,,,,,"PENDING COOP",,,,,,,,,,,,,,,,,,,,,,,,,,,"30.10","52","58","T","RA:02 |RA |RA",,,"81",,"FEW:02 9 BKN:07 19 OVC:08 30","29.90","2.50","55","000",,"0",,,,,,,,,,,,,,,,,,,,,,,,,,,,,,,,,,,,,"MET11803/14/20 14:35:02 SPECI KCQT 142235Z 00000KT 2 1/2SM RA FEW009 BKN019 OVC030 14/11 A3010 RMK AO2 RAB35 P0000 T01440111","FM-16","7",,,,,,,,,,,,,,,,,,,,,,,,,,,,"2006-02-03"
"72287493134","2020-03-14T14:39:00","FM-16","7",,,"3.89","mi",,,,,,,"PENDING COOP",,,,,,,,,,,,,,,,,,,,,,,,,,,"30.10","52","58","0.02","RA:02 |RA |RA",,,"81",,"FEW:02 9 BKN:07 19 OVC:08 32","29.90","1.50","55","000",,"0",,,,,,,,,,,,,,,,,,,,,,,,,,,,,,,,,,,,,"MET11803/14/20 14:39:02 SPECI KCQT 142239Z 00000KT 1 1/2SM RA FEW009 BKN019 OVC032 14/11 A3010 RMK AO2 RAB35 P0002 T01440111","FM-16","7",,,,,,,,,,,,,,,,,,,,,,,,,,,,"2006-02-03"
"72287493134","2020-03-14T14:47:00","FM-16","7",,,"3.89","mi",,,,,,,"PENDING COOP",,,,,,,,,,,,,,,,,,,,,,,,,,,"30.10","53","58","0.02","-RA:02 |RA |RA",,,"84",,"FEW:02 9 BKN:07 19 OVC:08 30","29.90","2.50","55","000",,"0",,,,,,,,,,,,,,,,,,,,,,,,,,,,,,,,,,,,,"MET11903/14/20 14:47:02 SPECI KCQT 142247Z 00000KT 2 1/2SM -RA FEW009 BKN019 OVC030 14/12 A3010 RMK AO2 RAB35 P0002 T01440117","FM-16","7",,,,,,,,,,,,,,,,,,,,,,,,,,,,"2006-02-03"
"72287493134","2020-03-14T14:52:00","FM-15","7",,,"3.89","mi",,,,,,,"PENDING COOP",,,,,,,,,,,,,,,,,,,,,,,,,,,"30.10","53","58","0.03","HZ:7 |FU |HZ",,,"84","30.10","SCT:04 9 BKN:07 23 OVC:08 30","29.90","3.00","55","000",,"0",,,,,,,,,,,,,,,,,,,,,,,,,,,,,,,,,,,,,"MET12403/14/20 14:52:02 METAR KCQT 142252Z 00000KT 3SM HZ SCT009 BKN023 OVC030 14/12 A3010 RMK AO2 RAB35E52 SLP193 P0003 T01440117","FM-15","7",,,,,,,,,,,,,,,,,,,,,,,,,,,,"2006-02-03"
"72287493134","2020-03-14T15:05:00","FM-16","7",,,"3.89","mi",,,,,,,"PENDING COOP",,,,,,,,,,,,,,,,,,,,,,,,,,,"30.11","53","58","T","-RA:02 |RA |RA",,,"84",,"BKN:07 9 BKN:07 13 OVC:08 25","29.91","4.00","55","VRB",,"3",,,,,,,,,,,,,,,,,,,,,,,,,,,,,,,,,,,,,"MET11503/14/20 15:05:02 SPECI KCQT 142305Z VRB03KT 4SM -RA BKN009 BKN013 OVC025 14/12 A3011 RMK AO2 RAB00 P0000 T01440117","FM-16","7",,,,,,,,,,,,,,,,,,,,,,,,,,,,"2006-02-03"
"72287493134","2020-03-14T15:27:00","FM-16","7",,,"3.89","mi",,,,,,,"PENDING COOP",,,,,,,,,,,,,,,,,,,,,,,,,,,"30.10","52","57","T","-RA:02 |RA |RA",,,"83",,"BKN:07 7 OVC:08 12","29.90","2.50","54","260",,"3",,,,,,,,,,,,,,,,,,,,,,,,,,,,,,,,,,,,,"MET11203/14/20 15:27:02 SPECI KCQT 142327Z 26003KT 2 1/2SM -RA BKN007 OVC012 14/11 A3010 RMK AO2 RAB00 P0000 T01390111","FM-16","7",,,,,,,,,,,,,,,,,,,,,,,,,,,,"2006-02-03"
"72287493134","2020-03-14T15:31:00","FM-16","7",,,"3.89","mi",,,,,,,"PENDING COOP",,,,,,,,,,,,,,,,,,,,,,,,,,,"30.11","52","57","T","-RA:02 |RA |RA",,,"83",,"OVC:08 9","29.91","4.00","54","280",,"5",,,,,,,,,,,,,,,,,,,,,,,,,,,,,,,,,,,,,"MET10103/14/20 15:31:02 SPECI KCQT 142331Z 28004KT 4SM -RA OVC009 14/11 A3011 RMK AO2 RAB00 P0000 T01390111","FM-16","7",,,,,,,,,,,,,,,,,,,,,,,,,,,,"2006-02-03"
"72287493134","2020-03-14T15:52:00","FM-15","7",,,"3.89","mi",,,,,,,"PENDING COOP",,,,,,,,,,,,,,,,,,,,,,,,,,,"30.10","51","58","T",,"+0.01","5","78","30.10","OVC:08 11","29.90","10.00","54","250",,"3",,,,,,,,,,,,,,,,,,,,,,,,,,,,,,,,,,,,,"MET13203/14/20 15:52:02 METAR KCQT 142352Z 25003KT 10SM OVC011 14/11 A3010 RMK AO2 RAB00E35 SLP193 P0000 60017 T01440106 10161 20139 55002","FM-15","7",,,,,,,,,,,,,,,,,,,,,,,,,,,,"2006-02-03"
"72287493134","2020-03-14T16:11:00","FM-16","7",,,"3.89","mi",,,,,,,"PENDING COOP",,,,,,,,,,,,,,,,,,,,,,,,,,,"30.10","51","58",,,,,"78",,"SCT:04 12 BKN:07 16 OVC:08 70","29.90","10.00","54","000",,"0",,,,,,,,,,,,,,,,,,,,,,,,,,,,,,,,,,,,,"MET10003/14/20 16:11:01 SPECI KCQT 150011Z 00000KT 10SM SCT012 BKN016 OVC070 14/11 A3010 RMK AO2 T01440106","FM-16","7",,,,,,,,,,,,,,,,,,,,,,,,,,,,"2006-02-03"
"72287493134","2020-03-14T16:15:00","FM-16","7",,,"3.89","mi",,,,,,,"PENDING COOP",,,,,,,,,,,,,,,,,,,,,,,,,,,"30.10","51","58",,,,,"78",,"SCT:04 14 OVC:08 75","29.90","10.00","54","000",,"0",,,,,,,,,,,,,,,,,,,,,,,,,,,,,,,,,,,,,"MET09303/14/20 16:15:01 SPECI KCQT 150015Z 00000KT 10SM SCT014 OVC075 14/11 A3010 RMK AO2 T01440106","FM-16","7",,,,,,,,,,,,,,,,,,,,,,,,,,,,"2006-02-03"
"72287493134","2020-03-14T16:52:00","FM-15","7",,,"3.89","mi",,,,,,,"PENDING COOP",,,,,,,,,,,,,,,,,,,,,,,,,,,"30.11","51","59","0.00",,,,"75","30.10","FEW:02 38 OVC:08 70","29.91","10.00","55","000",,"0",,,,,,,,,,,,,,,,,,,,,,,,,,,,,,,,,,,,,"MET10003/14/20 16:52:01 METAR KCQT 150052Z 00000KT 10SM FEW038 OVC070 15/11 A3011 RMK AO2 SLP194 T01500106","FM-15","7",,,,,,,,,,,,,,,,,,,,,,,,,,,,"2006-02-03"
"72287493134","2020-03-14T17:52:00","FM-15","7",,,"3.89","mi",,,,,,,"PENDING COOP",,,,,,,,,,,,,,,,,,,,,,,,,,,"30.11","50","59","0.00",,,,"72","30.11","FEW:02 46 OVC:08 75","29.91","10.00","54","000",,"0",,,,,,,,,,,,,,,,,,,,,,,,,,,,,,,,,,,,,"MET10003/14/20 17:52:01 METAR KCQT 150152Z 00000KT 10SM FEW046 OVC075 15/10 A3011 RMK AO2 SLP196 T01500100","FM-15","7",,,,,,,,,,,,,,,,,,,,,,,,,,,,"2006-02-03"
"72287493134","2020-03-14T18:52:00","FM-15","7",,,"3.89","mi",,,,,,,"PENDING COOP",,,,,,,,,,,,,,,,,,,,,,,,,,,"30.11","51","59","0.00",,"-0.01","0","75","30.11","FEW:02 46 OVC:08 65","29.91","10.00","55","000",,"0",,,,,,,,,,,,,,,,,,,,,,,,,,,,,,,,,,,,,"MET10603/14/20 18:52:01 METAR KCQT 150252Z 00000KT 10SM FEW046 OVC065 15/11 A3011 RMK AO2 SLP195 T01500106 50002","FM-15","7",,,,,,,,,,,,,,,,,,,,,,,,,,,,"2006-02-03"
"72287493134","2020-03-14T19:52:00","FM-15","7",,,"3.89","mi",,,,,,,"PENDING COOP",,,,,,,,,,,,,,,,,,,,,,,,,,,"30.11","50","59","0.00",,,,"72","30.11","BKN:07 47 OVC:08 75","29.91","10.00","54","000",,"0",,,,,,,,,,,,,,,,,,,,,,,,,,,,,,,,,,,,,"MET10003/14/20 19:52:02 METAR KCQT 150352Z 00000KT 10SM BKN047 OVC075 15/10 A3011 RMK AO2 SLP195 T01500100","FM-15","7",,,,,,,,,,,,,,,,,,,,,,,,,,,,"2006-02-03"
"72287493134","2020-03-14T20:52:00","FM-15","7",,,"3.89","mi",,,,,,,"PENDING COOP",,,,,,,,,,,,,,,,,,,,,,,,,,,"30.11","51","58","0.00",,,,"78","30.11","OVC:08 50","29.91","10.00","54","000",,"0",,,,,,,,,,,,,,,,,,,,,,,,,,,,,,,,,,,,,"MET09303/14/20 20:52:02 METAR KCQT 150452Z 00000KT 10SM OVC050 14/11 A3011 RMK AO2 SLP196 T01440106","FM-15","7",,,,,,,,,,,,,,,,,,,,,,,,,,,,"2006-02-03"
"72287493134","2020-03-14T21:52:00","FM-15","7",,,"3.89","mi",,,,,,,"PENDING COOP",,,,,,,,,,,,,,,,,,,,,,,,,,,"30.12","52","58","0.00",,"-0.01","3","81","30.11","OVC:08 70","29.92","10.00","55","000",,"0",,,,,,,,,,,,,,,,,,,,,,,,,,,,,,,,,,,,,"MET11103/14/20 21:52:02 METAR KCQT 150552Z 00000KT 10SM OVC070 14/11 A3012 RMK AO2 SLP198 T01440111 10150 20144 53003","FM-15","7",,,,,,,,,,,,,,,,,,,,,,,,,,,,"2006-02-03"
"72287493134","2020-03-14T22:52:00","FM-15","7",,,"3.89","mi",,,,,,,"PENDING COOP",,,,,,,,,,,,,,,,,,,,,,,,,,,"30.12","52","58","0.00",,,,"81","30.12","BKN:07 55 OVC:08 70","29.92","10.00","55","000",,"0",,,,,,,,,,,,,,,,,,,,,,,,,,,,,,,,,,,,,"MET10003/14/20 22:52:02 METAR KCQT 150652Z 00000KT 10SM BKN055 OVC070 14/11 A3012 RMK AO2 SLP199 T01440111","FM-15","7",,,,,,,,,,,,,,,,,,,,,,,,,,,,"2006-02-03"
"72287493134","2020-03-14T23:52:00","FM-15","7",,,"3.89","mi",,,,,,,"PENDING COOP",,,,,,,,,,,,,,,,,,,,,,,,,,,"30.11","52","57","0.00",,,,"83","30.11","OVC:08 70","29.91","10.00","54","000",,"0",,,,,,,,,,,,,,,,,,,,,,,,,,,,,,,,,,,,,"MET10303/14/20 23:52:02 METAR KCQT 150752Z 00000KT 10SM OVC070 14/11 A3011 RMK AO2 SLP197 T01390111 401610139","FM-15","7",,,,,,,,,,,,,,,,,,,,,,,,,,,,"2006-02-03"
"72287493134","2020-03-14T23:59:00","SOD  ","6",,,"3.89","mi",,,,,,,"PENDING COOP",,,,"52","59","79","30.09","29.90","55","1.0","0","-1.5","6","61","57","260","10","0.26",,,"270","7","RA BR HZ",,,,,,,,,,,,,,,,,,,,,,,,,,,,,,,,,,,,,,,,,,,,,,,,,,,,,,,,"SOD78824 HR PRECIPITATION (IN): 0.26 SNOW DEPTH (IN):0     24 HR SNOWFALL (IN):0.0  WEATHER(CODE):18  24 HR MAX TEMP (F): 6124 HR MIN TEMP (F): 57AVERAGE STATION PRESSURE(D):29.902 MINIMUM SEA LEVEL PRESSURE:30.03 TIME OF OCCURRENCE:0345 PEAK WIND SPEED (MPH): 10 PEAK WIND DIR (DEG):260 PEAK WIND TIME (LST):      FASTEST 2MIN SPEED (MPH):  7FASTEST 2MIN DIR (DEG):270 FASTEST 2MIN TIME (LST):     AVERAGE WIND SPEED (MPH): 1.0 24 HR AVG TEMP (F): 59DEPART FROM NORMAL: -1  SKY COVER SR-SS (TENTHS): 1HEATING DEGREE DAYS:  6 COOLING DEGREE DAYS:  0 LATEST DAY MAX TEMP (0700-1900 LST): 61 LATEST NIGHT MIN TEMP(1900-0800 LST):57 HOURLY INCREMENTAL PRECIPITATION VALUES (IN):0.02T     0.00 0.00 0.00 0.00 0.00 0.06 0.00 0.02 0.05 0.05 0.03 0.00 0.03T     0.00 0.00 0.00 0.00 0.00 0.00 0.00 0.00","SOD  ","6",,,,,,,,,,,,,,,,,,,,,,,,,"0604","1801",,"2006-02-03"
